{
  "type": "FeatureCollection",
  "properties": {
    "dabs_date": "2026-10-03",
    "version": 3,
    "generated_utc": "2026-10-03T10:45:00+00:00"
  },
  "features": [
    {
      "type": "Feature",
      "geometry": {
        "type": "Polygon",
        "coordinates": [
          [
            [
              7.003056,
              47.470841
            ],
            [
              7.008011,
              47.470676
            ],
            [
              7.012918,
              47.470184
            ],
            [
              7.017731,
              47.469368
            ],
            [
              7.022402,
              47.468238
            ],
            [
              7.026886,
              47.466803
            ],
            [
              7.03114,
              47.465078
            ],
            [
              7.035123,
              47.463079
            ],
            [
              7.038797,
              47.460826
            ],
            [
              7.042127,
              47.45834
            ],
            [
              7.045079,
              47.455645
            ],
            [
              7.047627,
              47.452768
            ],
            [
              7.049745,
              47.449735
            ],
            [
              7.051412,
              47.446577
            ],
            [
              7.052614,
              47.443323
            ],
            [
              7.053339,
              47.440005
            ],
            [
              7.053579,
              47.436656
            ],
            [
              7.053332,
              47.433306
            ],
            [
              7.052602,
              47.429989
            ],
            [
              7.051394,
              47.426736
            ],
            [
              7.049721,
              47.423579
            ],
            [
              7.047599,
              47.420548
            ],
            [
              7.045049,
              47.417673
            ],
            [
              7.042094,
              47.41498
            ],
            [
              7.038764,
              47.412496
            ],
            [
              7.035091,
              47.410245
            ],
            [
              7.03111,
              47.408248
            ],
            [
              7.026858,
              47.406525
            ],
            [
              7.022378,
              47.405092
            ],
            [
              7.017713,
              47.403963
            ],
            [
              7.012906,
              47.403149
            ],
            [
              7.008005,
              47.402657
            ],
            [
              7.003056,
              47.402492
            ],
            [
              6.998107,
              47.402657
            ],
            [
              6.993205,
              47.403149
            ],
            [
              6.988399,
              47.403963
            ],
            [
              6.983733,
              47.405092
            ],
            [
              6.979253,
              47.406525
            ],
            [
              6.975001,
              47.408248
            ],
            [
              6.97102,
              47.410245
            ],
            [
              6.967347,
              47.412496
            ],
            [
              6.964017,
              47.41498
            ],
            [
              6.961062,
              47.417673
            ],
            [
              6.958512,
              47.420548
            ],
            [
              6.95639,
              47.423579
            ],
            [
              6.954717,
              47.426736
            ],
            [
              6.953509,
              47.429989
            ],
            [
              6.952779,
              47.433306
            ],
            [
              6.952532,
              47.436656
            ],
            [
              6.952772,
              47.440005
            ],
            [
              6.953497,
              47.443323
            ],
            [
              6.954699,
              47.446577
            ],
            [
              6.956367,
              47.449735
            ],
            [
              6.958484,
              47.452768
            ],
            [
              6.961032,
              47.455645
            ],
            [
              6.963984,
              47.45834
            ],
            [
              6.967314,
              47.460826
            ],
            [
              6.970988,
              47.463079
            ],
            [
              6.974971,
              47.465078
            ],
            [
              6.979225,
              47.466803
            ],
            [
              6.98371,
              47.468238
            ],
            [
              6.98838,
              47.469368
            ],
            [
              6.993193,
              47.470184
            ],
            [
              6.9981,
              47.470676
            ],
            [
              7.003056,
              47.470841
            ]
          ]
        ]
      },
      "properties": {
        "id": "LSR18",
        "notam": "W2610/26",
        "on_chart": true,
        "valid_from_utc": "2026-10-03T05:30:00+00:00",
        "valid_to_utc": "2026-10-03T23:59:00+00:00",
        "lower": {
          "raw": "GND",
          "meters": 0,
          "feet": 0,
          "flight_level": null,
          "gnd": true
        },
        "upper": {
          "raw": "1350m / 4500ft",
          "meters": 1350,
          "feet": 4500,
          "flight_level": null,
          "gnd": false
        },
        "center": {
          "lat": 47.436667,
          "lon": 7.003056
        },
        "radius_m": 3800,
        "radius_candidates_m": {
          "table_km": 3800
        },
        "geometry_source": "circle",
        "text": "R-AREA LSR18 BURE ACT DUE TO MIL UAV ACT."
      }
    },
    {
      "type": "Feature",
      "geometry": {
        "type": "Polygon",
        "coordinates": [
          [
            [
              8.335,
              47.068044
            ],
            [
              8.337397,
              47.067964
            ],
            [
              8.33977,
              47.067724
            ],
            [
              8.342098,
              47.067327
            ],
            [
              8.344357,
              47.066776
            ],
            [
              8.346526,
              47.066077
            ],
            [
              8.348584,
              47.065237
            ],
            [
              8.350511,
              47.064263
            ],
            [
              8.352289,
              47.063165
            ],
            [
              8.3539,
              47.061953
            ],
            [
              8.355329,
              47.06064
            ],
            [
              8.356562,
              47.059238
            ],
            [
              8.357587,
              47.05776
            ],
            [
              8.358395,
              47.056221
            ],
            [
              8.358977,
              47.054636
            ],
            [
              8.359328,
              47.053019
            ],
            [
              8.359445,
              47.051386
            ],
            [
              8.359327,
              47.049754
            ],
            [
              8.358974,
              47.048137
            ],
            [
              8.35839,
              47.046552
            ],
            [
              8.357582,
              47.045013
            ],
            [
              8.356555,
              47.043536
            ],
            [
              8.355322,
              47.042134
            ],
            [
              8.353893,
              47.040821
            ],
            [
              8.352281,
              47.03961
            ],
            [
              8.350504,
              47.038513
            ],
            [
              8.348577,
              47.03754
            ],
            [
              8.34652,
              47.0367
            ],
            [
              8.344352,
              47.036001
            ],
            [
              8.342094,
              47.03545
            ],
            [
              8.339768,
              47.035053
            ],
            [
              8.337395,
              47.034814
            ],
            [
              8.335,
              47.034733
            ],
            [
              8.332605,
              47.034814
            ],
            [
              8.330232,
              47.035053
            ],
            [
              8.327906,
              47.03545
            ],
            [
              8.325648,
              47.036001
            ],
            [
              8.32348,
              47.0367
            ],
            [
              8.321423,
              47.03754
            ],
            [
              8.319496,
              47.038513
            ],
            [
              8.317719,
              47.03961
            ],
            [
              8.316107,
              47.040821
            ],
            [
              8.314678,
              47.042134
            ],
            [
              8.313445,
              47.043536
            ],
            [
              8.312418,
              47.045013
            ],
            [
              8.31161,
              47.046552
            ],
            [
              8.311026,
              47.048137
            ],
            [
              8.310673,
              47.049754
            ],
            [
              8.310555,
              47.051386
            ],
            [
              8.310672,
              47.053019
            ],
            [
              8.311023,
              47.054636
            ],
            [
              8.311605,
              47.056221
            ],
            [
              8.312413,
              47.05776
            ],
            [
              8.313438,
              47.059238
            ],
            [
              8.314671,
              47.06064
            ],
            [
              8.3161,
              47.061953
            ],
            [
              8.317711,
              47.063165
            ],
            [
              8.319489,
              47.064263
            ],
            [
              8.321416,
              47.065237
            ],
            [
              8.323474,
              47.066077
            ],
            [
              8.325643,
              47.066776
            ],
            [
              8.327902,
              47.067327
            ],
            [
              8.33023,
              47.067724
            ],
            [
              8.332603,
              47.067964
            ],
            [
              8.335,
              47.068044
            ]
          ]
        ]
      },
      "properties": {
        "id": "W2418/26",
        "notam": "W2418/26",
        "on_chart": true,
        "valid_from_utc": "2026-10-03T12:00:00+00:00",
        "valid_to_utc": "2026-10-03T12:45:00+00:00",
        "lower": {
          "raw": "GND",
          "meters": 0,
          "feet": 0,
          "flight_level": null,
          "gnd": true
        },
        "upper": {
          "raw": "1200m / 4000ft",
          "meters": 1200,
          "feet": 4000,
          "flight_level": null,
          "gnd": false
        },
        "center": {
          "lat": 47.051389,
          "lon": 8.335
        },
        "radius_m": 1852,
        "radius_candidates_m": {
          "table_km": 1800,
          "text_0_km": 1700,
          "text_1_nm": 1852
        },
        "geometry_source": "circle",
        "text": "TEMPO D-AREA LUZERN ESTABLISHED DUE TO AIR DISPLAY WITH HEL, RADIUS 1.7KM (470305N0082006E RADIUS 1.0NM). WI AIRSPACE G AND E ONLY. PRIORITY FOR HEL EMERG MEDICAL SER (HEMS) AND SAR. CTC 130.805 FOR COORD."
      }
    },
    {
      "type": "Feature",
      "geometry": {
        "type": "Polygon",
        "coordinates": [
          [
            [
              7.005,
              46.383603
            ],
            [
              7.00642,
              46.383554
            ],
            [
              7.007826,
              46.383411
            ],
            [
              7.009204,
              46.383172
            ],
            [
              7.010543,
              46.382842
            ],
            [
              7.011828,
              46.382423
            ],
            [
              7.013047,
              46.381918
            ],
            [
              7.014188,
              46.381334
            ],
            [
              7.015241,
              46.380676
            ],
            [
              7.016196,
              46.379949
            ],
            [
              7.017042,
              46.379161
            ],
            [
              7.017773,
              46.37832
            ],
            [
              7.01838,
              46.377434
            ],
            [
              7.018859,
              46.376511
            ],
            [
              7.019204,
              46.375559
            ],
            [
              7.019412,
              46.37459
            ],
            [
              7.019481,
              46.37361
            ],
            [
              7.019411,
              46.372631
            ],
            [
              7.019203,
              46.371661
            ],
            [
              7.018857,
              46.37071
            ],
            [
              7.018378,
              46.369787
            ],
            [
              7.01777,
              46.3689
            ],
            [
              7.01704,
              46.36806
            ],
            [
              7.016193,
              46.367272
            ],
            [
              7.015239,
              46.366546
            ],
            [
              7.014186,
              46.365887
            ],
            [
              7.013044,
              46.365303
            ],
            [
              7.011825,
              46.364799
            ],
            [
              7.010541,
              46.36438
            ],
            [
              7.009203,
              46.36405
            ],
            [
              7.007825,
              46.363812
            ],
            [
              7.006419,
              46.363668
            ],
            [
              7.005,
              46.36362
            ],
            [
              7.003581,
              46.363668
            ],
            [
              7.002175,
              46.363812
            ],
            [
              7.000797,
              46.36405
            ],
            [
              6.999459,
              46.36438
            ],
            [
              6.998175,
              46.364799
            ],
            [
              6.996956,
              46.365303
            ],
            [
              6.995814,
              46.365887
            ],
            [
              6.994761,
              46.366546
            ],
            [
              6.993807,
              46.367272
            ],
            [
              6.99296,
              46.36806
            ],
            [
              6.99223,
              46.3689
            ],
            [
              6.991622,
              46.369787
            ],
            [
              6.991143,
              46.37071
            ],
            [
              6.990797,
              46.371661
            ],
            [
              6.990589,
              46.372631
            ],
            [
              6.990519,
              46.37361
            ],
            [
              6.990588,
              46.37459
            ],
            [
              6.990796,
              46.375559
            ],
            [
              6.991141,
              46.376511
            ],
            [
              6.99162,
              46.377434
            ],
            [
              6.992227,
              46.37832
            ],
            [
              6.992958,
              46.379161
            ],
            [
              6.993804,
              46.379949
            ],
            [
              6.994759,
              46.380676
            ],
            [
              6.995812,
              46.381334
            ],
            [
              6.996953,
              46.381918
            ],
            [
              6.998172,
              46.382423
            ],
            [
              6.999457,
              46.382842
            ],
            [
              7.000796,
              46.383172
            ],
            [
              7.002174,
              46.383411
            ],
            [
              7.00358,
              46.383554
            ],
            [
              7.005,
              46.383603
            ]
          ]
        ]
      },
      "properties": {
        "id": "W2590/26",
        "notam": "W2590/26",
        "on_chart": true,
        "valid_from_utc": "2026-10-03T00:00:00+00:00",
        "valid_to_utc": "2026-10-03T23:59:00+00:00",
        "lower": {
          "raw": "GND",
          "meters": 0,
          "feet": 0,
          "flight_level": null,
          "gnd": true
        },
        "upper": {
          "raw": "2300m / 7650ft",
          "meters": 2300,
          "feet": 7650,
          "flight_level": null,
          "gnd": false
        },
        "center": {
          "lat": 46.373611,
          "lon": 7.005
        },
        "radius_m": 1111,
        "radius_candidates_m": {
          "table_km": 1100,
          "text_0_km": 1000,
          "text_1_nm": 1111
        },
        "geometry_source": "circle",
        "text": "HIGHLINE OBST ERECTED 3.9KM NNW HLP LEYSIN, BTN TOUR D AI AND TOUR DE MAYEN, RADIUS 1.0KM (462225N0070018E RADIUS 0.6NM). MARKED WITH WINDSOCKS AND RED OBST LGT. MAX ALT UP TO 186M AGL / 612FT AGL, 2319M AMSL / 7609FT AMSL."
      }
    },
    {
      "type": "Feature",
      "geometry": {
        "type": "Polygon",
        "coordinates": [
          [
            [
              6.400556,
              46.603768
            ],
            [
              6.40248,
              46.603703
            ],
            [
              6.404386,
              46.603508
            ],
            [
              6.406255,
              46.603187
            ],
            [
              6.408069,
              46.60274
            ],
            [
              6.409811,
              46.602174
            ],
            [
              6.411464,
              46.601494
            ],
            [
              6.413011,
              46.600705
            ],
            [
              6.414438,
              46.599816
            ],
            [
              6.415732,
              46.598835
            ],
            [
              6.416879,
              46.597771
            ],
            [
              6.41787,
              46.596636
            ],
            [
              6.418693,
              46.595439
            ],
            [
              6.419341,
              46.594192
            ],
            [
              6.419809,
              46.592908
            ],
            [
              6.420091,
              46.591598
            ],
            [
              6.420185,
              46.590276
            ],
            [
              6.42009,
              46.588954
            ],
            [
              6.419807,
              46.587644
            ],
            [
              6.419339,
              46.58636
            ],
            [
              6.418689,
              46.585114
            ],
            [
              6.417865,
              46.583917
            ],
            [
              6.416875,
              46.582782
            ],
            [
              6.415727,
              46.581719
            ],
            [
              6.414433,
              46.580738
            ],
            [
              6.413006,
              46.579849
            ],
            [
              6.411459,
              46.579061
            ],
            [
              6.409807,
              46.57838
            ],
            [
              6.408066,
              46.577815
            ],
            [
              6.406252,
              46.577369
            ],
            [
              6.404384,
              46.577047
            ],
            [
              6.402479,
              46.576853
            ],
            [
              6.400556,
              46.576788
            ],
            [
              6.398632,
              46.576853
            ],
            [
              6.396727,
              46.577047
            ],
            [
              6.394859,
              46.577369
            ],
            [
              6.393045,
              46.577815
            ],
            [
              6.391304,
              46.57838
            ],
            [
              6.389652,
              46.579061
            ],
            [
              6.388105,
              46.579849
            ],
            [
              6.386678,
              46.580738
            ],
            [
              6.385384,
              46.581719
            ],
            [
              6.384236,
              46.582782
            ],
            [
              6.383246,
              46.583917
            ],
            [
              6.382422,
              46.585114
            ],
            [
              6.381772,
              46.58636
            ],
            [
              6.381304,
              46.587644
            ],
            [
              6.381021,
              46.588954
            ],
            [
              6.380926,
              46.590276
            ],
            [
              6.38102,
              46.591598
            ],
            [
              6.381302,
              46.592908
            ],
            [
              6.38177,
              46.594192
            ],
            [
              6.382418,
              46.595439
            ],
            [
              6.383242,
              46.596636
            ],
            [
              6.384232,
              46.597771
            ],
            [
              6.385379,
              46.598835
            ],
            [
              6.386673,
              46.599816
            ],
            [
              6.3881,
              46.600705
            ],
            [
              6.389648,
              46.601494
            ],
            [
              6.3913,
              46.602174
            ],
            [
              6.393042,
              46.60274
            ],
            [
              6.394856,
              46.603187
            ],
            [
              6.396725,
              46.603508
            ],
            [
              6.398631,
              46.603703
            ],
            [
              6.400556,
              46.603768
            ]
          ]
        ]
      },
      "properties": {
        "id": "W2514/26",
        "notam": "W2514/26",
        "on_chart": false,
        "valid_from_utc": "2026-10-03T07:00:00+00:00",
        "valid_to_utc": "2026-10-03T17:30:00+00:00",
        "lower": {
          "raw": "GND",
          "meters": 0,
          "feet": 0,
          "flight_level": null,
          "gnd": true
        },
        "upper": {
          "raw": "2100m / 6900ft",
          "meters": 2100,
          "feet": 6900,
          "flight_level": null,
          "gnd": false
        },
        "center": {
          "lat": 46.590278,
          "lon": 6.400556
        },
        "radius_m": 1500,
        "radius_candidates_m": {
          "table_km": 1500,
          "text_0_km": 1500,
          "text_1_nm": 1482
        },
        "geometry_source": "circle",
        "text": "INTENSE GLD AEROBATIC ACT WILL TAKE PLACE AT LSTR AD WI RADIUS 1.5KM (463525N0062402E RADIUS 0.8NM)."
      }
    }
  ]
}