{
  "type": "FeatureCollection",
  "properties": {
    "dabs_date": "2026-10-08",
    "version": 2,
    "generated_utc": "2026-10-08T06:45:00+00:00"
  },
  "features": [
    {
      "type": "Feature",
      "geometry": {
        "type": "Polygon",
        "coordinates": [
          [
            [
              6.337778,
              46.582202
            ],
            [
              6.343677,
              46.582003
            ],
            [
              6.34952,
              46.581407
            ],
            [
              6.355249,
              46.580419
            ],
            [
              6.36081,
              46.579051
            ],
            [
              6.366148,
              46.577314
            ],
            [
              6.371213,
              46.575225
            ],
            [
              6.375955,
              46.572805
            ],
            [
              6.380328,
              46.570078
            ],
            [
              6.384292,
              46.567068
            ],
            [
              6.387806,
              46.563806
            ],
            [
              6.390838,
              46.560322
            ],
            [
              6.393359,
              46.556651
            ],
            [
              6.395344,
              46.552828
            ],
            [
              6.396774,
              46.548889
            ],
            [
              6.397636,
              46.544873
            ],
            [
              6.397921,
              46.540818
            ],
            [
              6.397627,
              46.536763
            ],
            [
              6.396757,
              46.532748
            ],
            [
              6.395318,
              46.52881
            ],
            [
              6.393327,
              46.524989
            ],
            [
              6.3908,
              46.52132
            ],
            [
              6.387764,
              46.517839
            ],
            [
              6.384247,
              46.51458
            ],
            [
              6.380283,
              46.511573
            ],
            [
              6.37591,
              46.508849
            ],
            [
              6.37117,
              46.506432
            ],
            [
              6.36611,
              46.504346
            ],
            [
              6.360777,
              46.502611
            ],
            [
              6.355224,
              46.501245
            ],
            [
              6.349502,
              46.500259
            ],
            [
              6.343668,
              46.499664
            ],
            [
              6.337778,
              46.499465
            ],
            [
              6.331887,
              46.499664
            ],
            [
              6.326053,
              46.500259
            ],
            [
              6.320332,
              46.501245
            ],
            [
              6.314778,
              46.502611
            ],
            [
              6.309446,
              46.504346
            ],
            [
              6.304385,
              46.506432
            ],
            [
              6.299646,
              46.508849
            ],
            [
              6.295273,
              46.511573
            ],
            [
              6.291309,
              46.51458
            ],
            [
              6.287792,
              46.517839
            ],
            [
              6.284755,
              46.52132
            ],
            [
              6.282229,
              46.524989
            ],
            [
              6.280237,
              46.52881
            ],
            [
              6.278799,
              46.532748
            ],
            [
              6.277929,
              46.536763
            ],
            [
              6.277635,
              46.540818
            ],
            [
              6.27792,
              46.544873
            ],
            [
              6.278781,
              46.548889
            ],
            [
              6.280212,
              46.552828
            ],
            [
              6.282197,
              46.556651
            ],
            [
              6.284717,
              46.560322
            ],
            [
              6.287749,
              46.563806
            ],
            [
              6.291264,
              46.567068
            ],
            [
              6.295227,
              46.570078
            ],
            [
              6.299601,
              46.572805
            ],
            [
              6.304343,
              46.575225
            ],
            [
              6.309407,
              46.577314
            ],
            [
              6.314746,
              46.579051
            ],
            [
              6.320306,
              46.580419
            ],
            [
              6.326036,
              46.581407
            ],
            [
              6.331878,
              46.582003
            ],
            [
              6.337778,
              46.582202
            ]
          ]
        ]
      },
      "properties": {
        "id": "4101",
        "notam": null,
        "on_chart": true,
        "valid_from_utc": "2026-10-08T11:00:00+00:00",
        "valid_to_utc": "2026-10-08T16:00:00+00:00",
        "lower": {
          "raw": "GND",
          "meters": 0,
          "feet": 0,
          "flight_level": null,
          "gnd": true
        },
        "upper": {
          "raw": "2300m / 7500ft",
          "meters": 2300,
          "feet": 7500,
          "flight_level": null,
          "gnd": false
        },
        "center": {
          "lat": 46.540833,
          "lon": 6.337778
        },
        "radius_m": 4600,
        "radius_candidates_m": {
          "table_km": 4600
        },
        "geometry_source": "circle",
        "text": "FRNG WI LATERAL LIMITS OF R-AREA LSR5 BIERE. ENTRY PROHIBITED WHEN ACT. REF DABS"
      }
    },
    {
      "type": "Feature",
      "geometry": {
        "type": "Polygon",
        "coordinates": [
          [
            [
              8.857222,
              47.060153
            ],
            [
              8.86188,
              47.059997
            ],
            [
              8.866494,
              47.059531
            ],
            [
              8.871018,
              47.058758
            ],
            [
              8.875408,
              47.057687
            ],
            [
              8.879624,
              47.056328
            ],
            [
              8.883623,
              47.054694
            ],
            [
              8.887368,
              47.0528
            ],
            [
              8.890822,
              47.050666
            ],
            [
              8.893951,
              47.048311
            ],
            [
              8.896727,
              47.045758
            ],
            [
              8.899122,
              47.043032
            ],
            [
              8.901113,
              47.040159
            ],
            [
              8.902681,
              47.037167
            ],
            [
              8.903811,
              47.034084
            ],
            [
              8.904493,
              47.030941
            ],
            [
              8.904718,
              47.027768
            ],
            [
              8.904487,
              47.024595
            ],
            [
              8.9038,
              47.021452
            ],
            [
              8.902665,
              47.018371
            ],
            [
              8.901093,
              47.01538
            ],
            [
              8.899098,
              47.012508
            ],
            [
              8.896701,
              47.009784
            ],
            [
              8.893923,
              47.007233
            ],
            [
              8.890793,
              47.00488
            ],
            [
              8.887339,
              47.002747
            ],
            [
              8.883596,
              47.000855
            ],
            [
              8.8796,
              46.999223
            ],
            [
              8.875388,
              46.997865
            ],
            [
              8.871002,
              46.996795
            ],
            [
              8.866483,
              46.996024
            ],
            [
              8.861875,
              46.995558
            ],
            [
              8.857222,
              46.995402
            ],
            [
              8.85257,
              46.995558
            ],
            [
              8.847962,
              46.996024
            ],
            [
              8.843443,
              46.996795
            ],
            [
              8.839056,
              46.997865
            ],
            [
              8.834845,
              46.999223
            ],
            [
              8.830848,
              47.000855
            ],
            [
              8.827105,
              47.002747
            ],
            [
              8.823652,
              47.00488
            ],
            [
              8.820521,
              47.007233
            ],
            [
              8.817744,
              47.009784
            ],
            [
              8.815346,
              47.012508
            ],
            [
              8.813352,
              47.01538
            ],
            [
              8.811779,
              47.018371
            ],
            [
              8.810644,
              47.021452
            ],
            [
              8.809957,
              47.024595
            ],
            [
              8.809726,
              47.027768
            ],
            [
              8.809952,
              47.030941
            ],
            [
              8.810633,
              47.034084
            ],
            [
              8.811763,
              47.037167
            ],
            [
              8.813331,
              47.040159
            ],
            [
              8.815322,
              47.043032
            ],
            [
              8.817717,
              47.045758
            ],
            [
              8.820493,
              47.048311
            ],
            [
              8.823623,
              47.050666
            ],
            [
              8.827077,
              47.0528
            ],
            [
              8.830821,
              47.054694
            ],
            [
              8.834821,
              47.056328
            ],
            [
              8.839036,
              47.057687
            ],
            [
              8.843427,
              47.058758
            ],
            [
              8.847951,
              47.059531
            ],
            [
              8.852564,
              47.059997
            ],
            [
              8.857222,
              47.060153
            ]
          ]
        ]
      },
      "properties": {
        "id": "LSD12",
        "notam": null,
        "on_chart": true,
        "valid_from_utc": "2026-10-08T06:00:00+00:00",
        "valid_to_utc": "2026-10-08T10:00:00+00:00",
        "lower": {
          "raw": "GND",
          "meters": 0,
          "feet": 0,
          "flight_level": null,
          "gnd": true
        },
        "upper": {
          "raw": "1800m / 5900ft",
          "meters": 1800,
          "feet": 5900,
          "flight_level": null,
          "gnd": false
        },
        "center": {
          "lat": 47.027778,
          "lon": 8.857222
        },
        "radius_m": 3600,
        "radius_candidates_m": {
          "table_km": 3600
        },
        "geometry_source": "circle",
        "text": "D-AREA LSD12 SIHLTAL ACT."
      }
    },
    {
      "type": "Feature",
      "geometry": {
        "type": "Polygon",
        "coordinates": [
          [
            [
              6.337778,
              46.582202
            ],
            [
              6.343677,
              46.582003
            ],
            [
              6.34952,
              46.581407
            ],
            [
              6.355249,
              46.580419
            ],
            [
              6.36081,
              46.579051
            ],
            [
              6.366148,
              46.577314
            ],
            [
              6.371213,
              46.575225
            ],
            [
              6.375955,
              46.572805
            ],
            [
              6.380328,
              46.570078
            ],
            [
              6.384292,
              46.567068
            ],
            [
              6.387806,
              46.563806
            ],
            [
              6.390838,
              46.560322
            ],
            [
              6.393359,
              46.556651
            ],
            [
              6.395344,
              46.552828
            ],
            [
              6.396774,
              46.548889
            ],
            [
              6.397636,
              46.544873
            ],
            [
              6.397921,
              46.540818
            ],
            [
              6.397627,
              46.536763
            ],
            [
              6.396757,
              46.532748
            ],
            [
              6.395318,
              46.52881
            ],
            [
              6.393327,
              46.524989
            ],
            [
              6.3908,
              46.52132
            ],
            [
              6.387764,
              46.517839
            ],
            [
              6.384247,
              46.51458
            ],
            [
              6.380283,
              46.511573
            ],
            [
              6.37591,
              46.508849
            ],
            [
              6.37117,
              46.506432
            ],
            [
              6.36611,
              46.504346
            ],
            [
              6.360777,
              46.502611
            ],
            [
              6.355224,
              46.501245
            ],
            [
              6.349502,
              46.500259
            ],
            [
              6.343668,
              46.499664
            ],
            [
              6.337778,
              46.499465
            ],
            [
              6.331887,
              46.499664
            ],
            [
              6.326053,
              46.500259
            ],
            [
              6.320332,
              46.501245
            ],
            [
              6.314778,
              46.502611
            ],
            [
              6.309446,
              46.504346
            ],
            [
              6.304385,
              46.506432
            ],
            [
              6.299646,
              46.508849
            ],
            [
              6.295273,
              46.511573
            ],
            [
              6.291309,
              46.51458
            ],
            [
              6.287792,
              46.517839
            ],
            [
              6.284755,
              46.52132
            ],
            [
              6.282229,
              46.524989
            ],
            [
              6.280237,
              46.52881
            ],
            [
              6.278799,
              46.532748
            ],
            [
              6.277929,
              46.536763
            ],
            [
              6.277635,
              46.540818
            ],
            [
              6.27792,
              46.544873
            ],
            [
              6.278781,
              46.548889
            ],
            [
              6.280212,
              46.552828
            ],
            [
              6.282197,
              46.556651
            ],
            [
              6.284717,
              46.560322
            ],
            [
              6.287749,
              46.563806
            ],
            [
              6.291264,
              46.567068
            ],
            [
              6.295227,
              46.570078
            ],
            [
              6.299601,
              46.572805
            ],
            [
              6.304343,
              46.575225
            ],
            [
              6.309407,
              46.577314
            ],
            [
              6.314746,
              46.579051
            ],
            [
              6.320306,
              46.580419
            ],
            [
              6.326036,
              46.581407
            ],
            [
              6.331878,
              46.582003
            ],
            [
              6.337778,
              46.582202
            ]
          ]
        ]
      },
      "properties": {
        "id": "LSR5",
        "notam": "W2572/26",
        "on_chart": true,
        "valid_from_utc": "2026-10-08T11:00:00+00:00",
        "valid_to_utc": "2026-10-08T16:00:00+00:00",
        "lower": {
          "raw": "GND",
          "meters": 0,
          "feet": 0,
          "flight_level": null,
          "gnd": true
        },
        "upper": {
          "raw": "2000m / 6500ft",
          "meters": 2000,
          "feet": 6500,
          "flight_level": null,
          "gnd": false
        },
        "center": {
          "lat": 46.540833,
          "lon": 6.337778
        },
        "radius_m": 4600,
        "radius_candidates_m": {
          "table_km": 4600
        },
        "geometry_source": "circle",
        "text": "R-AREA LSR5 BIERE ACT DUE TO FRNG."
      }
    },
    {
      "type": "Feature",
      "geometry": {
        "type": "Polygon",
        "coordinates": [
          [
            [
              9.033333,
              46.159942
            ],
            [
              9.038042,
              46.159781
            ],
            [
              9.042705,
              46.159302
            ],
            [
              9.047278,
              46.158508
            ],
            [
              9.051717,
              46.157407
            ],
            [
              9.055978,
              46.15601
            ],
            [
              9.06002,
              46.154331
            ],
            [
              9.063805,
              46.152384
            ],
            [
              9.067297,
              46.150191
            ],
            [
              9.070461,
              46.14777
            ],
            [
              9.073266,
              46.145146
            ],
            [
              9.075687,
              46.142345
            ],
            [
              9.0777,
              46.139392
            ],
            [
              9.079285,
              46.136317
            ],
            [
              9.080427,
              46.133149
            ],
            [
              9.081116,
              46.129918
            ],
            [
              9.081344,
              46.126657
            ],
            [
              9.08111,
              46.123395
            ],
            [
              9.080416,
              46.120165
            ],
            [
              9.079269,
              46.116998
            ],
            [
              9.07768,
              46.113924
            ],
            [
              9.075663,
              46.110973
            ],
            [
              9.07324,
              46.108173
            ],
            [
              9.070432,
              46.105551
            ],
            [
              9.067268,
              46.103133
            ],
            [
              9.063777,
              46.100941
            ],
            [
              9.059993,
              46.098997
            ],
            [
              9.055954,
              46.097319
            ],
            [
              9.051696,
              46.095923
            ],
            [
              9.047262,
              46.094824
            ],
            [
              9.042694,
              46.094031
            ],
            [
              9.038036,
              46.093552
            ],
            [
              9.033333,
              46.093392
            ],
            [
              9.02863,
              46.093552
            ],
            [
              9.023972,
              46.094031
            ],
            [
              9.019405,
              46.094824
            ],
            [
              9.014971,
              46.095923
            ],
            [
              9.010713,
              46.097319
            ],
            [
              9.006673,
              46.098997
            ],
            [
              9.00289,
              46.100941
            ],
            [
              8.999399,
              46.103133
            ],
            [
              8.996234,
              46.105551
            ],
            [
              8.993427,
              46.108173
            ],
            [
              8.991003,
              46.110973
            ],
            [
              8.988987,
              46.113924
            ],
            [
              8.987398,
              46.116998
            ],
            [
              8.98625,
              46.120165
            ],
            [
              8.985556,
              46.123395
            ],
            [
              8.985322,
              46.126657
            ],
            [
              8.985551,
              46.129918
            ],
            [
              8.986239,
              46.133149
            ],
            [
              8.987382,
              46.136317
            ],
            [
              8.988967,
              46.139392
            ],
            [
              8.990979,
              46.142345
            ],
            [
              8.9934,
              46.145146
            ],
            [
              8.996206,
              46.14777
            ],
            [
              8.99937,
              46.150191
            ],
            [
              9.002861,
              46.152384
            ],
            [
              9.006646,
              46.154331
            ],
            [
              9.010689,
              46.15601
            ],
            [
              9.01495,
              46.157407
            ],
            [
              9.019388,
              46.158508
            ],
            [
              9.023961,
              46.159302
            ],
            [
              9.028625,
              46.159781
            ],
            [
              9.033333,
              46.159942
            ]
          ]
        ]
      },
      "properties": {
        "id": "LSR16",
        "notam": "W2617/26",
        "on_chart": true,
        "valid_from_utc": "2026-10-08T06:00:00+00:00",
        "valid_to_utc": "2026-10-08T15:30:00+00:00",
        "lower": {
          "raw": "GND",
          "meters": 0,
          "feet": 0,
          "flight_level": null,
          "gnd": true
        },
        "upper": {
          "raw": "3200m / 10500ft",
          "meters": 3200,
          "feet": 10500,
          "flight_level": null,
          "gnd": false
        },
        "center": {
          "lat": 46.126667,
          "lon": 9.033333
        },
        "radius_m": 3700,
        "radius_candidates_m": {
          "table_km": 3700
        },
        "geometry_source": "circle",
        "text": "R-AREA LSR16 ISONE 1 ACT DUE TO MIL UAV."
      }
    },
    {
      "type": "Feature",
      "geometry": {
        "type": "Polygon",
        "coordinates": [
          [
            [
              8.994444,
              46.13116
            ],
            [
              8.997752,
              46.131047
            ],
            [
              9.001027,
              46.130711
            ],
            [
              9.004239,
              46.130153
            ],
            [
              9.007356,
              46.12938
            ],
            [
              9.010349,
              46.128398
            ],
            [
              9.013188,
              46.127218
            ],
            [
              9.015847,
              46.125851
            ],
            [
              9.018299,
              46.124309
            ],
            [
              9.020522,
              46.122608
            ],
            [
              9.022493,
              46.120765
            ],
            [
              9.024194,
              46.118796
            ],
            [
              9.025608,
              46.116722
            ],
            [
              9.026722,
              46.114561
            ],
            [
              9.027525,
              46.112335
            ],
            [
              9.028009,
              46.110065
            ],
            [
              9.02817,
              46.107773
            ],
            [
              9.028007,
              46.105481
            ],
            [
              9.02752,
              46.103211
            ],
            [
              9.026714,
              46.100986
            ],
            [
              9.025598,
              46.098826
            ],
            [
              9.024182,
              46.096752
            ],
            [
              9.02248,
              46.094784
            ],
            [
              9.020508,
              46.092941
            ],
            [
              9.018285,
              46.091241
            ],
            [
              9.015833,
              46.089701
            ],
            [
              9.013175,
              46.088335
            ],
            [
              9.010337,
              46.087155
            ],
            [
              9.007346,
              46.086175
            ],
            [
              9.004231,
              46.085402
            ],
            [
              9.001021,
              46.084845
            ],
            [
              8.997749,
              46.084508
            ],
            [
              8.994444,
              46.084395
            ],
            [
              8.99114,
              46.084508
            ],
            [
              8.987868,
              46.084845
            ],
            [
              8.984658,
              46.085402
            ],
            [
              8.981543,
              46.086175
            ],
            [
              8.978552,
              46.087155
            ],
            [
              8.975714,
              46.088335
            ],
            [
              8.973056,
              46.089701
            ],
            [
              8.970604,
              46.091241
            ],
            [
              8.968381,
              46.092941
            ],
            [
              8.966409,
              46.094784
            ],
            [
              8.964707,
              46.096752
            ],
            [
              8.963291,
              46.098826
            ],
            [
              8.962175,
              46.100986
            ],
            [
              8.961369,
              46.103211
            ],
            [
              8.960882,
              46.105481
            ],
            [
              8.960719,
              46.107773
            ],
            [
              8.96088,
              46.110065
            ],
            [
              8.961364,
              46.112335
            ],
            [
              8.962167,
              46.114561
            ],
            [
              8.963281,
              46.116722
            ],
            [
              8.964695,
              46.118796
            ],
            [
              8.966396,
              46.120765
            ],
            [
              8.968367,
              46.122608
            ],
            [
              8.970589,
              46.124309
            ],
            [
              8.973042,
              46.125851
            ],
            [
              8.975701,
              46.127218
            ],
            [
              8.97854,
              46.128398
            ],
            [
              8.981533,
              46.12938
            ],
            [
              8.98465,
              46.130153
            ],
            [
              8.987862,
              46.130711
            ],
            [
              8.991137,
              46.131047
            ],
            [
              8.994444,
              46.13116
            ]
          ]
        ]
      },
      "properties": {
        "id": "LSR17",
        "notam": "W2619/26",
        "on_chart": true,
        "valid_from_utc": "2026-10-08T06:00:00+00:00",
        "valid_to_utc": "2026-10-08T15:30:00+00:00",
        "lower": {
          "raw": "GND",
          "meters": 0,
          "feet": 0,
          "flight_level": null,
          "gnd": true
        },
        "upper": {
          "raw": "3200m / 10500ft",
          "meters": 3200,
          "feet": 10500,
          "flight_level": null,
          "gnd": false
        },
        "center": {
          "lat": 46.107778,
          "lon": 8.994444
        },
        "radius_m": 2600,
        "radius_candidates_m": {
          "table_km": 2600
        },
        "geometry_source": "circle",
        "text": "R-AREA LSR17 ISONE 2 ACT DUE TO MIL UAV."
      }
    },
    {
      "type": "Feature",
      "geometry": {
        "type": "Polygon",
        "coordinates": [
          [
            [
              9.491667,
              46.867802
            ],
            [
              9.493343,
              46.867746
            ],
            [
              9.495003,
              46.867578
            ],
            [
              9.496631,
              46.867299
            ],
            [
              9.498211,
              46.866912
            ],
            [
              9.499727,
              46.866422
            ],
            [
              9.501167,
              46.865832
            ],
            [
              9.502514,
              46.865148
            ],
            [
              9.503758,
              46.864377
            ],
            [
              9.504884,
              46.863527
            ],
            [
              9.505884,
              46.862605
            ],
            [
              9.506746,
              46.861621
            ],
            [
              9.507463,
              46.860584
            ],
            [
              9.508028,
              46.859504
            ],
            [
              9.508435,
              46.858391
            ],
            [
              9.508681,
              46.857256
            ],
            [
              9.508763,
              46.85611
            ],
            [
              9.508681,
              46.854964
            ],
            [
              9.508434,
              46.853829
            ],
            [
              9.508026,
              46.852716
            ],
            [
              9.50746,
              46.851636
            ],
            [
              9.506743,
              46.850599
            ],
            [
              9.50588,
              46.849615
            ],
            [
              9.504881,
              46.848694
            ],
            [
              9.503754,
              46.847844
            ],
            [
              9.502511,
              46.847073
            ],
            [
              9.501163,
              46.84639
            ],
            [
              9.499724,
              46.8458
            ],
            [
              9.498208,
              46.84531
            ],
            [
              9.496628,
              46.844923
            ],
            [
              9.495001,
              46.844645
            ],
            [
              9.493342,
              46.844476
            ],
            [
              9.491667,
              46.84442
            ],
            [
              9.489991,
              46.844476
            ],
            [
              9.488332,
              46.844645
            ],
            [
              9.486705,
              46.844923
            ],
            [
              9.485125,
              46.84531
            ],
            [
              9.483609,
              46.8458
            ],
            [
              9.48217,
              46.84639
            ],
            [
              9.480823,
              46.847073
            ],
            [
              9.479579,
              46.847844
            ],
            [
              9.478453,
              46.848694
            ],
            [
              9.477453,
              46.849615
            ],
            [
              9.47659,
              46.850599
            ],
            [
              9.475873,
              46.851636
            ],
            [
              9.475307,
              46.852716
            ],
            [
              9.474899,
              46.853829
            ],
            [
              9.474653,
              46.854964
            ],
            [
              9.47457,
              46.85611
            ],
            [
              9.474652,
              46.857256
            ],
            [
              9.474898,
              46.858391
            ],
            [
              9.475305,
              46.859504
            ],
            [
              9.47587,
              46.860584
            ],
            [
              9.476587,
              46.861621
            ],
            [
              9.47745,
              46.862605
            ],
            [
              9.478449,
              46.863527
            ],
            [
              9.479576,
              46.864377
            ],
            [
              9.480819,
              46.865148
            ],
            [
              9.482167,
              46.865832
            ],
            [
              9.483606,
              46.866422
            ],
            [
              9.485123,
              46.866912
            ],
            [
              9.486703,
              46.867299
            ],
            [
              9.488331,
              46.867578
            ],
            [
              9.489991,
              46.867746
            ],
            [
              9.491667,
              46.867802
            ]
          ]
        ]
      },
      "properties": {
        "id": "LSR57",
        "notam": null,
        "on_chart": true,
        "valid_from_utc": "2026-10-08T06:00:00+00:00",
        "valid_to_utc": "2026-10-08T10:00:00+00:00",
        "lower": {
          "raw": "GND",
          "meters": 0,
          "feet": 0,
          "flight_level": null,
          "gnd": true
        },
        "upper": {
          "raw": "2000m / 6500ft",
          "meters": 2000,
          "feet": 6500,
          "flight_level": null,
          "gnd": false
        },
        "center": {
          "lat": 46.856111,
          "lon": 9.491667
        },
        "radius_m": 1300,
        "radius_candidates_m": {
          "table_km": 1300
        },
        "geometry_source": "circle",
        "text": "R-AREA LSR57 ROSSBODEN-RHEINSAND ACT DUE TO FRNG."
      }
    },
    {
      "type": "Feature",
      "geometry": {
        "type": "Polygon",
        "coordinates": [
          [
            [
              7.005,
              46.383603
            ],
            [
              7.00642,
              46.383554
            ],
            [
              7.007826,
              46.383411
            ],
            [
              7.009204,
              46.383172
            ],
            [
              7.010543,
              46.382842
            ],
            [
              7.011828,
              46.382423
            ],
            [
              7.013047,
              46.381918
            ],
            [
              7.014188,
              46.381334
            ],
            [
              7.015241,
              46.380676
            ],
            [
              7.016196,
              46.379949
            ],
            [
              7.017042,
              46.379161
            ],
            [
              7.017773,
              46.37832
            ],
            [
              7.01838,
              46.377434
            ],
            [
              7.018859,
              46.376511
            ],
            [
              7.019204,
              46.375559
            ],
            [
              7.019412,
              46.37459
            ],
            [
              7.019481,
              46.37361
            ],
            [
              7.019411,
              46.372631
            ],
            [
              7.019203,
              46.371661
            ],
            [
              7.018857,
              46.37071
            ],
            [
              7.018378,
              46.369787
            ],
            [
              7.01777,
              46.3689
            ],
            [
              7.01704,
              46.36806
            ],
            [
              7.016193,
              46.367272
            ],
            [
              7.015239,
              46.366546
            ],
            [
              7.014186,
              46.365887
            ],
            [
              7.013044,
              46.365303
            ],
            [
              7.011825,
              46.364799
            ],
            [
              7.010541,
              46.36438
            ],
            [
              7.009203,
              46.36405
            ],
            [
              7.007825,
              46.363812
            ],
            [
              7.006419,
              46.363668
            ],
            [
              7.005,
              46.36362
            ],
            [
              7.003581,
              46.363668
            ],
            [
              7.002175,
              46.363812
            ],
            [
              7.000797,
              46.36405
            ],
            [
              6.999459,
              46.36438
            ],
            [
              6.998175,
              46.364799
            ],
            [
              6.996956,
              46.365303
            ],
            [
              6.995814,
              46.365887
            ],
            [
              6.994761,
              46.366546
            ],
            [
              6.993807,
              46.367272
            ],
            [
              6.99296,
              46.36806
            ],
            [
              6.99223,
              46.3689
            ],
            [
              6.991622,
              46.369787
            ],
            [
              6.991143,
              46.37071
            ],
            [
              6.990797,
              46.371661
            ],
            [
              6.990589,
              46.372631
            ],
            [
              6.990519,
              46.37361
            ],
            [
              6.990588,
              46.37459
            ],
            [
              6.990796,
              46.375559
            ],
            [
              6.991141,
              46.376511
            ],
            [
              6.99162,
              46.377434
            ],
            [
              6.992227,
              46.37832
            ],
            [
              6.992958,
              46.379161
            ],
            [
              6.993804,
              46.379949
            ],
            [
              6.994759,
              46.380676
            ],
            [
              6.995812,
              46.381334
            ],
            [
              6.996953,
              46.381918
            ],
            [
              6.998172,
              46.382423
            ],
            [
              6.999457,
              46.382842
            ],
            [
              7.000796,
              46.383172
            ],
            [
              7.002174,
              46.383411
            ],
            [
              7.00358,
              46.383554
            ],
            [
              7.005,
              46.383603
            ]
          ]
        ]
      },
      "properties": {
        "id": "W2590/26",
        "notam": "W2590/26",
        "on_chart": true,
        "valid_from_utc": "2026-10-08T00:00:00+00:00",
        "valid_to_utc": "2026-10-08T23:59:00+00:00",
        "lower": {
          "raw": "GND",
          "meters": 0,
          "feet": 0,
          "flight_level": null,
          "gnd": true
        },
        "upper": {
          "raw": "2300m / 7650ft",
          "meters": 2300,
          "feet": 7650,
          "flight_level": null,
          "gnd": false
        },
        "center": {
          "lat": 46.373611,
          "lon": 7.005
        },
        "radius_m": 1111,
        "radius_candidates_m": {
          "table_km": 1100,
          "text_0_km": 1000,
          "text_1_nm": 1111
        },
        "geometry_source": "circle",
        "text": "HIGHLINE OBST ERECTED 3.9KM NNW HLP LEYSIN, BTN TOUR D AI AND TOUR DE MAYEN, RADIUS 1.0KM (462225N0070018E RADIUS 0.6NM). MARKED WITH WINDSOCKS AND RED OBST LGT. MAX ALT UP TO 186M AGL / 612FT AGL, 2319M AMSL / 7609FT AMSL."
      }
    },
    {
      "type": "Feature",
      "geometry": {
        "type": "Polygon",
        "coordinates": [
          [
            [
              6.581944,
              46.873333
            ],
            [
              6.672222,
              46.898611
            ],
            [
              6.6775,
              46.871389
            ],
            [
              6.604444,
              46.857778
            ],
            [
              6.581944,
              46.873333
            ]
          ]
        ]
      },
      "properties": {
        "id": "W2627/26",
        "notam": "W2627/26",
        "on_chart": true,
        "valid_from_utc": "2026-10-08T22:00:00+00:00",
        "valid_to_utc": "2026-10-08T23:59:00+00:00",
        "lower": {
          "raw": "GND",
          "meters": 0,
          "feet": 0,
          "flight_level": null,
          "gnd": true
        },
        "upper": {
          "raw": "1700m / 5500ft",
          "meters": 1700,
          "feet": 5500,
          "flight_level": null,
          "gnd": false
        },
        "center": {
          "lat": 46.880833,
          "lon": 6.63
        },
        "radius_m": 3889,
        "radius_candidates_m": {
          "table_km": 3800,
          "text_0_nm": 3889
        },
        "geometry_source": "polygon",
        "text": "TEMPO R-AREA LE CHASSERON ESTABLISHED WI AREA: 465224N0063455E 465355N0064020E 465217N0064039E 465128N0063616E 465224N0063455E (465251N0063748E RADIUS 2.1NM). DUE TO MIL EXER. ENTRY PROHIBITED WHEN ACT EXC HEL EMERG MEDICAL SER (HEMS). FOR INFO ON ACT AND HEMS COOR CTC +41 79 313 17 14."
      }
    }
  ]
}