{
  "type": "FeatureCollection",
  "properties": {
    "dabs_date": "2026-10-11",
    "version": 1,
    "generated_utc": "2026-10-10T13:35:00+00:00"
  },
  "features": [
    {
      "type": "Feature",
      "geometry": {
        "type": "Polygon",
        "coordinates": [
          [
            [
              7.005,
              46.383603
            ],
            [
              7.00642,
              46.383554
            ],
            [
              7.007826,
              46.383411
            ],
            [
              7.009204,
              46.383172
            ],
            [
              7.010543,
              46.382842
            ],
            [
              7.011828,
              46.382423
            ],
            [
              7.013047,
              46.381918
            ],
            [
              7.014188,
              46.381334
            ],
            [
              7.015241,
              46.380676
            ],
            [
              7.016196,
              46.379949
            ],
            [
              7.017042,
              46.379161
            ],
            [
              7.017773,
              46.37832
            ],
            [
              7.01838,
              46.377434
            ],
            [
              7.018859,
              46.376511
            ],
            [
              7.019204,
              46.375559
            ],
            [
              7.019412,
              46.37459
            ],
            [
              7.019481,
              46.37361
            ],
            [
              7.019411,
              46.372631
            ],
            [
              7.019203,
              46.371661
            ],
            [
              7.018857,
              46.37071
            ],
            [
              7.018378,
              46.369787
            ],
            [
              7.01777,
              46.3689
            ],
            [
              7.01704,
              46.36806
            ],
            [
              7.016193,
              46.367272
            ],
            [
              7.015239,
              46.366546
            ],
            [
              7.014186,
              46.365887
            ],
            [
              7.013044,
              46.365303
            ],
            [
              7.011825,
              46.364799
            ],
            [
              7.010541,
              46.36438
            ],
            [
              7.009203,
              46.36405
            ],
            [
              7.007825,
              46.363812
            ],
            [
              7.006419,
              46.363668
            ],
            [
              7.005,
              46.36362
            ],
            [
              7.003581,
              46.363668
            ],
            [
              7.002175,
              46.363812
            ],
            [
              7.000797,
              46.36405
            ],
            [
              6.999459,
              46.36438
            ],
            [
              6.998175,
              46.364799
            ],
            [
              6.996956,
              46.365303
            ],
            [
              6.995814,
              46.365887
            ],
            [
              6.994761,
              46.366546
            ],
            [
              6.993807,
              46.367272
            ],
            [
              6.99296,
              46.36806
            ],
            [
              6.99223,
              46.3689
            ],
            [
              6.991622,
              46.369787
            ],
            [
              6.991143,
              46.37071
            ],
            [
              6.990797,
              46.371661
            ],
            [
              6.990589,
              46.372631
            ],
            [
              6.990519,
              46.37361
            ],
            [
              6.990588,
              46.37459
            ],
            [
              6.990796,
              46.375559
            ],
            [
              6.991141,
              46.376511
            ],
            [
              6.99162,
              46.377434
            ],
            [
              6.992227,
              46.37832
            ],
            [
              6.992958,
              46.379161
            ],
            [
              6.993804,
              46.379949
            ],
            [
              6.994759,
              46.380676
            ],
            [
              6.995812,
              46.381334
            ],
            [
              6.996953,
              46.381918
            ],
            [
              6.998172,
              46.382423
            ],
            [
              6.999457,
              46.382842
            ],
            [
              7.000796,
              46.383172
            ],
            [
              7.002174,
              46.383411
            ],
            [
              7.00358,
              46.383554
            ],
            [
              7.005,
              46.383603
            ]
          ]
        ]
      },
      "properties": {
        "id": "W2590/26",
        "notam": "W2590/26",
        "on_chart": true,
        "valid_from_utc": "2026-10-11T00:00:00+00:00",
        "valid_to_utc": "2026-10-11T23:59:00+00:00",
        "lower": {
          "raw": "GND",
          "meters": 0,
          "feet": 0,
          "flight_level": null,
          "gnd": true
        },
        "upper": {
          "raw": "2300m / 7650ft",
          "meters": 2300,
          "feet": 7650,
          "flight_level": null,
          "gnd": false
        },
        "center": {
          "lat": 46.373611,
          "lon": 7.005
        },
        "radius_m": 1111,
        "radius_candidates_m": {
          "table_km": 1100,
          "text_0_km": 1000,
          "text_1_nm": 1111
        },
        "geometry_source": "circle",
        "text": "HIGHLINE OBST ERECTED 3.9KM NNW HLP LEYSIN, BTN TOUR D AI AND TOUR DE MAYEN, RADIUS 1.0KM (462225N0070018E RADIUS 0.6NM). MARKED WITH WINDSOCKS AND RED OBST LGT. MAX ALT UP TO 186M AGL / 612FT AGL, 2319M AMSL / 7609FT AMSL."
      }
    },
    {
      "type": "Feature",
      "geometry": {
        "type": "Polygon",
        "coordinates": [
          [
            [
              9.047778,
              47.577216
            ],
            [
              9.048261,
              47.5772
            ],
            [
              9.04874,
              47.577152
            ],
            [
              9.04921,
              47.577073
            ],
            [
              9.049665,
              47.576963
            ],
            [
              9.050103,
              47.576823
            ],
            [
              9.050518,
              47.576656
            ],
            [
              9.050907,
              47.576461
            ],
            [
              9.051266,
              47.576242
            ],
            [
              9.051591,
              47.576
            ],
            [
              9.051879,
              47.575737
            ],
            [
              9.052128,
              47.575457
            ],
            [
              9.052335,
              47.575162
            ],
            [
              9.052498,
              47.574855
            ],
            [
              9.052615,
              47.574538
            ],
            [
              9.052686,
              47.574215
            ],
            [
              9.05271,
              47.573889
            ],
            [
              9.052686,
              47.573563
            ],
            [
              9.052615,
              47.57324
            ],
            [
              9.052498,
              47.572923
            ],
            [
              9.052334,
              47.572615
            ],
            [
              9.052128,
              47.57232
            ],
            [
              9.051879,
              47.57204
            ],
            [
              9.05159,
              47.571778
            ],
            [
              9.051265,
              47.571536
            ],
            [
              9.050907,
              47.571317
            ],
            [
              9.050518,
              47.571122
            ],
            [
              9.050103,
              47.570954
            ],
            [
              9.049665,
              47.570815
            ],
            [
              9.049209,
              47.570705
            ],
            [
              9.04874,
              47.570625
            ],
            [
              9.048261,
              47.570577
            ],
            [
              9.047778,
              47.570561
            ],
            [
              9.047294,
              47.570577
            ],
            [
              9.046816,
              47.570625
            ],
            [
              9.046346,
              47.570705
            ],
            [
              9.04589,
              47.570815
            ],
            [
              9.045453,
              47.570954
            ],
            [
              9.045038,
              47.571122
            ],
            [
              9.044649,
              47.571317
            ],
            [
              9.04429,
              47.571536
            ],
            [
              9.043965,
              47.571778
            ],
            [
              9.043677,
              47.57204
            ],
            [
              9.043428,
              47.57232
            ],
            [
              9.043221,
              47.572615
            ],
            [
              9.043058,
              47.572923
            ],
            [
              9.04294,
              47.57324
            ],
            [
              9.042869,
              47.573563
            ],
            [
              9.042846,
              47.573889
            ],
            [
              9.042869,
              47.574215
            ],
            [
              9.04294,
              47.574538
            ],
            [
              9.043058,
              47.574855
            ],
            [
              9.043221,
              47.575162
            ],
            [
              9.043428,
              47.575457
            ],
            [
              9.043677,
              47.575737
            ],
            [
              9.043965,
              47.576
            ],
            [
              9.04429,
              47.576242
            ],
            [
              9.044649,
              47.576461
            ],
            [
              9.045037,
              47.576656
            ],
            [
              9.045453,
              47.576823
            ],
            [
              9.04589,
              47.576963
            ],
            [
              9.046346,
              47.577073
            ],
            [
              9.046815,
              47.577152
            ],
            [
              9.047294,
              47.5772
            ],
            [
              9.047778,
              47.577216
            ]
          ]
        ]
      },
      "properties": {
        "id": "W2633/26",
        "notam": "W2633/26",
        "on_chart": true,
        "valid_from_utc": "2026-10-11T21:30:00+00:00",
        "valid_to_utc": "2026-10-11T23:59:00+00:00",
        "lower": {
          "raw": "GND",
          "meters": 0,
          "feet": 0,
          "flight_level": null,
          "gnd": true
        },
        "upper": {
          "raw": "FL195",
          "meters": 5944,
          "feet": 19500,
          "flight_level": 195,
          "gnd": false
        },
        "center": {
          "lat": 47.573889,
          "lon": 9.047778
        },
        "radius_m": 370,
        "radius_candidates_m": {
          "table_km": 300,
          "text_0_km": 200,
          "text_1_nm": 370
        },
        "geometry_source": "circle",
        "text": "TEMPO R-AREA AMLIKON ESTABLISHED RADIUS 0.2KM (473426N0090252E RADIUS 0.2NM). WX MEASUREMENTS BY REMOTELY PILOTED AERIAL SYSTEM WILL TAKE PLACE. WHITE BLINKING PSN LGT WITH VISUAL RANGE OF AT LEAST 3KM. ENTRY PROHIBITED WHEN ACT EXC HEL EMERG MEDICAL SER (HEMS). FOR INFO ON ACT AND HEMS CTC TEL +41 79 772 93 32 AND REFER TO WWW.MAP.GEO.ADMIN.CH TOPIC AVIATION UAS AWARENESS MAP."
      }
    },
    {
      "type": "Feature",
      "geometry": {
        "type": "Polygon",
        "coordinates": [
          [
            [
              7.821667,
              46.314436
            ],
            [
              7.823085,
              46.314388
            ],
            [
              7.824489,
              46.314244
            ],
            [
              7.825866,
              46.314006
            ],
            [
              7.827202,
              46.313675
            ],
            [
              7.828486,
              46.313256
            ],
            [
              7.829703,
              46.312752
            ],
            [
              7.830843,
              46.312168
            ],
            [
              7.831895,
              46.311509
            ],
            [
              7.832848,
              46.310782
            ],
            [
              7.833693,
              46.309995
            ],
            [
              7.834423,
              46.309154
            ],
            [
              7.83503,
              46.308267
            ],
            [
              7.835508,
              46.307344
            ],
            [
              7.835852,
              46.306393
            ],
            [
              7.83606,
              46.305423
            ],
            [
              7.83613,
              46.304444
            ],
            [
              7.83606,
              46.303464
            ],
            [
              7.835851,
              46.302494
            ],
            [
              7.835506,
              46.301543
            ],
            [
              7.835028,
              46.30062
            ],
            [
              7.834421,
              46.299734
            ],
            [
              7.833691,
              46.298893
            ],
            [
              7.832845,
              46.298105
            ],
            [
              7.831892,
              46.297379
            ],
            [
              7.830841,
              46.296721
            ],
            [
              7.829701,
              46.296137
            ],
            [
              7.828483,
              46.295633
            ],
            [
              7.8272,
              46.295213
            ],
            [
              7.825864,
              46.294883
            ],
            [
              7.824488,
              46.294645
            ],
            [
              7.823084,
              46.294501
            ],
            [
              7.821667,
              46.294453
            ],
            [
              7.820249,
              46.294501
            ],
            [
              7.818846,
              46.294645
            ],
            [
              7.817469,
              46.294883
            ],
            [
              7.816133,
              46.295213
            ],
            [
              7.81485,
              46.295633
            ],
            [
              7.813633,
              46.296137
            ],
            [
              7.812493,
              46.296721
            ],
            [
              7.811441,
              46.297379
            ],
            [
              7.810488,
              46.298105
            ],
            [
              7.809642,
              46.298893
            ],
            [
              7.808913,
              46.299734
            ],
            [
              7.808305,
              46.30062
            ],
            [
              7.807827,
              46.301543
            ],
            [
              7.807482,
              46.302494
            ],
            [
              7.807274,
              46.303464
            ],
            [
              7.807204,
              46.304444
            ],
            [
              7.807273,
              46.305423
            ],
            [
              7.807481,
              46.306393
            ],
            [
              7.807826,
              46.307344
            ],
            [
              7.808304,
              46.308267
            ],
            [
              7.80891,
              46.309154
            ],
            [
              7.80964,
              46.309995
            ],
            [
              7.810485,
              46.310782
            ],
            [
              7.811438,
              46.311509
            ],
            [
              7.81249,
              46.312168
            ],
            [
              7.81363,
              46.312752
            ],
            [
              7.814848,
              46.313256
            ],
            [
              7.816131,
              46.313675
            ],
            [
              7.817468,
              46.314006
            ],
            [
              7.818845,
              46.314244
            ],
            [
              7.820249,
              46.314388
            ],
            [
              7.821667,
              46.314436
            ]
          ]
        ]
      },
      "properties": {
        "id": "W2721/26",
        "notam": "W2721/26",
        "on_chart": false,
        "valid_from_utc": "2026-10-11T11:30:00+00:00",
        "valid_to_utc": "2026-10-11T19:30:00+00:00",
        "lower": {
          "raw": "GND",
          "meters": 0,
          "feet": 0,
          "flight_level": null,
          "gnd": true
        },
        "upper": {
          "raw": "2000m / 6500ft",
          "meters": 2000,
          "feet": 6500,
          "flight_level": null,
          "gnd": false
        },
        "center": {
          "lat": 46.304444,
          "lon": 7.821667
        },
        "radius_m": 1111,
        "radius_candidates_m": {
          "table_km": 1000,
          "text_0_km": 1000,
          "text_1_nm": 1111
        },
        "geometry_source": "circle",
        "text": "GLD FLYING WILL TAKE PLACE AT LSTA AD, RADIUS 1.0KM (461816N0074918E RADIUS 0.6NM)."
      }
    }
  ]
}