{
  "type": "FeatureCollection",
  "properties": {
    "dabs_date": "2026-10-05",
    "version": 1,
    "generated_utc": "2026-10-04T13:31:00+00:00"
  },
  "features": [
    {
      "type": "Feature",
      "geometry": {
        "type": "Polygon",
        "coordinates": [
          [
            [
              8.857222,
              47.060153
            ],
            [
              8.86188,
              47.059997
            ],
            [
              8.866494,
              47.059531
            ],
            [
              8.871018,
              47.058758
            ],
            [
              8.875408,
              47.057687
            ],
            [
              8.879624,
              47.056328
            ],
            [
              8.883623,
              47.054694
            ],
            [
              8.887368,
              47.0528
            ],
            [
              8.890822,
              47.050666
            ],
            [
              8.893951,
              47.048311
            ],
            [
              8.896727,
              47.045758
            ],
            [
              8.899122,
              47.043032
            ],
            [
              8.901113,
              47.040159
            ],
            [
              8.902681,
              47.037167
            ],
            [
              8.903811,
              47.034084
            ],
            [
              8.904493,
              47.030941
            ],
            [
              8.904718,
              47.027768
            ],
            [
              8.904487,
              47.024595
            ],
            [
              8.9038,
              47.021452
            ],
            [
              8.902665,
              47.018371
            ],
            [
              8.901093,
              47.01538
            ],
            [
              8.899098,
              47.012508
            ],
            [
              8.896701,
              47.009784
            ],
            [
              8.893923,
              47.007233
            ],
            [
              8.890793,
              47.00488
            ],
            [
              8.887339,
              47.002747
            ],
            [
              8.883596,
              47.000855
            ],
            [
              8.8796,
              46.999223
            ],
            [
              8.875388,
              46.997865
            ],
            [
              8.871002,
              46.996795
            ],
            [
              8.866483,
              46.996024
            ],
            [
              8.861875,
              46.995558
            ],
            [
              8.857222,
              46.995402
            ],
            [
              8.85257,
              46.995558
            ],
            [
              8.847962,
              46.996024
            ],
            [
              8.843443,
              46.996795
            ],
            [
              8.839056,
              46.997865
            ],
            [
              8.834845,
              46.999223
            ],
            [
              8.830848,
              47.000855
            ],
            [
              8.827105,
              47.002747
            ],
            [
              8.823652,
              47.00488
            ],
            [
              8.820521,
              47.007233
            ],
            [
              8.817744,
              47.009784
            ],
            [
              8.815346,
              47.012508
            ],
            [
              8.813352,
              47.01538
            ],
            [
              8.811779,
              47.018371
            ],
            [
              8.810644,
              47.021452
            ],
            [
              8.809957,
              47.024595
            ],
            [
              8.809726,
              47.027768
            ],
            [
              8.809952,
              47.030941
            ],
            [
              8.810633,
              47.034084
            ],
            [
              8.811763,
              47.037167
            ],
            [
              8.813331,
              47.040159
            ],
            [
              8.815322,
              47.043032
            ],
            [
              8.817717,
              47.045758
            ],
            [
              8.820493,
              47.048311
            ],
            [
              8.823623,
              47.050666
            ],
            [
              8.827077,
              47.0528
            ],
            [
              8.830821,
              47.054694
            ],
            [
              8.834821,
              47.056328
            ],
            [
              8.839036,
              47.057687
            ],
            [
              8.843427,
              47.058758
            ],
            [
              8.847951,
              47.059531
            ],
            [
              8.852564,
              47.059997
            ],
            [
              8.857222,
              47.060153
            ]
          ]
        ]
      },
      "properties": {
        "id": "LSD12",
        "notam": null,
        "on_chart": true,
        "valid_from_utc": "2026-10-05T06:00:00+00:00",
        "valid_to_utc": "2026-10-05T10:00:00+00:00",
        "lower": {
          "raw": "GND",
          "meters": 0,
          "feet": 0,
          "flight_level": null,
          "gnd": true
        },
        "upper": {
          "raw": "1800m / 5900ft",
          "meters": 1800,
          "feet": 5900,
          "flight_level": null,
          "gnd": false
        },
        "center": {
          "lat": 47.027778,
          "lon": 8.857222
        },
        "radius_m": 3600,
        "radius_candidates_m": {
          "table_km": 3600
        },
        "geometry_source": "circle",
        "text": "D-AREA LSD12 SIHLTAL ACT."
      }
    },
    {
      "type": "Feature",
      "geometry": {
        "type": "Polygon",
        "coordinates": [
          [
            [
              8.022222,
              47.096512
            ],
            [
              8.064433,
              47.095092
            ],
            [
              8.106231,
              47.090848
            ],
            [
              8.147206,
              47.08382
            ],
            [
              8.186959,
              47.074077
            ],
            [
              8.225101,
              47.061715
            ],
            [
              8.261261,
              47.046854
            ],
            [
              8.295087,
              47.02964
            ],
            [
              8.326253,
              47.01024
            ],
            [
              8.354456,
              46.988844
            ],
            [
              8.379427,
              46.96566
            ],
            [
              8.400926,
              46.940913
            ],
            [
              8.418751,
              46.914844
            ],
            [
              8.432733,
              46.887706
            ],
            [
              8.442743,
              46.85976
            ],
            [
              8.448691,
              46.831278
            ],
            [
              8.450525,
              46.802534
            ],
            [
              8.448236,
              46.773806
            ],
            [
              8.44185,
              46.74537
            ],
            [
              8.431436,
              46.717498
            ],
            [
              8.4171,
              46.690459
            ],
            [
              8.398986,
              46.664511
            ],
            [
              8.37727,
              46.639902
            ],
            [
              8.352167,
              46.616868
            ],
            [
              8.323919,
              46.595627
            ],
            [
              8.292798,
              46.576384
            ],
            [
              8.259104,
              46.559319
            ],
            [
              8.22316,
              46.544597
            ],
            [
              8.185308,
              46.532356
            ],
            [
              8.145909,
              46.522712
            ],
            [
              8.105337,
              46.515758
            ],
            [
              8.063978,
              46.511559
            ],
            [
              8.022222,
              46.510155
            ],
            [
              7.980467,
              46.511559
            ],
            [
              7.939107,
              46.515758
            ],
            [
              7.898535,
              46.522712
            ],
            [
              7.859136,
              46.532356
            ],
            [
              7.821284,
              46.544597
            ],
            [
              7.78534,
              46.559319
            ],
            [
              7.751646,
              46.576384
            ],
            [
              7.720526,
              46.595627
            ],
            [
              7.692278,
              46.616868
            ],
            [
              7.667174,
              46.639902
            ],
            [
              7.645459,
              46.664511
            ],
            [
              7.627344,
              46.690459
            ],
            [
              7.613008,
              46.717498
            ],
            [
              7.602595,
              46.74537
            ],
            [
              7.596209,
              46.773806
            ],
            [
              7.593919,
              46.802534
            ],
            [
              7.595754,
              46.831278
            ],
            [
              7.601701,
              46.85976
            ],
            [
              7.611712,
              46.887706
            ],
            [
              7.625694,
              46.914844
            ],
            [
              7.643518,
              46.940913
            ],
            [
              7.665018,
              46.96566
            ],
            [
              7.689988,
              46.988844
            ],
            [
              7.718192,
              47.01024
            ],
            [
              7.749357,
              47.02964
            ],
            [
              7.783184,
              47.046854
            ],
            [
              7.819344,
              47.061715
            ],
            [
              7.857486,
              47.074077
            ],
            [
              7.897238,
              47.08382
            ],
            [
              7.938214,
              47.090848
            ],
            [
              7.980011,
              47.095092
            ],
            [
              8.022222,
              47.096512
            ]
          ]
        ]
      },
      "properties": {
        "id": "LSR2",
        "notam": "W2604/26",
        "on_chart": true,
        "valid_from_utc": "2026-10-05T11:40:00+00:00",
        "valid_to_utc": "2026-10-05T12:20:00+00:00",
        "lower": {
          "raw": "FL100",
          "meters": 3048,
          "feet": 10000,
          "flight_level": 100,
          "gnd": false
        },
        "upper": {
          "raw": "FL130",
          "meters": 3962,
          "feet": 13000,
          "flight_level": 130,
          "gnd": false
        },
        "center": {
          "lat": 46.803333,
          "lon": 8.022222
        },
        "radius_m": 32600,
        "radius_candidates_m": {
          "table_km": 32600
        },
        "geometry_source": "circle",
        "text": "R-AREA LSR2 HOHGANT ACT."
      }
    },
    {
      "type": "Feature",
      "geometry": {
        "type": "Polygon",
        "coordinates": [
          [
            [
              9.325556,
              47.399156
            ],
            [
              9.35733,
              47.398095
            ],
            [
              9.388795,
              47.394923
            ],
            [
              9.419643,
              47.389669
            ],
            [
              9.449575,
              47.382386
            ],
            [
              9.478298,
              47.373145
            ],
            [
              9.505534,
              47.362034
            ],
            [
              9.531019,
              47.349164
            ],
            [
              9.554506,
              47.334658
            ],
            [
              9.575769,
              47.318658
            ],
            [
              9.594604,
              47.301319
            ],
            [
              9.610829,
              47.282809
            ],
            [
              9.624291,
              47.263308
            ],
            [
              9.634863,
              47.243005
            ],
            [
              9.642445,
              47.222095
            ],
            [
              9.646969,
              47.200781
            ],
            [
              9.648393,
              47.179269
            ],
            [
              9.646708,
              47.157765
            ],
            [
              9.641935,
              47.136477
            ],
            [
              9.634122,
              47.115609
            ],
            [
              9.623348,
              47.095362
            ],
            [
              9.60972,
              47.07593
            ],
            [
              9.593371,
              47.057499
            ],
            [
              9.574461,
              47.040245
            ],
            [
              9.553172,
              47.024333
            ],
            [
              9.529711,
              47.009916
            ],
            [
              9.504302,
              46.99713
            ],
            [
              9.477189,
              46.986098
            ],
            [
              9.448631,
              46.976925
            ],
            [
              9.418902,
              46.969699
            ],
            [
              9.388284,
              46.964487
            ],
            [
              9.35707,
              46.96134
            ],
            [
              9.325556,
              46.960288
            ],
            [
              9.294041,
              46.96134
            ],
            [
              9.262827,
              46.964487
            ],
            [
              9.232209,
              46.969699
            ],
            [
              9.20248,
              46.976925
            ],
            [
              9.173922,
              46.986098
            ],
            [
              9.14681,
              46.99713
            ],
            [
              9.121401,
              47.009916
            ],
            [
              9.097939,
              47.024333
            ],
            [
              9.07665,
              47.040245
            ],
            [
              9.05774,
              47.057499
            ],
            [
              9.041391,
              47.07593
            ],
            [
              9.027763,
              47.095362
            ],
            [
              9.016989,
              47.115609
            ],
            [
              9.009176,
              47.136477
            ],
            [
              9.004403,
              47.157765
            ],
            [
              9.002718,
              47.179269
            ],
            [
              9.004142,
              47.200781
            ],
            [
              9.008666,
              47.222095
            ],
            [
              9.016248,
              47.243005
            ],
            [
              9.02682,
              47.263308
            ],
            [
              9.040282,
              47.282809
            ],
            [
              9.056507,
              47.301319
            ],
            [
              9.075342,
              47.318658
            ],
            [
              9.096605,
              47.334658
            ],
            [
              9.120092,
              47.349164
            ],
            [
              9.145577,
              47.362034
            ],
            [
              9.172813,
              47.373145
            ],
            [
              9.201536,
              47.382386
            ],
            [
              9.231468,
              47.389669
            ],
            [
              9.262316,
              47.394923
            ],
            [
              9.293781,
              47.398095
            ],
            [
              9.325556,
              47.399156
            ]
          ]
        ]
      },
      "properties": {
        "id": "LSR3",
        "notam": "W2605/26",
        "on_chart": true,
        "valid_from_utc": "2026-10-05T13:45:00+00:00",
        "valid_to_utc": "2026-10-05T14:25:00+00:00",
        "lower": {
          "raw": "FL100",
          "meters": 3048,
          "feet": 10000,
          "flight_level": 100,
          "gnd": false
        },
        "upper": {
          "raw": "FL130",
          "meters": 3962,
          "feet": 13000,
          "flight_level": 130,
          "gnd": false
        },
        "center": {
          "lat": 47.179722,
          "lon": 9.325556
        },
        "radius_m": 24400,
        "radius_candidates_m": {
          "table_km": 24400
        },
        "geometry_source": "circle",
        "text": "R-AREA LSR3 SPEER ACT."
      }
    },
    {
      "type": "Feature",
      "geometry": {
        "type": "Polygon",
        "coordinates": [
          [
            [
              9.128611,
              46.538445
            ],
            [
              9.134762,
              46.538237
            ],
            [
              9.140854,
              46.537615
            ],
            [
              9.146827,
              46.536585
            ],
            [
              9.152625,
              46.535157
            ],
            [
              9.158191,
              46.533344
            ],
            [
              9.163471,
              46.531165
            ],
            [
              9.168415,
              46.52864
            ],
            [
              9.172976,
              46.525793
            ],
            [
              9.177108,
              46.522653
            ],
            [
              9.180772,
              46.519248
            ],
            [
              9.183933,
              46.515613
            ],
            [
              9.186561,
              46.511783
            ],
            [
              9.18863,
              46.507793
            ],
            [
              9.190121,
              46.503683
            ],
            [
              9.19102,
              46.499492
            ],
            [
              9.191317,
              46.495261
            ],
            [
              9.19101,
              46.49103
            ],
            [
              9.190102,
              46.48684
            ],
            [
              9.188603,
              46.482731
            ],
            [
              9.186526,
              46.478744
            ],
            [
              9.183892,
              46.474915
            ],
            [
              9.180726,
              46.471283
            ],
            [
              9.177059,
              46.467882
            ],
            [
              9.172926,
              46.464745
            ],
            [
              9.168367,
              46.461902
            ],
            [
              9.163425,
              46.45938
            ],
            [
              9.15815,
              46.457204
            ],
            [
              9.15259,
              46.455394
            ],
            [
              9.1468,
              46.453968
            ],
            [
              9.140835,
              46.452939
            ],
            [
              9.134752,
              46.452318
            ],
            [
              9.128611,
              46.45211
            ],
            [
              9.12247,
              46.452318
            ],
            [
              9.116387,
              46.452939
            ],
            [
              9.110422,
              46.453968
            ],
            [
              9.104632,
              46.455394
            ],
            [
              9.099073,
              46.457204
            ],
            [
              9.093797,
              46.45938
            ],
            [
              9.088856,
              46.461902
            ],
            [
              9.084296,
              46.464745
            ],
            [
              9.080163,
              46.467882
            ],
            [
              9.076496,
              46.471283
            ],
            [
              9.07333,
              46.474915
            ],
            [
              9.070696,
              46.478744
            ],
            [
              9.06862,
              46.482731
            ],
            [
              9.06712,
              46.48684
            ],
            [
              9.066212,
              46.49103
            ],
            [
              9.065906,
              46.495261
            ],
            [
              9.066203,
              46.499492
            ],
            [
              9.067101,
              46.503683
            ],
            [
              9.068592,
              46.507793
            ],
            [
              9.070661,
              46.511783
            ],
            [
              9.073289,
              46.515613
            ],
            [
              9.07645,
              46.519248
            ],
            [
              9.080115,
              46.522653
            ],
            [
              9.084247,
              46.525793
            ],
            [
              9.088807,
              46.52864
            ],
            [
              9.093751,
              46.531165
            ],
            [
              9.099031,
              46.533344
            ],
            [
              9.104597,
              46.535157
            ],
            [
              9.110395,
              46.536585
            ],
            [
              9.116368,
              46.537615
            ],
            [
              9.12246,
              46.538237
            ],
            [
              9.128611,
              46.538445
            ]
          ]
        ]
      },
      "properties": {
        "id": "LSR9",
        "notam": "W2603/26",
        "on_chart": true,
        "valid_from_utc": "2026-10-05T06:00:00+00:00",
        "valid_to_utc": "2026-10-05T20:00:00+00:00",
        "lower": {
          "raw": "GND",
          "meters": 0,
          "feet": 0,
          "flight_level": null,
          "gnd": true
        },
        "upper": {
          "raw": "7750m / 25500ft",
          "meters": 7750,
          "feet": 25500,
          "flight_level": null,
          "gnd": false
        },
        "center": {
          "lat": 46.495278,
          "lon": 9.128611
        },
        "radius_m": 4800,
        "radius_candidates_m": {
          "table_km": 4800
        },
        "geometry_source": "circle",
        "text": "R-AREA LSR9 HINTERRHEIN ACT DUE TO FRNG."
      }
    },
    {
      "type": "Feature",
      "geometry": {
        "type": "Polygon",
        "coordinates": [
          [
            [
              8.043889,
              46.267408
            ],
            [
              8.054982,
              46.26703
            ],
            [
              8.065969,
              46.265902
            ],
            [
              8.076741,
              46.264034
            ],
            [
              8.087196,
              46.261444
            ],
            [
              8.097233,
              46.258157
            ],
            [
              8.106753,
              46.254204
            ],
            [
              8.115666,
              46.249625
            ],
            [
              8.123886,
              46.244463
            ],
            [
              8.131333,
              46.238769
            ],
            [
              8.137935,
              46.232596
            ],
            [
              8.14363,
              46.226006
            ],
            [
              8.148362,
              46.219061
            ],
            [
              8.152086,
              46.211828
            ],
            [
              8.154767,
              46.204377
            ],
            [
              8.156379,
              46.19678
            ],
            [
              8.156908,
              46.189111
            ],
            [
              8.156348,
              46.181443
            ],
            [
              8.154706,
              46.173849
            ],
            [
              8.151997,
              46.166404
            ],
            [
              8.148248,
              46.159178
            ],
            [
              8.143496,
              46.152241
            ],
            [
              8.137787,
              46.14566
            ],
            [
              8.131175,
              46.139498
            ],
            [
              8.123725,
              46.133814
            ],
            [
              8.115509,
              46.128663
            ],
            [
              8.106605,
              46.124095
            ],
            [
              8.097099,
              46.120152
            ],
            [
              8.087083,
              46.116873
            ],
            [
              8.076652,
              46.11429
            ],
            [
              8.065907,
              46.112427
            ],
            [
              8.054951,
              46.111302
            ],
            [
              8.043889,
              46.110926
            ],
            [
              8.032827,
              46.111302
            ],
            [
              8.021871,
              46.112427
            ],
            [
              8.011126,
              46.11429
            ],
            [
              8.000695,
              46.116873
            ],
            [
              7.990679,
              46.120152
            ],
            [
              7.981173,
              46.124095
            ],
            [
              7.972269,
              46.128663
            ],
            [
              7.964053,
              46.133814
            ],
            [
              7.956603,
              46.139498
            ],
            [
              7.949991,
              46.14566
            ],
            [
              7.944282,
              46.152241
            ],
            [
              7.93953,
              46.159178
            ],
            [
              7.935781,
              46.166404
            ],
            [
              7.933072,
              46.173849
            ],
            [
              7.93143,
              46.181443
            ],
            [
              7.93087,
              46.189111
            ],
            [
              7.931398,
              46.19678
            ],
            [
              7.933011,
              46.204377
            ],
            [
              7.935692,
              46.211828
            ],
            [
              7.939416,
              46.219061
            ],
            [
              7.944148,
              46.226006
            ],
            [
              7.949843,
              46.232596
            ],
            [
              7.956445,
              46.238769
            ],
            [
              7.963892,
              46.244463
            ],
            [
              7.972111,
              46.249625
            ],
            [
              7.981024,
              46.254204
            ],
            [
              7.990545,
              46.258157
            ],
            [
              8.000581,
              46.261444
            ],
            [
              8.011036,
              46.264034
            ],
            [
              8.021809,
              46.265902
            ],
            [
              8.032795,
              46.26703
            ],
            [
              8.043889,
              46.267408
            ]
          ]
        ]
      },
      "properties": {
        "id": "LSR12",
        "notam": "W2003/26",
        "on_chart": true,
        "valid_from_utc": "2026-10-05T07:00:00+00:00",
        "valid_to_utc": "2026-10-05T12:00:00+00:00",
        "lower": {
          "raw": "GND",
          "meters": 0,
          "feet": 0,
          "flight_level": null,
          "gnd": true
        },
        "upper": {
          "raw": "6850m / 22500ft",
          "meters": 6850,
          "feet": 22500,
          "flight_level": null,
          "gnd": false
        },
        "center": {
          "lat": 46.189167,
          "lon": 8.043889
        },
        "radius_m": 8700,
        "radius_candidates_m": {
          "table_km": 8700
        },
        "geometry_source": "circle",
        "text": "R-AREA LSR12 SIMPLON ACT DUE TO FRNG."
      }
    },
    {
      "type": "Feature",
      "geometry": {
        "type": "Polygon",
        "coordinates": [
          [
            [
              9.033333,
              46.159942
            ],
            [
              9.038042,
              46.159781
            ],
            [
              9.042705,
              46.159302
            ],
            [
              9.047278,
              46.158508
            ],
            [
              9.051717,
              46.157407
            ],
            [
              9.055978,
              46.15601
            ],
            [
              9.06002,
              46.154331
            ],
            [
              9.063805,
              46.152384
            ],
            [
              9.067297,
              46.150191
            ],
            [
              9.070461,
              46.14777
            ],
            [
              9.073266,
              46.145146
            ],
            [
              9.075687,
              46.142345
            ],
            [
              9.0777,
              46.139392
            ],
            [
              9.079285,
              46.136317
            ],
            [
              9.080427,
              46.133149
            ],
            [
              9.081116,
              46.129918
            ],
            [
              9.081344,
              46.126657
            ],
            [
              9.08111,
              46.123395
            ],
            [
              9.080416,
              46.120165
            ],
            [
              9.079269,
              46.116998
            ],
            [
              9.07768,
              46.113924
            ],
            [
              9.075663,
              46.110973
            ],
            [
              9.07324,
              46.108173
            ],
            [
              9.070432,
              46.105551
            ],
            [
              9.067268,
              46.103133
            ],
            [
              9.063777,
              46.100941
            ],
            [
              9.059993,
              46.098997
            ],
            [
              9.055954,
              46.097319
            ],
            [
              9.051696,
              46.095923
            ],
            [
              9.047262,
              46.094824
            ],
            [
              9.042694,
              46.094031
            ],
            [
              9.038036,
              46.093552
            ],
            [
              9.033333,
              46.093392
            ],
            [
              9.02863,
              46.093552
            ],
            [
              9.023972,
              46.094031
            ],
            [
              9.019405,
              46.094824
            ],
            [
              9.014971,
              46.095923
            ],
            [
              9.010713,
              46.097319
            ],
            [
              9.006673,
              46.098997
            ],
            [
              9.00289,
              46.100941
            ],
            [
              8.999399,
              46.103133
            ],
            [
              8.996234,
              46.105551
            ],
            [
              8.993427,
              46.108173
            ],
            [
              8.991003,
              46.110973
            ],
            [
              8.988987,
              46.113924
            ],
            [
              8.987398,
              46.116998
            ],
            [
              8.98625,
              46.120165
            ],
            [
              8.985556,
              46.123395
            ],
            [
              8.985322,
              46.126657
            ],
            [
              8.985551,
              46.129918
            ],
            [
              8.986239,
              46.133149
            ],
            [
              8.987382,
              46.136317
            ],
            [
              8.988967,
              46.139392
            ],
            [
              8.990979,
              46.142345
            ],
            [
              8.9934,
              46.145146
            ],
            [
              8.996206,
              46.14777
            ],
            [
              8.99937,
              46.150191
            ],
            [
              9.002861,
              46.152384
            ],
            [
              9.006646,
              46.154331
            ],
            [
              9.010689,
              46.15601
            ],
            [
              9.01495,
              46.157407
            ],
            [
              9.019388,
              46.158508
            ],
            [
              9.023961,
              46.159302
            ],
            [
              9.028625,
              46.159781
            ],
            [
              9.033333,
              46.159942
            ]
          ]
        ]
      },
      "properties": {
        "id": "LSR16",
        "notam": "W1439/26",
        "on_chart": true,
        "valid_from_utc": "2026-10-05T06:00:00+00:00",
        "valid_to_utc": "2026-10-05T15:30:00+00:00",
        "lower": {
          "raw": "GND",
          "meters": 0,
          "feet": 0,
          "flight_level": null,
          "gnd": true
        },
        "upper": {
          "raw": "3200m / 10500ft",
          "meters": 3200,
          "feet": 10500,
          "flight_level": null,
          "gnd": false
        },
        "center": {
          "lat": 46.126667,
          "lon": 9.033333
        },
        "radius_m": 3700,
        "radius_candidates_m": {
          "table_km": 3700
        },
        "geometry_source": "circle",
        "text": "R-AREA LSR16 ISONE 1 ACT DUE TO MIL UAV."
      }
    },
    {
      "type": "Feature",
      "geometry": {
        "type": "Polygon",
        "coordinates": [
          [
            [
              8.994444,
              46.13116
            ],
            [
              8.997752,
              46.131047
            ],
            [
              9.001027,
              46.130711
            ],
            [
              9.004239,
              46.130153
            ],
            [
              9.007356,
              46.12938
            ],
            [
              9.010349,
              46.128398
            ],
            [
              9.013188,
              46.127218
            ],
            [
              9.015847,
              46.125851
            ],
            [
              9.018299,
              46.124309
            ],
            [
              9.020522,
              46.122608
            ],
            [
              9.022493,
              46.120765
            ],
            [
              9.024194,
              46.118796
            ],
            [
              9.025608,
              46.116722
            ],
            [
              9.026722,
              46.114561
            ],
            [
              9.027525,
              46.112335
            ],
            [
              9.028009,
              46.110065
            ],
            [
              9.02817,
              46.107773
            ],
            [
              9.028007,
              46.105481
            ],
            [
              9.02752,
              46.103211
            ],
            [
              9.026714,
              46.100986
            ],
            [
              9.025598,
              46.098826
            ],
            [
              9.024182,
              46.096752
            ],
            [
              9.02248,
              46.094784
            ],
            [
              9.020508,
              46.092941
            ],
            [
              9.018285,
              46.091241
            ],
            [
              9.015833,
              46.089701
            ],
            [
              9.013175,
              46.088335
            ],
            [
              9.010337,
              46.087155
            ],
            [
              9.007346,
              46.086175
            ],
            [
              9.004231,
              46.085402
            ],
            [
              9.001021,
              46.084845
            ],
            [
              8.997749,
              46.084508
            ],
            [
              8.994444,
              46.084395
            ],
            [
              8.99114,
              46.084508
            ],
            [
              8.987868,
              46.084845
            ],
            [
              8.984658,
              46.085402
            ],
            [
              8.981543,
              46.086175
            ],
            [
              8.978552,
              46.087155
            ],
            [
              8.975714,
              46.088335
            ],
            [
              8.973056,
              46.089701
            ],
            [
              8.970604,
              46.091241
            ],
            [
              8.968381,
              46.092941
            ],
            [
              8.966409,
              46.094784
            ],
            [
              8.964707,
              46.096752
            ],
            [
              8.963291,
              46.098826
            ],
            [
              8.962175,
              46.100986
            ],
            [
              8.961369,
              46.103211
            ],
            [
              8.960882,
              46.105481
            ],
            [
              8.960719,
              46.107773
            ],
            [
              8.96088,
              46.110065
            ],
            [
              8.961364,
              46.112335
            ],
            [
              8.962167,
              46.114561
            ],
            [
              8.963281,
              46.116722
            ],
            [
              8.964695,
              46.118796
            ],
            [
              8.966396,
              46.120765
            ],
            [
              8.968367,
              46.122608
            ],
            [
              8.970589,
              46.124309
            ],
            [
              8.973042,
              46.125851
            ],
            [
              8.975701,
              46.127218
            ],
            [
              8.97854,
              46.128398
            ],
            [
              8.981533,
              46.12938
            ],
            [
              8.98465,
              46.130153
            ],
            [
              8.987862,
              46.130711
            ],
            [
              8.991137,
              46.131047
            ],
            [
              8.994444,
              46.13116
            ]
          ]
        ]
      },
      "properties": {
        "id": "LSR17",
        "notam": "W1444/26",
        "on_chart": true,
        "valid_from_utc": "2026-10-05T06:00:00+00:00",
        "valid_to_utc": "2026-10-05T15:30:00+00:00",
        "lower": {
          "raw": "GND",
          "meters": 0,
          "feet": 0,
          "flight_level": null,
          "gnd": true
        },
        "upper": {
          "raw": "3200m / 10500ft",
          "meters": 3200,
          "feet": 10500,
          "flight_level": null,
          "gnd": false
        },
        "center": {
          "lat": 46.107778,
          "lon": 8.994444
        },
        "radius_m": 2600,
        "radius_candidates_m": {
          "table_km": 2600
        },
        "geometry_source": "circle",
        "text": "R-AREA LSR17 ISONE 2 ACT DUE TO MIL UAV."
      }
    },
    {
      "type": "Feature",
      "geometry": {
        "type": "Polygon",
        "coordinates": [
          [
            [
              7.003056,
              47.470841
            ],
            [
              7.008011,
              47.470676
            ],
            [
              7.012918,
              47.470184
            ],
            [
              7.017731,
              47.469368
            ],
            [
              7.022402,
              47.468238
            ],
            [
              7.026886,
              47.466803
            ],
            [
              7.03114,
              47.465078
            ],
            [
              7.035123,
              47.463079
            ],
            [
              7.038797,
              47.460826
            ],
            [
              7.042127,
              47.45834
            ],
            [
              7.045079,
              47.455645
            ],
            [
              7.047627,
              47.452768
            ],
            [
              7.049745,
              47.449735
            ],
            [
              7.051412,
              47.446577
            ],
            [
              7.052614,
              47.443323
            ],
            [
              7.053339,
              47.440005
            ],
            [
              7.053579,
              47.436656
            ],
            [
              7.053332,
              47.433306
            ],
            [
              7.052602,
              47.429989
            ],
            [
              7.051394,
              47.426736
            ],
            [
              7.049721,
              47.423579
            ],
            [
              7.047599,
              47.420548
            ],
            [
              7.045049,
              47.417673
            ],
            [
              7.042094,
              47.41498
            ],
            [
              7.038764,
              47.412496
            ],
            [
              7.035091,
              47.410245
            ],
            [
              7.03111,
              47.408248
            ],
            [
              7.026858,
              47.406525
            ],
            [
              7.022378,
              47.405092
            ],
            [
              7.017713,
              47.403963
            ],
            [
              7.012906,
              47.403149
            ],
            [
              7.008005,
              47.402657
            ],
            [
              7.003056,
              47.402492
            ],
            [
              6.998107,
              47.402657
            ],
            [
              6.993205,
              47.403149
            ],
            [
              6.988399,
              47.403963
            ],
            [
              6.983733,
              47.405092
            ],
            [
              6.979253,
              47.406525
            ],
            [
              6.975001,
              47.408248
            ],
            [
              6.97102,
              47.410245
            ],
            [
              6.967347,
              47.412496
            ],
            [
              6.964017,
              47.41498
            ],
            [
              6.961062,
              47.417673
            ],
            [
              6.958512,
              47.420548
            ],
            [
              6.95639,
              47.423579
            ],
            [
              6.954717,
              47.426736
            ],
            [
              6.953509,
              47.429989
            ],
            [
              6.952779,
              47.433306
            ],
            [
              6.952532,
              47.436656
            ],
            [
              6.952772,
              47.440005
            ],
            [
              6.953497,
              47.443323
            ],
            [
              6.954699,
              47.446577
            ],
            [
              6.956367,
              47.449735
            ],
            [
              6.958484,
              47.452768
            ],
            [
              6.961032,
              47.455645
            ],
            [
              6.963984,
              47.45834
            ],
            [
              6.967314,
              47.460826
            ],
            [
              6.970988,
              47.463079
            ],
            [
              6.974971,
              47.465078
            ],
            [
              6.979225,
              47.466803
            ],
            [
              6.98371,
              47.468238
            ],
            [
              6.98838,
              47.469368
            ],
            [
              6.993193,
              47.470184
            ],
            [
              6.9981,
              47.470676
            ],
            [
              7.003056,
              47.470841
            ]
          ]
        ]
      },
      "properties": {
        "id": "LSR18",
        "notam": "W2612/26",
        "on_chart": true,
        "valid_from_utc": "2026-10-05T00:00:00+00:00",
        "valid_to_utc": "2026-10-05T23:59:00+00:00",
        "lower": {
          "raw": "GND",
          "meters": 0,
          "feet": 0,
          "flight_level": null,
          "gnd": true
        },
        "upper": {
          "raw": "1350m / 4500ft",
          "meters": 1350,
          "feet": 4500,
          "flight_level": null,
          "gnd": false
        },
        "center": {
          "lat": 47.436667,
          "lon": 7.003056
        },
        "radius_m": 3800,
        "radius_candidates_m": {
          "table_km": 3800
        },
        "geometry_source": "circle",
        "text": "R-AREA LSR18 BURE ACT DUE TO MIL UAV ACT."
      }
    },
    {
      "type": "Feature",
      "geometry": {
        "type": "Polygon",
        "coordinates": [
          [
            [
              8.419167,
              46.736476
            ],
            [
              8.423668,
              46.736325
            ],
            [
              8.428126,
              46.735871
            ],
            [
              8.432498,
              46.73512
            ],
            [
              8.436741,
              46.734079
            ],
            [
              8.440815,
              46.732758
            ],
            [
              8.44468,
              46.731169
            ],
            [
              8.448299,
              46.729328
            ],
            [
              8.451636,
              46.727252
            ],
            [
              8.454661,
              46.724963
            ],
            [
              8.457344,
              46.722481
            ],
            [
              8.459658,
              46.719831
            ],
            [
              8.461582,
              46.717038
            ],
            [
              8.463098,
              46.714129
            ],
            [
              8.46419,
              46.711132
            ],
            [
              8.464848,
              46.708076
            ],
            [
              8.465067,
              46.704991
            ],
            [
              8.464843,
              46.701906
            ],
            [
              8.46418,
              46.69885
            ],
            [
              8.463083,
              46.695855
            ],
            [
              8.461563,
              46.692947
            ],
            [
              8.459636,
              46.690155
            ],
            [
              8.457319,
              46.687506
            ],
            [
              8.454635,
              46.685026
            ],
            [
              8.45161,
              46.682738
            ],
            [
              8.448272,
              46.680665
            ],
            [
              8.444655,
              46.678826
            ],
            [
              8.440793,
              46.677238
            ],
            [
              8.436722,
              46.675918
            ],
            [
              8.432483,
              46.674878
            ],
            [
              8.428116,
              46.674128
            ],
            [
              8.423663,
              46.673675
            ],
            [
              8.419167,
              46.673524
            ],
            [
              8.41467,
              46.673675
            ],
            [
              8.410217,
              46.674128
            ],
            [
              8.40585,
              46.674878
            ],
            [
              8.401611,
              46.675918
            ],
            [
              8.397541,
              46.677238
            ],
            [
              8.393678,
              46.678826
            ],
            [
              8.390061,
              46.680665
            ],
            [
              8.386724,
              46.682738
            ],
            [
              8.383699,
              46.685026
            ],
            [
              8.381014,
              46.687506
            ],
            [
              8.378698,
              46.690155
            ],
            [
              8.37677,
              46.692947
            ],
            [
              8.37525,
              46.695855
            ],
            [
              8.374154,
              46.69885
            ],
            [
              8.37349,
              46.701906
            ],
            [
              8.373267,
              46.704991
            ],
            [
              8.373485,
              46.708076
            ],
            [
              8.374143,
              46.711132
            ],
            [
              8.375236,
              46.714129
            ],
            [
              8.376751,
              46.717038
            ],
            [
              8.378675,
              46.719831
            ],
            [
              8.38099,
              46.722481
            ],
            [
              8.383672,
              46.724963
            ],
            [
              8.386697,
              46.727252
            ],
            [
              8.390035,
              46.729328
            ],
            [
              8.393654,
              46.731169
            ],
            [
              8.397518,
              46.732758
            ],
            [
              8.401592,
              46.734079
            ],
            [
              8.405835,
              46.73512
            ],
            [
              8.410207,
              46.735871
            ],
            [
              8.414665,
              46.736325
            ],
            [
              8.419167,
              46.736476
            ]
          ]
        ]
      },
      "properties": {
        "id": "LSR37",
        "notam": "W2608/26",
        "on_chart": true,
        "valid_from_utc": "2026-10-05T05:30:00+00:00",
        "valid_to_utc": "2026-10-05T15:30:00+00:00",
        "lower": {
          "raw": "GND",
          "meters": 0,
          "feet": 0,
          "flight_level": null,
          "gnd": true
        },
        "upper": {
          "raw": "5050m / 16500ft",
          "meters": 5050,
          "feet": 16500,
          "flight_level": null,
          "gnd": false
        },
        "center": {
          "lat": 46.705,
          "lon": 8.419167
        },
        "radius_m": 3500,
        "radius_candidates_m": {
          "table_km": 3500
        },
        "geometry_source": "circle",
        "text": "R-AREA LSR37 SUSTENPASS ACT DUE TO FRNG."
      }
    },
    {
      "type": "Feature",
      "geometry": {
        "type": "Polygon",
        "coordinates": [
          [
            [
              8.420278,
              46.988609
            ],
            [
              8.433329,
              46.988171
            ],
            [
              8.446254,
              46.986861
            ],
            [
              8.458928,
              46.984691
            ],
            [
              8.471228,
              46.981684
            ],
            [
              8.483034,
              46.977867
            ],
            [
              8.494234,
              46.973278
            ],
            [
              8.504718,
              46.96796
            ],
            [
              8.514386,
              46.961967
            ],
            [
              8.523145,
              46.955355
            ],
            [
              8.530909,
              46.948188
            ],
            [
              8.537605,
              46.940535
            ],
            [
              8.543169,
              46.932472
            ],
            [
              8.547546,
              46.924074
            ],
            [
              8.550697,
              46.915424
            ],
            [
              8.55259,
              46.906605
            ],
            [
              8.553208,
              46.897701
            ],
            [
              8.552546,
              46.888799
            ],
            [
              8.55061,
              46.879983
            ],
            [
              8.547421,
              46.87134
            ],
            [
              8.543009,
              46.862953
            ],
            [
              8.537418,
              46.8549
            ],
            [
              8.530701,
              46.847261
            ],
            [
              8.522924,
              46.840109
            ],
            [
              8.514161,
              46.833512
            ],
            [
              8.504497,
              46.827533
            ],
            [
              8.494026,
              46.822231
            ],
            [
              8.482847,
              46.817655
            ],
            [
              8.471068,
              46.813849
            ],
            [
              8.458803,
              46.810851
            ],
            [
              8.446168,
              46.808689
            ],
            [
              8.433285,
              46.807383
            ],
            [
              8.420278,
              46.806946
            ],
            [
              8.40727,
              46.807383
            ],
            [
              8.394387,
              46.808689
            ],
            [
              8.381753,
              46.810851
            ],
            [
              8.369487,
              46.813849
            ],
            [
              8.357708,
              46.817655
            ],
            [
              8.34653,
              46.822231
            ],
            [
              8.336058,
              46.827533
            ],
            [
              8.326395,
              46.833512
            ],
            [
              8.317632,
              46.840109
            ],
            [
              8.309854,
              46.847261
            ],
            [
              8.303138,
              46.8549
            ],
            [
              8.297546,
              46.862953
            ],
            [
              8.293134,
              46.87134
            ],
            [
              8.289945,
              46.879983
            ],
            [
              8.28801,
              46.888799
            ],
            [
              8.287348,
              46.897701
            ],
            [
              8.287966,
              46.906605
            ],
            [
              8.289859,
              46.915424
            ],
            [
              8.293009,
              46.924074
            ],
            [
              8.297387,
              46.932472
            ],
            [
              8.30295,
              46.940535
            ],
            [
              8.309646,
              46.948188
            ],
            [
              8.317411,
              46.955355
            ],
            [
              8.326169,
              46.961967
            ],
            [
              8.335837,
              46.96796
            ],
            [
              8.346322,
              46.973278
            ],
            [
              8.357521,
              46.977867
            ],
            [
              8.369328,
              46.981684
            ],
            [
              8.381628,
              46.984691
            ],
            [
              8.394301,
              46.986861
            ],
            [
              8.407226,
              46.988171
            ],
            [
              8.420278,
              46.988609
            ]
          ]
        ]
      },
      "properties": {
        "id": "LSR39B",
        "notam": null,
        "on_chart": true,
        "valid_from_utc": "2026-10-05T07:00:00+00:00",
        "valid_to_utc": "2026-10-05T09:00:00+00:00",
        "lower": {
          "raw": "2750m / 9000ft",
          "meters": 2750,
          "feet": 9000,
          "flight_level": null,
          "gnd": false
        },
        "upper": {
          "raw": "FL130",
          "meters": 3962,
          "feet": 13000,
          "flight_level": 130,
          "gnd": false
        },
        "center": {
          "lat": 46.897778,
          "lon": 8.420278
        },
        "radius_m": 10100,
        "radius_candidates_m": {
          "table_km": 10100
        },
        "geometry_source": "circle",
        "text": "R-AREA LSR39B BRISEN ACT. LOWER LIMIT 9000FT AMSL OR 2000FT GND WHICHEVER IS"
      }
    },
    {
      "type": "Feature",
      "geometry": {
        "type": "Polygon",
        "coordinates": [
          [
            [
              8.675833,
              47.075481
            ],
            [
              8.694213,
              47.074865
            ],
            [
              8.712414,
              47.073022
            ],
            [
              8.73026,
              47.06997
            ],
            [
              8.747579,
              47.065738
            ],
            [
              8.764202,
              47.060368
            ],
            [
              8.779968,
              47.053912
            ],
            [
              8.794726,
              47.046432
            ],
            [
              8.808333,
              47.038001
            ],
            [
              8.820657,
              47.028701
            ],
            [
              8.83158,
              47.018621
            ],
            [
              8.840997,
              47.007858
            ],
            [
              8.848818,
              46.996518
            ],
            [
              8.854968,
              46.984709
            ],
            [
              8.85939,
              46.972545
            ],
            [
              8.862042,
              46.960144
            ],
            [
              8.862899,
              46.947625
            ],
            [
              8.861955,
              46.93511
            ],
            [
              8.859219,
              46.922718
            ],
            [
              8.85472,
              46.910568
            ],
            [
              8.848502,
              46.898778
            ],
            [
              8.840625,
              46.88746
            ],
            [
              8.831167,
              46.876724
            ],
            [
              8.820219,
              46.866673
            ],
            [
              8.807886,
              46.857402
            ],
            [
              8.794288,
              46.849
            ],
            [
              8.779556,
              46.841549
            ],
            [
              8.763831,
              46.83512
            ],
            [
              8.747263,
              46.829773
            ],
            [
              8.730012,
              46.82556
            ],
            [
              8.712243,
              46.822522
            ],
            [
              8.694126,
              46.820688
            ],
            [
              8.675833,
              46.820074
            ],
            [
              8.657541,
              46.820688
            ],
            [
              8.639424,
              46.822522
            ],
            [
              8.621654,
              46.82556
            ],
            [
              8.604404,
              46.829773
            ],
            [
              8.587836,
              46.83512
            ],
            [
              8.572111,
              46.841549
            ],
            [
              8.557378,
              46.849
            ],
            [
              8.54378,
              46.857402
            ],
            [
              8.531448,
              46.866673
            ],
            [
              8.520499,
              46.876724
            ],
            [
              8.511041,
              46.88746
            ],
            [
              8.503165,
              46.898778
            ],
            [
              8.496946,
              46.910568
            ],
            [
              8.492447,
              46.922718
            ],
            [
              8.489712,
              46.93511
            ],
            [
              8.488767,
              46.947625
            ],
            [
              8.489625,
              46.960144
            ],
            [
              8.492276,
              46.972545
            ],
            [
              8.496698,
              46.984709
            ],
            [
              8.502849,
              46.996518
            ],
            [
              8.51067,
              47.007858
            ],
            [
              8.520087,
              47.018621
            ],
            [
              8.53101,
              47.028701
            ],
            [
              8.543334,
              47.038001
            ],
            [
              8.55694,
              47.046432
            ],
            [
              8.571698,
              47.053912
            ],
            [
              8.587465,
              47.060368
            ],
            [
              8.604088,
              47.065738
            ],
            [
              8.621407,
              47.06997
            ],
            [
              8.639253,
              47.073022
            ],
            [
              8.657454,
              47.074865
            ],
            [
              8.675833,
              47.075481
            ]
          ]
        ]
      },
      "properties": {
        "id": "LSR39C",
        "notam": null,
        "on_chart": true,
        "valid_from_utc": "2026-10-05T07:00:00+00:00",
        "valid_to_utc": "2026-10-05T09:00:00+00:00",
        "lower": {
          "raw": "2750m / 9000ft",
          "meters": 2750,
          "feet": 9000,
          "flight_level": null,
          "gnd": false
        },
        "upper": {
          "raw": "FL130",
          "meters": 3962,
          "feet": 13000,
          "flight_level": 130,
          "gnd": false
        },
        "center": {
          "lat": 46.947778,
          "lon": 8.675833
        },
        "radius_m": 14200,
        "radius_candidates_m": {
          "table_km": 14200
        },
        "geometry_source": "circle",
        "text": "R-AREA LSR39C STOOS ACT. LOWER LIMIT 9000FT AMSL OR 2000FT GND WHICHEVER IS"
      }
    },
    {
      "type": "Feature",
      "geometry": {
        "type": "Polygon",
        "coordinates": [
          [
            [
              9.047778,
              47.577216
            ],
            [
              9.048261,
              47.5772
            ],
            [
              9.04874,
              47.577152
            ],
            [
              9.04921,
              47.577073
            ],
            [
              9.049665,
              47.576963
            ],
            [
              9.050103,
              47.576823
            ],
            [
              9.050518,
              47.576656
            ],
            [
              9.050907,
              47.576461
            ],
            [
              9.051266,
              47.576242
            ],
            [
              9.051591,
              47.576
            ],
            [
              9.051879,
              47.575737
            ],
            [
              9.052128,
              47.575457
            ],
            [
              9.052335,
              47.575162
            ],
            [
              9.052498,
              47.574855
            ],
            [
              9.052615,
              47.574538
            ],
            [
              9.052686,
              47.574215
            ],
            [
              9.05271,
              47.573889
            ],
            [
              9.052686,
              47.573563
            ],
            [
              9.052615,
              47.57324
            ],
            [
              9.052498,
              47.572923
            ],
            [
              9.052334,
              47.572615
            ],
            [
              9.052128,
              47.57232
            ],
            [
              9.051879,
              47.57204
            ],
            [
              9.05159,
              47.571778
            ],
            [
              9.051265,
              47.571536
            ],
            [
              9.050907,
              47.571317
            ],
            [
              9.050518,
              47.571122
            ],
            [
              9.050103,
              47.570954
            ],
            [
              9.049665,
              47.570815
            ],
            [
              9.049209,
              47.570705
            ],
            [
              9.04874,
              47.570625
            ],
            [
              9.048261,
              47.570577
            ],
            [
              9.047778,
              47.570561
            ],
            [
              9.047294,
              47.570577
            ],
            [
              9.046816,
              47.570625
            ],
            [
              9.046346,
              47.570705
            ],
            [
              9.04589,
              47.570815
            ],
            [
              9.045453,
              47.570954
            ],
            [
              9.045038,
              47.571122
            ],
            [
              9.044649,
              47.571317
            ],
            [
              9.04429,
              47.571536
            ],
            [
              9.043965,
              47.571778
            ],
            [
              9.043677,
              47.57204
            ],
            [
              9.043428,
              47.57232
            ],
            [
              9.043221,
              47.572615
            ],
            [
              9.043058,
              47.572923
            ],
            [
              9.04294,
              47.57324
            ],
            [
              9.042869,
              47.573563
            ],
            [
              9.042846,
              47.573889
            ],
            [
              9.042869,
              47.574215
            ],
            [
              9.04294,
              47.574538
            ],
            [
              9.043058,
              47.574855
            ],
            [
              9.043221,
              47.575162
            ],
            [
              9.043428,
              47.575457
            ],
            [
              9.043677,
              47.575737
            ],
            [
              9.043965,
              47.576
            ],
            [
              9.04429,
              47.576242
            ],
            [
              9.044649,
              47.576461
            ],
            [
              9.045037,
              47.576656
            ],
            [
              9.045453,
              47.576823
            ],
            [
              9.04589,
              47.576963
            ],
            [
              9.046346,
              47.577073
            ],
            [
              9.046815,
              47.577152
            ],
            [
              9.047294,
              47.5772
            ],
            [
              9.047778,
              47.577216
            ]
          ]
        ]
      },
      "properties": {
        "id": "W2563/26",
        "notam": "W2563/26",
        "on_chart": true,
        "valid_from_utc": "2026-10-05T21:30:00+00:00",
        "valid_to_utc": "2026-10-05T23:59:00+00:00",
        "lower": {
          "raw": "GND",
          "meters": 0,
          "feet": 0,
          "flight_level": null,
          "gnd": true
        },
        "upper": {
          "raw": "FL195",
          "meters": 5944,
          "feet": 19500,
          "flight_level": 195,
          "gnd": false
        },
        "center": {
          "lat": 47.573889,
          "lon": 9.047778
        },
        "radius_m": 370,
        "radius_candidates_m": {
          "table_km": 300,
          "text_0_km": 200,
          "text_1_nm": 370
        },
        "geometry_source": "circle",
        "text": "TEMPO R-AREA AMLIKON ESTABLISHED RADIUS 0.2KM (473426N0090252E RADIUS 0.2NM). WX MEASUREMENTS BY REMOTELY PILOTED AERIAL SYSTEM WILL TAKE PLACE. WHITE BLINKING PSN LGT WITH VISUAL RANGE OF AT LEAST 3KM. ENTRY PROHIBITED WHEN ACT EXC HEL EMERG MEDICAL SER (HEMS). FOR INFO ON ACT AND HEMS CTC TEL +41 79 772 93 32 AND REFER TO WWW.MAP.GEO.ADMIN.CH TOPIC AVIATION UAS AWARENESS MAP."
      }
    },
    {
      "type": "Feature",
      "geometry": {
        "type": "Polygon",
        "coordinates": [
          [
            [
              7.005,
              46.383603
            ],
            [
              7.00642,
              46.383554
            ],
            [
              7.007826,
              46.383411
            ],
            [
              7.009204,
              46.383172
            ],
            [
              7.010543,
              46.382842
            ],
            [
              7.011828,
              46.382423
            ],
            [
              7.013047,
              46.381918
            ],
            [
              7.014188,
              46.381334
            ],
            [
              7.015241,
              46.380676
            ],
            [
              7.016196,
              46.379949
            ],
            [
              7.017042,
              46.379161
            ],
            [
              7.017773,
              46.37832
            ],
            [
              7.01838,
              46.377434
            ],
            [
              7.018859,
              46.376511
            ],
            [
              7.019204,
              46.375559
            ],
            [
              7.019412,
              46.37459
            ],
            [
              7.019481,
              46.37361
            ],
            [
              7.019411,
              46.372631
            ],
            [
              7.019203,
              46.371661
            ],
            [
              7.018857,
              46.37071
            ],
            [
              7.018378,
              46.369787
            ],
            [
              7.01777,
              46.3689
            ],
            [
              7.01704,
              46.36806
            ],
            [
              7.016193,
              46.367272
            ],
            [
              7.015239,
              46.366546
            ],
            [
              7.014186,
              46.365887
            ],
            [
              7.013044,
              46.365303
            ],
            [
              7.011825,
              46.364799
            ],
            [
              7.010541,
              46.36438
            ],
            [
              7.009203,
              46.36405
            ],
            [
              7.007825,
              46.363812
            ],
            [
              7.006419,
              46.363668
            ],
            [
              7.005,
              46.36362
            ],
            [
              7.003581,
              46.363668
            ],
            [
              7.002175,
              46.363812
            ],
            [
              7.000797,
              46.36405
            ],
            [
              6.999459,
              46.36438
            ],
            [
              6.998175,
              46.364799
            ],
            [
              6.996956,
              46.365303
            ],
            [
              6.995814,
              46.365887
            ],
            [
              6.994761,
              46.366546
            ],
            [
              6.993807,
              46.367272
            ],
            [
              6.99296,
              46.36806
            ],
            [
              6.99223,
              46.3689
            ],
            [
              6.991622,
              46.369787
            ],
            [
              6.991143,
              46.37071
            ],
            [
              6.990797,
              46.371661
            ],
            [
              6.990589,
              46.372631
            ],
            [
              6.990519,
              46.37361
            ],
            [
              6.990588,
              46.37459
            ],
            [
              6.990796,
              46.375559
            ],
            [
              6.991141,
              46.376511
            ],
            [
              6.99162,
              46.377434
            ],
            [
              6.992227,
              46.37832
            ],
            [
              6.992958,
              46.379161
            ],
            [
              6.993804,
              46.379949
            ],
            [
              6.994759,
              46.380676
            ],
            [
              6.995812,
              46.381334
            ],
            [
              6.996953,
              46.381918
            ],
            [
              6.998172,
              46.382423
            ],
            [
              6.999457,
              46.382842
            ],
            [
              7.000796,
              46.383172
            ],
            [
              7.002174,
              46.383411
            ],
            [
              7.00358,
              46.383554
            ],
            [
              7.005,
              46.383603
            ]
          ]
        ]
      },
      "properties": {
        "id": "W2590/26",
        "notam": "W2590/26",
        "on_chart": true,
        "valid_from_utc": "2026-10-05T00:00:00+00:00",
        "valid_to_utc": "2026-10-05T23:59:00+00:00",
        "lower": {
          "raw": "GND",
          "meters": 0,
          "feet": 0,
          "flight_level": null,
          "gnd": true
        },
        "upper": {
          "raw": "2300m / 7650ft",
          "meters": 2300,
          "feet": 7650,
          "flight_level": null,
          "gnd": false
        },
        "center": {
          "lat": 46.373611,
          "lon": 7.005
        },
        "radius_m": 1111,
        "radius_candidates_m": {
          "table_km": 1100,
          "text_0_km": 1000,
          "text_1_nm": 1111
        },
        "geometry_source": "circle",
        "text": "HIGHLINE OBST ERECTED 3.9KM NNW HLP LEYSIN, BTN TOUR D AI AND TOUR DE MAYEN, RADIUS 1.0KM (462225N0070018E RADIUS 0.6NM). MARKED WITH WINDSOCKS AND RED OBST LGT. MAX ALT UP TO 186M AGL / 612FT AGL, 2319M AMSL / 7609FT AMSL. Version 1 - generated: 04.10.2026 13:31 UTC"
      }
    }
  ]
}