{
  "type": "FeatureCollection",
  "properties": {
    "dabs_date": "2026-10-06",
    "version": 1,
    "generated_utc": "2026-10-05T13:50:00+00:00"
  },
  "features": [
    {
      "type": "Feature",
      "geometry": {
        "type": "Polygon",
        "coordinates": [
          [
            [
              8.857222,
              47.060153
            ],
            [
              8.86188,
              47.059997
            ],
            [
              8.866494,
              47.059531
            ],
            [
              8.871018,
              47.058758
            ],
            [
              8.875408,
              47.057687
            ],
            [
              8.879624,
              47.056328
            ],
            [
              8.883623,
              47.054694
            ],
            [
              8.887368,
              47.0528
            ],
            [
              8.890822,
              47.050666
            ],
            [
              8.893951,
              47.048311
            ],
            [
              8.896727,
              47.045758
            ],
            [
              8.899122,
              47.043032
            ],
            [
              8.901113,
              47.040159
            ],
            [
              8.902681,
              47.037167
            ],
            [
              8.903811,
              47.034084
            ],
            [
              8.904493,
              47.030941
            ],
            [
              8.904718,
              47.027768
            ],
            [
              8.904487,
              47.024595
            ],
            [
              8.9038,
              47.021452
            ],
            [
              8.902665,
              47.018371
            ],
            [
              8.901093,
              47.01538
            ],
            [
              8.899098,
              47.012508
            ],
            [
              8.896701,
              47.009784
            ],
            [
              8.893923,
              47.007233
            ],
            [
              8.890793,
              47.00488
            ],
            [
              8.887339,
              47.002747
            ],
            [
              8.883596,
              47.000855
            ],
            [
              8.8796,
              46.999223
            ],
            [
              8.875388,
              46.997865
            ],
            [
              8.871002,
              46.996795
            ],
            [
              8.866483,
              46.996024
            ],
            [
              8.861875,
              46.995558
            ],
            [
              8.857222,
              46.995402
            ],
            [
              8.85257,
              46.995558
            ],
            [
              8.847962,
              46.996024
            ],
            [
              8.843443,
              46.996795
            ],
            [
              8.839056,
              46.997865
            ],
            [
              8.834845,
              46.999223
            ],
            [
              8.830848,
              47.000855
            ],
            [
              8.827105,
              47.002747
            ],
            [
              8.823652,
              47.00488
            ],
            [
              8.820521,
              47.007233
            ],
            [
              8.817744,
              47.009784
            ],
            [
              8.815346,
              47.012508
            ],
            [
              8.813352,
              47.01538
            ],
            [
              8.811779,
              47.018371
            ],
            [
              8.810644,
              47.021452
            ],
            [
              8.809957,
              47.024595
            ],
            [
              8.809726,
              47.027768
            ],
            [
              8.809952,
              47.030941
            ],
            [
              8.810633,
              47.034084
            ],
            [
              8.811763,
              47.037167
            ],
            [
              8.813331,
              47.040159
            ],
            [
              8.815322,
              47.043032
            ],
            [
              8.817717,
              47.045758
            ],
            [
              8.820493,
              47.048311
            ],
            [
              8.823623,
              47.050666
            ],
            [
              8.827077,
              47.0528
            ],
            [
              8.830821,
              47.054694
            ],
            [
              8.834821,
              47.056328
            ],
            [
              8.839036,
              47.057687
            ],
            [
              8.843427,
              47.058758
            ],
            [
              8.847951,
              47.059531
            ],
            [
              8.852564,
              47.059997
            ],
            [
              8.857222,
              47.060153
            ]
          ]
        ]
      },
      "properties": {
        "id": "LSD12",
        "notam": null,
        "on_chart": true,
        "valid_from_utc": "2026-10-06T06:00:00+00:00",
        "valid_to_utc": "2026-10-06T10:00:00+00:00",
        "lower": {
          "raw": "GND",
          "meters": 0,
          "feet": 0,
          "flight_level": null,
          "gnd": true
        },
        "upper": {
          "raw": "1800m / 5900ft",
          "meters": 1800,
          "feet": 5900,
          "flight_level": null,
          "gnd": false
        },
        "center": {
          "lat": 47.027778,
          "lon": 8.857222
        },
        "radius_m": 3600,
        "radius_candidates_m": {
          "table_km": 3600
        },
        "geometry_source": "circle",
        "text": "D-AREA LSD12 SIHLTAL ACT."
      }
    },
    {
      "type": "Feature",
      "geometry": {
        "type": "Polygon",
        "coordinates": [
          [
            [
              9.325556,
              47.399156
            ],
            [
              9.35733,
              47.398095
            ],
            [
              9.388795,
              47.394923
            ],
            [
              9.419643,
              47.389669
            ],
            [
              9.449575,
              47.382386
            ],
            [
              9.478298,
              47.373145
            ],
            [
              9.505534,
              47.362034
            ],
            [
              9.531019,
              47.349164
            ],
            [
              9.554506,
              47.334658
            ],
            [
              9.575769,
              47.318658
            ],
            [
              9.594604,
              47.301319
            ],
            [
              9.610829,
              47.282809
            ],
            [
              9.624291,
              47.263308
            ],
            [
              9.634863,
              47.243005
            ],
            [
              9.642445,
              47.222095
            ],
            [
              9.646969,
              47.200781
            ],
            [
              9.648393,
              47.179269
            ],
            [
              9.646708,
              47.157765
            ],
            [
              9.641935,
              47.136477
            ],
            [
              9.634122,
              47.115609
            ],
            [
              9.623348,
              47.095362
            ],
            [
              9.60972,
              47.07593
            ],
            [
              9.593371,
              47.057499
            ],
            [
              9.574461,
              47.040245
            ],
            [
              9.553172,
              47.024333
            ],
            [
              9.529711,
              47.009916
            ],
            [
              9.504302,
              46.99713
            ],
            [
              9.477189,
              46.986098
            ],
            [
              9.448631,
              46.976925
            ],
            [
              9.418902,
              46.969699
            ],
            [
              9.388284,
              46.964487
            ],
            [
              9.35707,
              46.96134
            ],
            [
              9.325556,
              46.960288
            ],
            [
              9.294041,
              46.96134
            ],
            [
              9.262827,
              46.964487
            ],
            [
              9.232209,
              46.969699
            ],
            [
              9.20248,
              46.976925
            ],
            [
              9.173922,
              46.986098
            ],
            [
              9.14681,
              46.99713
            ],
            [
              9.121401,
              47.009916
            ],
            [
              9.097939,
              47.024333
            ],
            [
              9.07665,
              47.040245
            ],
            [
              9.05774,
              47.057499
            ],
            [
              9.041391,
              47.07593
            ],
            [
              9.027763,
              47.095362
            ],
            [
              9.016989,
              47.115609
            ],
            [
              9.009176,
              47.136477
            ],
            [
              9.004403,
              47.157765
            ],
            [
              9.002718,
              47.179269
            ],
            [
              9.004142,
              47.200781
            ],
            [
              9.008666,
              47.222095
            ],
            [
              9.016248,
              47.243005
            ],
            [
              9.02682,
              47.263308
            ],
            [
              9.040282,
              47.282809
            ],
            [
              9.056507,
              47.301319
            ],
            [
              9.075342,
              47.318658
            ],
            [
              9.096605,
              47.334658
            ],
            [
              9.120092,
              47.349164
            ],
            [
              9.145577,
              47.362034
            ],
            [
              9.172813,
              47.373145
            ],
            [
              9.201536,
              47.382386
            ],
            [
              9.231468,
              47.389669
            ],
            [
              9.262316,
              47.394923
            ],
            [
              9.293781,
              47.398095
            ],
            [
              9.325556,
              47.399156
            ]
          ]
        ]
      },
      "properties": {
        "id": "LSR3",
        "notam": "W2593/26",
        "on_chart": true,
        "valid_from_utc": "2026-10-06T11:45:00+00:00",
        "valid_to_utc": "2026-10-06T12:25:00+00:00",
        "lower": {
          "raw": "FL100",
          "meters": 3048,
          "feet": 10000,
          "flight_level": 100,
          "gnd": false
        },
        "upper": {
          "raw": "FL130",
          "meters": 3962,
          "feet": 13000,
          "flight_level": 130,
          "gnd": false
        },
        "center": {
          "lat": 47.179722,
          "lon": 9.325556
        },
        "radius_m": 24400,
        "radius_candidates_m": {
          "table_km": 24400
        },
        "geometry_source": "circle",
        "text": "R-AREA LSR3 SPEER ACT."
      }
    },
    {
      "type": "Feature",
      "geometry": {
        "type": "Polygon",
        "coordinates": [
          [
            [
              9.128611,
              46.538445
            ],
            [
              9.134762,
              46.538237
            ],
            [
              9.140854,
              46.537615
            ],
            [
              9.146827,
              46.536585
            ],
            [
              9.152625,
              46.535157
            ],
            [
              9.158191,
              46.533344
            ],
            [
              9.163471,
              46.531165
            ],
            [
              9.168415,
              46.52864
            ],
            [
              9.172976,
              46.525793
            ],
            [
              9.177108,
              46.522653
            ],
            [
              9.180772,
              46.519248
            ],
            [
              9.183933,
              46.515613
            ],
            [
              9.186561,
              46.511783
            ],
            [
              9.18863,
              46.507793
            ],
            [
              9.190121,
              46.503683
            ],
            [
              9.19102,
              46.499492
            ],
            [
              9.191317,
              46.495261
            ],
            [
              9.19101,
              46.49103
            ],
            [
              9.190102,
              46.48684
            ],
            [
              9.188603,
              46.482731
            ],
            [
              9.186526,
              46.478744
            ],
            [
              9.183892,
              46.474915
            ],
            [
              9.180726,
              46.471283
            ],
            [
              9.177059,
              46.467882
            ],
            [
              9.172926,
              46.464745
            ],
            [
              9.168367,
              46.461902
            ],
            [
              9.163425,
              46.45938
            ],
            [
              9.15815,
              46.457204
            ],
            [
              9.15259,
              46.455394
            ],
            [
              9.1468,
              46.453968
            ],
            [
              9.140835,
              46.452939
            ],
            [
              9.134752,
              46.452318
            ],
            [
              9.128611,
              46.45211
            ],
            [
              9.12247,
              46.452318
            ],
            [
              9.116387,
              46.452939
            ],
            [
              9.110422,
              46.453968
            ],
            [
              9.104632,
              46.455394
            ],
            [
              9.099073,
              46.457204
            ],
            [
              9.093797,
              46.45938
            ],
            [
              9.088856,
              46.461902
            ],
            [
              9.084296,
              46.464745
            ],
            [
              9.080163,
              46.467882
            ],
            [
              9.076496,
              46.471283
            ],
            [
              9.07333,
              46.474915
            ],
            [
              9.070696,
              46.478744
            ],
            [
              9.06862,
              46.482731
            ],
            [
              9.06712,
              46.48684
            ],
            [
              9.066212,
              46.49103
            ],
            [
              9.065906,
              46.495261
            ],
            [
              9.066203,
              46.499492
            ],
            [
              9.067101,
              46.503683
            ],
            [
              9.068592,
              46.507793
            ],
            [
              9.070661,
              46.511783
            ],
            [
              9.073289,
              46.515613
            ],
            [
              9.07645,
              46.519248
            ],
            [
              9.080115,
              46.522653
            ],
            [
              9.084247,
              46.525793
            ],
            [
              9.088807,
              46.52864
            ],
            [
              9.093751,
              46.531165
            ],
            [
              9.099031,
              46.533344
            ],
            [
              9.104597,
              46.535157
            ],
            [
              9.110395,
              46.536585
            ],
            [
              9.116368,
              46.537615
            ],
            [
              9.12246,
              46.538237
            ],
            [
              9.128611,
              46.538445
            ]
          ]
        ]
      },
      "properties": {
        "id": "LSR9",
        "notam": "W2603/26",
        "on_chart": true,
        "valid_from_utc": "2026-10-06T06:00:00+00:00",
        "valid_to_utc": "2026-10-06T20:00:00+00:00",
        "lower": {
          "raw": "GND",
          "meters": 0,
          "feet": 0,
          "flight_level": null,
          "gnd": true
        },
        "upper": {
          "raw": "7750m / 25500ft",
          "meters": 7750,
          "feet": 25500,
          "flight_level": null,
          "gnd": false
        },
        "center": {
          "lat": 46.495278,
          "lon": 9.128611
        },
        "radius_m": 4800,
        "radius_candidates_m": {
          "table_km": 4800
        },
        "geometry_source": "circle",
        "text": "R-AREA LSR9 HINTERRHEIN ACT DUE TO FRNG."
      }
    },
    {
      "type": "Feature",
      "geometry": {
        "type": "Polygon",
        "coordinates": [
          [
            [
              9.951667,
              46.761706
            ],
            [
              9.963119,
              46.76132
            ],
            [
              9.97446,
              46.760166
            ],
            [
              9.985581,
              46.758255
            ],
            [
              9.996374,
              46.755605
            ],
            [
              10.006735,
              46.752242
            ],
            [
              10.016563,
              46.748199
            ],
            [
              10.025764,
              46.743514
            ],
            [
              10.034249,
              46.738233
            ],
            [
              10.041936,
              46.732408
            ],
            [
              10.048752,
              46.726093
            ],
            [
              10.05463,
              46.719351
            ],
            [
              10.059514,
              46.712246
            ],
            [
              10.063358,
              46.704847
            ],
            [
              10.066125,
              46.697225
            ],
            [
              10.067789,
              46.689453
            ],
            [
              10.068334,
              46.681607
            ],
            [
              10.067755,
              46.673763
            ],
            [
              10.066059,
              46.665995
            ],
            [
              10.063262,
              46.658378
            ],
            [
              10.059392,
              46.650986
            ],
            [
              10.054486,
              46.64389
            ],
            [
              10.048592,
              46.637158
            ],
            [
              10.041767,
              46.630855
            ],
            [
              10.034076,
              46.625041
            ],
            [
              10.025595,
              46.619771
            ],
            [
              10.016404,
              46.615098
            ],
            [
              10.006591,
              46.611065
            ],
            [
              9.996252,
              46.607711
            ],
            [
              9.985485,
              46.605069
            ],
            [
              9.974394,
              46.603163
            ],
            [
              9.963085,
              46.602012
            ],
            [
              9.951667,
              46.601627
            ],
            [
              9.940248,
              46.602012
            ],
            [
              9.928939,
              46.603163
            ],
            [
              9.917848,
              46.605069
            ],
            [
              9.907081,
              46.607711
            ],
            [
              9.896742,
              46.611065
            ],
            [
              9.88693,
              46.615098
            ],
            [
              9.877739,
              46.619771
            ],
            [
              9.869257,
              46.625041
            ],
            [
              9.861567,
              46.630855
            ],
            [
              9.854741,
              46.637158
            ],
            [
              9.848847,
              46.64389
            ],
            [
              9.843942,
              46.650986
            ],
            [
              9.840071,
              46.658378
            ],
            [
              9.837275,
              46.665995
            ],
            [
              9.835578,
              46.673763
            ],
            [
              9.835,
              46.681607
            ],
            [
              9.835545,
              46.689453
            ],
            [
              9.837208,
              46.697225
            ],
            [
              9.839975,
              46.704847
            ],
            [
              9.843819,
              46.712246
            ],
            [
              9.848704,
              46.719351
            ],
            [
              9.854582,
              46.726093
            ],
            [
              9.861397,
              46.732408
            ],
            [
              9.869084,
              46.738233
            ],
            [
              9.877569,
              46.743514
            ],
            [
              9.88677,
              46.748199
            ],
            [
              9.896598,
              46.752242
            ],
            [
              9.906959,
              46.755605
            ],
            [
              9.917752,
              46.758255
            ],
            [
              9.928873,
              46.760166
            ],
            [
              9.940214,
              46.76132
            ],
            [
              9.951667,
              46.761706
            ]
          ]
        ]
      },
      "properties": {
        "id": "LSR11",
        "notam": null,
        "on_chart": true,
        "valid_from_utc": "2026-10-06T06:30:00+00:00",
        "valid_to_utc": "2026-10-06T09:30:00+00:00",
        "lower": {
          "raw": "GND",
          "meters": 0,
          "feet": 0,
          "flight_level": null,
          "gnd": true
        },
        "upper": {
          "raw": "5000m / 16400ft",
          "meters": 5000,
          "feet": 16400,
          "flight_level": null,
          "gnd": false
        },
        "center": {
          "lat": 46.681667,
          "lon": 9.951667
        },
        "radius_m": 8900,
        "radius_candidates_m": {
          "table_km": 8900
        },
        "geometry_source": "circle",
        "text": "R-AREA LSR11 S-CHANF ACT."
      }
    },
    {
      "type": "Feature",
      "geometry": {
        "type": "Polygon",
        "coordinates": [
          [
            [
              9.999722,
              46.676032
            ],
            [
              10.010385,
              46.675673
            ],
            [
              10.020946,
              46.674596
            ],
            [
              10.031301,
              46.672814
            ],
            [
              10.04135,
              46.670343
            ],
            [
              10.050997,
              46.667207
            ],
            [
              10.060149,
              46.663437
            ],
            [
              10.068716,
              46.659068
            ],
            [
              10.076618,
              46.654144
            ],
            [
              10.083776,
              46.648712
            ],
            [
              10.090123,
              46.642823
            ],
            [
              10.095597,
              46.636536
            ],
            [
              10.100146,
              46.62991
            ],
            [
              10.103726,
              46.62301
            ],
            [
              10.106304,
              46.615902
            ],
            [
              10.107854,
              46.608654
            ],
            [
              10.108363,
              46.601337
            ],
            [
              10.107825,
              46.594022
            ],
            [
              10.106246,
              46.586777
            ],
            [
              10.103643,
              46.579674
            ],
            [
              10.10004,
              46.57278
            ],
            [
              10.095472,
              46.566162
            ],
            [
              10.089984,
              46.559884
            ],
            [
              10.083629,
              46.554005
            ],
            [
              10.076468,
              46.548582
            ],
            [
              10.06857,
              46.543668
            ],
            [
              10.060011,
              46.539309
            ],
            [
              10.050873,
              46.535548
            ],
            [
              10.041244,
              46.53242
            ],
            [
              10.031217,
              46.529955
            ],
            [
              10.020888,
              46.528178
            ],
            [
              10.010356,
              46.527104
            ],
            [
              9.999722,
              46.526745
            ],
            [
              9.989088,
              46.527104
            ],
            [
              9.978556,
              46.528178
            ],
            [
              9.968227,
              46.529955
            ],
            [
              9.9582,
              46.53242
            ],
            [
              9.948572,
              46.535548
            ],
            [
              9.939434,
              46.539309
            ],
            [
              9.930875,
              46.543668
            ],
            [
              9.922977,
              46.548582
            ],
            [
              9.915815,
              46.554005
            ],
            [
              9.90946,
              46.559884
            ],
            [
              9.903972,
              46.566162
            ],
            [
              9.899404,
              46.57278
            ],
            [
              9.895801,
              46.579674
            ],
            [
              9.893198,
              46.586777
            ],
            [
              9.89162,
              46.594022
            ],
            [
              9.891082,
              46.601337
            ],
            [
              9.89159,
              46.608654
            ],
            [
              9.893141,
              46.615902
            ],
            [
              9.895718,
              46.62301
            ],
            [
              9.899299,
              46.62991
            ],
            [
              9.903848,
              46.636536
            ],
            [
              9.909322,
              46.642823
            ],
            [
              9.915669,
              46.648712
            ],
            [
              9.922827,
              46.654144
            ],
            [
              9.930728,
              46.659068
            ],
            [
              9.939296,
              46.663437
            ],
            [
              9.948447,
              46.667207
            ],
            [
              9.958094,
              46.670343
            ],
            [
              9.968144,
              46.672814
            ],
            [
              9.978499,
              46.674596
            ],
            [
              9.989059,
              46.675673
            ],
            [
              9.999722,
              46.676032
            ]
          ]
        ]
      },
      "properties": {
        "id": "LSR11A",
        "notam": null,
        "on_chart": true,
        "valid_from_utc": "2026-10-06T06:30:00+00:00",
        "valid_to_utc": "2026-10-06T09:30:00+00:00",
        "lower": {
          "raw": "2150m / 7000ft",
          "meters": 2150,
          "feet": 7000,
          "flight_level": null,
          "gnd": false
        },
        "upper": {
          "raw": "5000m / 16400ft",
          "meters": 5000,
          "feet": 16400,
          "flight_level": null,
          "gnd": false
        },
        "center": {
          "lat": 46.601389,
          "lon": 9.999722
        },
        "radius_m": 8300,
        "radius_candidates_m": {
          "table_km": 8300
        },
        "geometry_source": "circle",
        "text": "R-AREA LSR11A S-CHANF ACT."
      }
    },
    {
      "type": "Feature",
      "geometry": {
        "type": "Polygon",
        "coordinates": [
          [
            [
              8.043889,
              46.267408
            ],
            [
              8.054982,
              46.26703
            ],
            [
              8.065969,
              46.265902
            ],
            [
              8.076741,
              46.264034
            ],
            [
              8.087196,
              46.261444
            ],
            [
              8.097233,
              46.258157
            ],
            [
              8.106753,
              46.254204
            ],
            [
              8.115666,
              46.249625
            ],
            [
              8.123886,
              46.244463
            ],
            [
              8.131333,
              46.238769
            ],
            [
              8.137935,
              46.232596
            ],
            [
              8.14363,
              46.226006
            ],
            [
              8.148362,
              46.219061
            ],
            [
              8.152086,
              46.211828
            ],
            [
              8.154767,
              46.204377
            ],
            [
              8.156379,
              46.19678
            ],
            [
              8.156908,
              46.189111
            ],
            [
              8.156348,
              46.181443
            ],
            [
              8.154706,
              46.173849
            ],
            [
              8.151997,
              46.166404
            ],
            [
              8.148248,
              46.159178
            ],
            [
              8.143496,
              46.152241
            ],
            [
              8.137787,
              46.14566
            ],
            [
              8.131175,
              46.139498
            ],
            [
              8.123725,
              46.133814
            ],
            [
              8.115509,
              46.128663
            ],
            [
              8.106605,
              46.124095
            ],
            [
              8.097099,
              46.120152
            ],
            [
              8.087083,
              46.116873
            ],
            [
              8.076652,
              46.11429
            ],
            [
              8.065907,
              46.112427
            ],
            [
              8.054951,
              46.111302
            ],
            [
              8.043889,
              46.110926
            ],
            [
              8.032827,
              46.111302
            ],
            [
              8.021871,
              46.112427
            ],
            [
              8.011126,
              46.11429
            ],
            [
              8.000695,
              46.116873
            ],
            [
              7.990679,
              46.120152
            ],
            [
              7.981173,
              46.124095
            ],
            [
              7.972269,
              46.128663
            ],
            [
              7.964053,
              46.133814
            ],
            [
              7.956603,
              46.139498
            ],
            [
              7.949991,
              46.14566
            ],
            [
              7.944282,
              46.152241
            ],
            [
              7.93953,
              46.159178
            ],
            [
              7.935781,
              46.166404
            ],
            [
              7.933072,
              46.173849
            ],
            [
              7.93143,
              46.181443
            ],
            [
              7.93087,
              46.189111
            ],
            [
              7.931398,
              46.19678
            ],
            [
              7.933011,
              46.204377
            ],
            [
              7.935692,
              46.211828
            ],
            [
              7.939416,
              46.219061
            ],
            [
              7.944148,
              46.226006
            ],
            [
              7.949843,
              46.232596
            ],
            [
              7.956445,
              46.238769
            ],
            [
              7.963892,
              46.244463
            ],
            [
              7.972111,
              46.249625
            ],
            [
              7.981024,
              46.254204
            ],
            [
              7.990545,
              46.258157
            ],
            [
              8.000581,
              46.261444
            ],
            [
              8.011036,
              46.264034
            ],
            [
              8.021809,
              46.265902
            ],
            [
              8.032795,
              46.26703
            ],
            [
              8.043889,
              46.267408
            ]
          ]
        ]
      },
      "properties": {
        "id": "LSR12",
        "notam": "W2626/26",
        "on_chart": true,
        "valid_from_utc": "2026-10-06T07:00:00+00:00",
        "valid_to_utc": "2026-10-06T20:00:00+00:00",
        "lower": {
          "raw": "GND",
          "meters": 0,
          "feet": 0,
          "flight_level": null,
          "gnd": true
        },
        "upper": {
          "raw": "6850m / 22500ft",
          "meters": 6850,
          "feet": 22500,
          "flight_level": null,
          "gnd": false
        },
        "center": {
          "lat": 46.189167,
          "lon": 8.043889
        },
        "radius_m": 8700,
        "radius_candidates_m": {
          "table_km": 8700
        },
        "geometry_source": "circle",
        "text": "R-AREA LSR12 SIMPLON ACT DUE TO FRNG."
      }
    },
    {
      "type": "Feature",
      "geometry": {
        "type": "Polygon",
        "coordinates": [
          [
            [
              9.033333,
              46.159942
            ],
            [
              9.038042,
              46.159781
            ],
            [
              9.042705,
              46.159302
            ],
            [
              9.047278,
              46.158508
            ],
            [
              9.051717,
              46.157407
            ],
            [
              9.055978,
              46.15601
            ],
            [
              9.06002,
              46.154331
            ],
            [
              9.063805,
              46.152384
            ],
            [
              9.067297,
              46.150191
            ],
            [
              9.070461,
              46.14777
            ],
            [
              9.073266,
              46.145146
            ],
            [
              9.075687,
              46.142345
            ],
            [
              9.0777,
              46.139392
            ],
            [
              9.079285,
              46.136317
            ],
            [
              9.080427,
              46.133149
            ],
            [
              9.081116,
              46.129918
            ],
            [
              9.081344,
              46.126657
            ],
            [
              9.08111,
              46.123395
            ],
            [
              9.080416,
              46.120165
            ],
            [
              9.079269,
              46.116998
            ],
            [
              9.07768,
              46.113924
            ],
            [
              9.075663,
              46.110973
            ],
            [
              9.07324,
              46.108173
            ],
            [
              9.070432,
              46.105551
            ],
            [
              9.067268,
              46.103133
            ],
            [
              9.063777,
              46.100941
            ],
            [
              9.059993,
              46.098997
            ],
            [
              9.055954,
              46.097319
            ],
            [
              9.051696,
              46.095923
            ],
            [
              9.047262,
              46.094824
            ],
            [
              9.042694,
              46.094031
            ],
            [
              9.038036,
              46.093552
            ],
            [
              9.033333,
              46.093392
            ],
            [
              9.02863,
              46.093552
            ],
            [
              9.023972,
              46.094031
            ],
            [
              9.019405,
              46.094824
            ],
            [
              9.014971,
              46.095923
            ],
            [
              9.010713,
              46.097319
            ],
            [
              9.006673,
              46.098997
            ],
            [
              9.00289,
              46.100941
            ],
            [
              8.999399,
              46.103133
            ],
            [
              8.996234,
              46.105551
            ],
            [
              8.993427,
              46.108173
            ],
            [
              8.991003,
              46.110973
            ],
            [
              8.988987,
              46.113924
            ],
            [
              8.987398,
              46.116998
            ],
            [
              8.98625,
              46.120165
            ],
            [
              8.985556,
              46.123395
            ],
            [
              8.985322,
              46.126657
            ],
            [
              8.985551,
              46.129918
            ],
            [
              8.986239,
              46.133149
            ],
            [
              8.987382,
              46.136317
            ],
            [
              8.988967,
              46.139392
            ],
            [
              8.990979,
              46.142345
            ],
            [
              8.9934,
              46.145146
            ],
            [
              8.996206,
              46.14777
            ],
            [
              8.99937,
              46.150191
            ],
            [
              9.002861,
              46.152384
            ],
            [
              9.006646,
              46.154331
            ],
            [
              9.010689,
              46.15601
            ],
            [
              9.01495,
              46.157407
            ],
            [
              9.019388,
              46.158508
            ],
            [
              9.023961,
              46.159302
            ],
            [
              9.028625,
              46.159781
            ],
            [
              9.033333,
              46.159942
            ]
          ]
        ]
      },
      "properties": {
        "id": "LSR16",
        "notam": "W2617/26",
        "on_chart": true,
        "valid_from_utc": "2026-10-06T06:00:00+00:00",
        "valid_to_utc": "2026-10-06T15:30:00+00:00",
        "lower": {
          "raw": "GND",
          "meters": 0,
          "feet": 0,
          "flight_level": null,
          "gnd": true
        },
        "upper": {
          "raw": "3200m / 10500ft",
          "meters": 3200,
          "feet": 10500,
          "flight_level": null,
          "gnd": false
        },
        "center": {
          "lat": 46.126667,
          "lon": 9.033333
        },
        "radius_m": 3700,
        "radius_candidates_m": {
          "table_km": 3700
        },
        "geometry_source": "circle",
        "text": "R-AREA LSR16 ISONE 1 ACT DUE TO MIL UAV."
      }
    },
    {
      "type": "Feature",
      "geometry": {
        "type": "Polygon",
        "coordinates": [
          [
            [
              8.994444,
              46.13116
            ],
            [
              8.997752,
              46.131047
            ],
            [
              9.001027,
              46.130711
            ],
            [
              9.004239,
              46.130153
            ],
            [
              9.007356,
              46.12938
            ],
            [
              9.010349,
              46.128398
            ],
            [
              9.013188,
              46.127218
            ],
            [
              9.015847,
              46.125851
            ],
            [
              9.018299,
              46.124309
            ],
            [
              9.020522,
              46.122608
            ],
            [
              9.022493,
              46.120765
            ],
            [
              9.024194,
              46.118796
            ],
            [
              9.025608,
              46.116722
            ],
            [
              9.026722,
              46.114561
            ],
            [
              9.027525,
              46.112335
            ],
            [
              9.028009,
              46.110065
            ],
            [
              9.02817,
              46.107773
            ],
            [
              9.028007,
              46.105481
            ],
            [
              9.02752,
              46.103211
            ],
            [
              9.026714,
              46.100986
            ],
            [
              9.025598,
              46.098826
            ],
            [
              9.024182,
              46.096752
            ],
            [
              9.02248,
              46.094784
            ],
            [
              9.020508,
              46.092941
            ],
            [
              9.018285,
              46.091241
            ],
            [
              9.015833,
              46.089701
            ],
            [
              9.013175,
              46.088335
            ],
            [
              9.010337,
              46.087155
            ],
            [
              9.007346,
              46.086175
            ],
            [
              9.004231,
              46.085402
            ],
            [
              9.001021,
              46.084845
            ],
            [
              8.997749,
              46.084508
            ],
            [
              8.994444,
              46.084395
            ],
            [
              8.99114,
              46.084508
            ],
            [
              8.987868,
              46.084845
            ],
            [
              8.984658,
              46.085402
            ],
            [
              8.981543,
              46.086175
            ],
            [
              8.978552,
              46.087155
            ],
            [
              8.975714,
              46.088335
            ],
            [
              8.973056,
              46.089701
            ],
            [
              8.970604,
              46.091241
            ],
            [
              8.968381,
              46.092941
            ],
            [
              8.966409,
              46.094784
            ],
            [
              8.964707,
              46.096752
            ],
            [
              8.963291,
              46.098826
            ],
            [
              8.962175,
              46.100986
            ],
            [
              8.961369,
              46.103211
            ],
            [
              8.960882,
              46.105481
            ],
            [
              8.960719,
              46.107773
            ],
            [
              8.96088,
              46.110065
            ],
            [
              8.961364,
              46.112335
            ],
            [
              8.962167,
              46.114561
            ],
            [
              8.963281,
              46.116722
            ],
            [
              8.964695,
              46.118796
            ],
            [
              8.966396,
              46.120765
            ],
            [
              8.968367,
              46.122608
            ],
            [
              8.970589,
              46.124309
            ],
            [
              8.973042,
              46.125851
            ],
            [
              8.975701,
              46.127218
            ],
            [
              8.97854,
              46.128398
            ],
            [
              8.981533,
              46.12938
            ],
            [
              8.98465,
              46.130153
            ],
            [
              8.987862,
              46.130711
            ],
            [
              8.991137,
              46.131047
            ],
            [
              8.994444,
              46.13116
            ]
          ]
        ]
      },
      "properties": {
        "id": "LSR17",
        "notam": "W2619/26",
        "on_chart": true,
        "valid_from_utc": "2026-10-06T06:00:00+00:00",
        "valid_to_utc": "2026-10-06T15:30:00+00:00",
        "lower": {
          "raw": "GND",
          "meters": 0,
          "feet": 0,
          "flight_level": null,
          "gnd": true
        },
        "upper": {
          "raw": "3200m / 10500ft",
          "meters": 3200,
          "feet": 10500,
          "flight_level": null,
          "gnd": false
        },
        "center": {
          "lat": 46.107778,
          "lon": 8.994444
        },
        "radius_m": 2600,
        "radius_candidates_m": {
          "table_km": 2600
        },
        "geometry_source": "circle",
        "text": "R-AREA LSR17 ISONE 2 ACT DUE TO MIL UAV."
      }
    },
    {
      "type": "Feature",
      "geometry": {
        "type": "Polygon",
        "coordinates": [
          [
            [
              8.419167,
              46.736476
            ],
            [
              8.423668,
              46.736325
            ],
            [
              8.428126,
              46.735871
            ],
            [
              8.432498,
              46.73512
            ],
            [
              8.436741,
              46.734079
            ],
            [
              8.440815,
              46.732758
            ],
            [
              8.44468,
              46.731169
            ],
            [
              8.448299,
              46.729328
            ],
            [
              8.451636,
              46.727252
            ],
            [
              8.454661,
              46.724963
            ],
            [
              8.457344,
              46.722481
            ],
            [
              8.459658,
              46.719831
            ],
            [
              8.461582,
              46.717038
            ],
            [
              8.463098,
              46.714129
            ],
            [
              8.46419,
              46.711132
            ],
            [
              8.464848,
              46.708076
            ],
            [
              8.465067,
              46.704991
            ],
            [
              8.464843,
              46.701906
            ],
            [
              8.46418,
              46.69885
            ],
            [
              8.463083,
              46.695855
            ],
            [
              8.461563,
              46.692947
            ],
            [
              8.459636,
              46.690155
            ],
            [
              8.457319,
              46.687506
            ],
            [
              8.454635,
              46.685026
            ],
            [
              8.45161,
              46.682738
            ],
            [
              8.448272,
              46.680665
            ],
            [
              8.444655,
              46.678826
            ],
            [
              8.440793,
              46.677238
            ],
            [
              8.436722,
              46.675918
            ],
            [
              8.432483,
              46.674878
            ],
            [
              8.428116,
              46.674128
            ],
            [
              8.423663,
              46.673675
            ],
            [
              8.419167,
              46.673524
            ],
            [
              8.41467,
              46.673675
            ],
            [
              8.410217,
              46.674128
            ],
            [
              8.40585,
              46.674878
            ],
            [
              8.401611,
              46.675918
            ],
            [
              8.397541,
              46.677238
            ],
            [
              8.393678,
              46.678826
            ],
            [
              8.390061,
              46.680665
            ],
            [
              8.386724,
              46.682738
            ],
            [
              8.383699,
              46.685026
            ],
            [
              8.381014,
              46.687506
            ],
            [
              8.378698,
              46.690155
            ],
            [
              8.37677,
              46.692947
            ],
            [
              8.37525,
              46.695855
            ],
            [
              8.374154,
              46.69885
            ],
            [
              8.37349,
              46.701906
            ],
            [
              8.373267,
              46.704991
            ],
            [
              8.373485,
              46.708076
            ],
            [
              8.374143,
              46.711132
            ],
            [
              8.375236,
              46.714129
            ],
            [
              8.376751,
              46.717038
            ],
            [
              8.378675,
              46.719831
            ],
            [
              8.38099,
              46.722481
            ],
            [
              8.383672,
              46.724963
            ],
            [
              8.386697,
              46.727252
            ],
            [
              8.390035,
              46.729328
            ],
            [
              8.393654,
              46.731169
            ],
            [
              8.397518,
              46.732758
            ],
            [
              8.401592,
              46.734079
            ],
            [
              8.405835,
              46.73512
            ],
            [
              8.410207,
              46.735871
            ],
            [
              8.414665,
              46.736325
            ],
            [
              8.419167,
              46.736476
            ]
          ]
        ]
      },
      "properties": {
        "id": "LSR37",
        "notam": "W2615/26",
        "on_chart": true,
        "valid_from_utc": "2026-10-06T05:30:00+00:00",
        "valid_to_utc": "2026-10-06T15:30:00+00:00",
        "lower": {
          "raw": "GND",
          "meters": 0,
          "feet": 0,
          "flight_level": null,
          "gnd": true
        },
        "upper": {
          "raw": "5050m / 16500ft",
          "meters": 5050,
          "feet": 16500,
          "flight_level": null,
          "gnd": false
        },
        "center": {
          "lat": 46.705,
          "lon": 8.419167
        },
        "radius_m": 3500,
        "radius_candidates_m": {
          "table_km": 3500
        },
        "geometry_source": "circle",
        "text": "R-AREA LSR37 SUSTENPASS ACT DUE TO FRNG."
      }
    },
    {
      "type": "Feature",
      "geometry": {
        "type": "Polygon",
        "coordinates": [
          [
            [
              8.420278,
              46.988609
            ],
            [
              8.433329,
              46.988171
            ],
            [
              8.446254,
              46.986861
            ],
            [
              8.458928,
              46.984691
            ],
            [
              8.471228,
              46.981684
            ],
            [
              8.483034,
              46.977867
            ],
            [
              8.494234,
              46.973278
            ],
            [
              8.504718,
              46.96796
            ],
            [
              8.514386,
              46.961967
            ],
            [
              8.523145,
              46.955355
            ],
            [
              8.530909,
              46.948188
            ],
            [
              8.537605,
              46.940535
            ],
            [
              8.543169,
              46.932472
            ],
            [
              8.547546,
              46.924074
            ],
            [
              8.550697,
              46.915424
            ],
            [
              8.55259,
              46.906605
            ],
            [
              8.553208,
              46.897701
            ],
            [
              8.552546,
              46.888799
            ],
            [
              8.55061,
              46.879983
            ],
            [
              8.547421,
              46.87134
            ],
            [
              8.543009,
              46.862953
            ],
            [
              8.537418,
              46.8549
            ],
            [
              8.530701,
              46.847261
            ],
            [
              8.522924,
              46.840109
            ],
            [
              8.514161,
              46.833512
            ],
            [
              8.504497,
              46.827533
            ],
            [
              8.494026,
              46.822231
            ],
            [
              8.482847,
              46.817655
            ],
            [
              8.471068,
              46.813849
            ],
            [
              8.458803,
              46.810851
            ],
            [
              8.446168,
              46.808689
            ],
            [
              8.433285,
              46.807383
            ],
            [
              8.420278,
              46.806946
            ],
            [
              8.40727,
              46.807383
            ],
            [
              8.394387,
              46.808689
            ],
            [
              8.381753,
              46.810851
            ],
            [
              8.369487,
              46.813849
            ],
            [
              8.357708,
              46.817655
            ],
            [
              8.34653,
              46.822231
            ],
            [
              8.336058,
              46.827533
            ],
            [
              8.326395,
              46.833512
            ],
            [
              8.317632,
              46.840109
            ],
            [
              8.309854,
              46.847261
            ],
            [
              8.303138,
              46.8549
            ],
            [
              8.297546,
              46.862953
            ],
            [
              8.293134,
              46.87134
            ],
            [
              8.289945,
              46.879983
            ],
            [
              8.28801,
              46.888799
            ],
            [
              8.287348,
              46.897701
            ],
            [
              8.287966,
              46.906605
            ],
            [
              8.289859,
              46.915424
            ],
            [
              8.293009,
              46.924074
            ],
            [
              8.297387,
              46.932472
            ],
            [
              8.30295,
              46.940535
            ],
            [
              8.309646,
              46.948188
            ],
            [
              8.317411,
              46.955355
            ],
            [
              8.326169,
              46.961967
            ],
            [
              8.335837,
              46.96796
            ],
            [
              8.346322,
              46.973278
            ],
            [
              8.357521,
              46.977867
            ],
            [
              8.369328,
              46.981684
            ],
            [
              8.381628,
              46.984691
            ],
            [
              8.394301,
              46.986861
            ],
            [
              8.407226,
              46.988171
            ],
            [
              8.420278,
              46.988609
            ]
          ]
        ]
      },
      "properties": {
        "id": "LSR39B",
        "notam": null,
        "on_chart": true,
        "valid_from_utc": "2026-10-06T07:00:00+00:00",
        "valid_to_utc": "2026-10-06T09:00:00+00:00",
        "lower": {
          "raw": "2750m / 9000ft",
          "meters": 2750,
          "feet": 9000,
          "flight_level": null,
          "gnd": false
        },
        "upper": {
          "raw": "FL130",
          "meters": 3962,
          "feet": 13000,
          "flight_level": 130,
          "gnd": false
        },
        "center": {
          "lat": 46.897778,
          "lon": 8.420278
        },
        "radius_m": 10100,
        "radius_candidates_m": {
          "table_km": 10100
        },
        "geometry_source": "circle",
        "text": "R-AREA LSR39B BRISEN ACT. LOWER LIMIT 9000FT AMSL OR 2000FT GND WHICHEVER IS"
      }
    },
    {
      "type": "Feature",
      "geometry": {
        "type": "Polygon",
        "coordinates": [
          [
            [
              8.675833,
              47.075481
            ],
            [
              8.694213,
              47.074865
            ],
            [
              8.712414,
              47.073022
            ],
            [
              8.73026,
              47.06997
            ],
            [
              8.747579,
              47.065738
            ],
            [
              8.764202,
              47.060368
            ],
            [
              8.779968,
              47.053912
            ],
            [
              8.794726,
              47.046432
            ],
            [
              8.808333,
              47.038001
            ],
            [
              8.820657,
              47.028701
            ],
            [
              8.83158,
              47.018621
            ],
            [
              8.840997,
              47.007858
            ],
            [
              8.848818,
              46.996518
            ],
            [
              8.854968,
              46.984709
            ],
            [
              8.85939,
              46.972545
            ],
            [
              8.862042,
              46.960144
            ],
            [
              8.862899,
              46.947625
            ],
            [
              8.861955,
              46.93511
            ],
            [
              8.859219,
              46.922718
            ],
            [
              8.85472,
              46.910568
            ],
            [
              8.848502,
              46.898778
            ],
            [
              8.840625,
              46.88746
            ],
            [
              8.831167,
              46.876724
            ],
            [
              8.820219,
              46.866673
            ],
            [
              8.807886,
              46.857402
            ],
            [
              8.794288,
              46.849
            ],
            [
              8.779556,
              46.841549
            ],
            [
              8.763831,
              46.83512
            ],
            [
              8.747263,
              46.829773
            ],
            [
              8.730012,
              46.82556
            ],
            [
              8.712243,
              46.822522
            ],
            [
              8.694126,
              46.820688
            ],
            [
              8.675833,
              46.820074
            ],
            [
              8.657541,
              46.820688
            ],
            [
              8.639424,
              46.822522
            ],
            [
              8.621654,
              46.82556
            ],
            [
              8.604404,
              46.829773
            ],
            [
              8.587836,
              46.83512
            ],
            [
              8.572111,
              46.841549
            ],
            [
              8.557378,
              46.849
            ],
            [
              8.54378,
              46.857402
            ],
            [
              8.531448,
              46.866673
            ],
            [
              8.520499,
              46.876724
            ],
            [
              8.511041,
              46.88746
            ],
            [
              8.503165,
              46.898778
            ],
            [
              8.496946,
              46.910568
            ],
            [
              8.492447,
              46.922718
            ],
            [
              8.489712,
              46.93511
            ],
            [
              8.488767,
              46.947625
            ],
            [
              8.489625,
              46.960144
            ],
            [
              8.492276,
              46.972545
            ],
            [
              8.496698,
              46.984709
            ],
            [
              8.502849,
              46.996518
            ],
            [
              8.51067,
              47.007858
            ],
            [
              8.520087,
              47.018621
            ],
            [
              8.53101,
              47.028701
            ],
            [
              8.543334,
              47.038001
            ],
            [
              8.55694,
              47.046432
            ],
            [
              8.571698,
              47.053912
            ],
            [
              8.587465,
              47.060368
            ],
            [
              8.604088,
              47.065738
            ],
            [
              8.621407,
              47.06997
            ],
            [
              8.639253,
              47.073022
            ],
            [
              8.657454,
              47.074865
            ],
            [
              8.675833,
              47.075481
            ]
          ]
        ]
      },
      "properties": {
        "id": "LSR39C",
        "notam": null,
        "on_chart": true,
        "valid_from_utc": "2026-10-06T07:00:00+00:00",
        "valid_to_utc": "2026-10-06T09:00:00+00:00",
        "lower": {
          "raw": "2750m / 9000ft",
          "meters": 2750,
          "feet": 9000,
          "flight_level": null,
          "gnd": false
        },
        "upper": {
          "raw": "FL130",
          "meters": 3962,
          "feet": 13000,
          "flight_level": 130,
          "gnd": false
        },
        "center": {
          "lat": 46.947778,
          "lon": 8.675833
        },
        "radius_m": 14200,
        "radius_candidates_m": {
          "table_km": 14200
        },
        "geometry_source": "circle",
        "text": "R-AREA LSR39C STOOS ACT. LOWER LIMIT 9000FT AMSL OR 2000FT GND WHICHEVER IS"
      }
    },
    {
      "type": "Feature",
      "geometry": {
        "type": "Polygon",
        "coordinates": [
          [
            [
              9.491667,
              46.867802
            ],
            [
              9.493343,
              46.867746
            ],
            [
              9.495003,
              46.867578
            ],
            [
              9.496631,
              46.867299
            ],
            [
              9.498211,
              46.866912
            ],
            [
              9.499727,
              46.866422
            ],
            [
              9.501167,
              46.865832
            ],
            [
              9.502514,
              46.865148
            ],
            [
              9.503758,
              46.864377
            ],
            [
              9.504884,
              46.863527
            ],
            [
              9.505884,
              46.862605
            ],
            [
              9.506746,
              46.861621
            ],
            [
              9.507463,
              46.860584
            ],
            [
              9.508028,
              46.859504
            ],
            [
              9.508435,
              46.858391
            ],
            [
              9.508681,
              46.857256
            ],
            [
              9.508763,
              46.85611
            ],
            [
              9.508681,
              46.854964
            ],
            [
              9.508434,
              46.853829
            ],
            [
              9.508026,
              46.852716
            ],
            [
              9.50746,
              46.851636
            ],
            [
              9.506743,
              46.850599
            ],
            [
              9.50588,
              46.849615
            ],
            [
              9.504881,
              46.848694
            ],
            [
              9.503754,
              46.847844
            ],
            [
              9.502511,
              46.847073
            ],
            [
              9.501163,
              46.84639
            ],
            [
              9.499724,
              46.8458
            ],
            [
              9.498208,
              46.84531
            ],
            [
              9.496628,
              46.844923
            ],
            [
              9.495001,
              46.844645
            ],
            [
              9.493342,
              46.844476
            ],
            [
              9.491667,
              46.84442
            ],
            [
              9.489991,
              46.844476
            ],
            [
              9.488332,
              46.844645
            ],
            [
              9.486705,
              46.844923
            ],
            [
              9.485125,
              46.84531
            ],
            [
              9.483609,
              46.8458
            ],
            [
              9.48217,
              46.84639
            ],
            [
              9.480823,
              46.847073
            ],
            [
              9.479579,
              46.847844
            ],
            [
              9.478453,
              46.848694
            ],
            [
              9.477453,
              46.849615
            ],
            [
              9.47659,
              46.850599
            ],
            [
              9.475873,
              46.851636
            ],
            [
              9.475307,
              46.852716
            ],
            [
              9.474899,
              46.853829
            ],
            [
              9.474653,
              46.854964
            ],
            [
              9.47457,
              46.85611
            ],
            [
              9.474652,
              46.857256
            ],
            [
              9.474898,
              46.858391
            ],
            [
              9.475305,
              46.859504
            ],
            [
              9.47587,
              46.860584
            ],
            [
              9.476587,
              46.861621
            ],
            [
              9.47745,
              46.862605
            ],
            [
              9.478449,
              46.863527
            ],
            [
              9.479576,
              46.864377
            ],
            [
              9.480819,
              46.865148
            ],
            [
              9.482167,
              46.865832
            ],
            [
              9.483606,
              46.866422
            ],
            [
              9.485123,
              46.866912
            ],
            [
              9.486703,
              46.867299
            ],
            [
              9.488331,
              46.867578
            ],
            [
              9.489991,
              46.867746
            ],
            [
              9.491667,
              46.867802
            ]
          ]
        ]
      },
      "properties": {
        "id": "LSR57",
        "notam": null,
        "on_chart": true,
        "valid_from_utc": "2026-10-06T06:00:00+00:00",
        "valid_to_utc": "2026-10-06T10:00:00+00:00",
        "lower": {
          "raw": "GND",
          "meters": 0,
          "feet": 0,
          "flight_level": null,
          "gnd": true
        },
        "upper": {
          "raw": "2000m / 6500ft",
          "meters": 2000,
          "feet": 6500,
          "flight_level": null,
          "gnd": false
        },
        "center": {
          "lat": 46.856111,
          "lon": 9.491667
        },
        "radius_m": 1300,
        "radius_candidates_m": {
          "table_km": 1300
        },
        "geometry_source": "circle",
        "text": "R-AREA LSR57 ROSSBODEN-RHEINSAND ACT DUE TO FRNG."
      }
    },
    {
      "type": "Feature",
      "geometry": {
        "type": "Polygon",
        "coordinates": [
          [
            [
              7.005,
              46.383603
            ],
            [
              7.00642,
              46.383554
            ],
            [
              7.007826,
              46.383411
            ],
            [
              7.009204,
              46.383172
            ],
            [
              7.010543,
              46.382842
            ],
            [
              7.011828,
              46.382423
            ],
            [
              7.013047,
              46.381918
            ],
            [
              7.014188,
              46.381334
            ],
            [
              7.015241,
              46.380676
            ],
            [
              7.016196,
              46.379949
            ],
            [
              7.017042,
              46.379161
            ],
            [
              7.017773,
              46.37832
            ],
            [
              7.01838,
              46.377434
            ],
            [
              7.018859,
              46.376511
            ],
            [
              7.019204,
              46.375559
            ],
            [
              7.019412,
              46.37459
            ],
            [
              7.019481,
              46.37361
            ],
            [
              7.019411,
              46.372631
            ],
            [
              7.019203,
              46.371661
            ],
            [
              7.018857,
              46.37071
            ],
            [
              7.018378,
              46.369787
            ],
            [
              7.01777,
              46.3689
            ],
            [
              7.01704,
              46.36806
            ],
            [
              7.016193,
              46.367272
            ],
            [
              7.015239,
              46.366546
            ],
            [
              7.014186,
              46.365887
            ],
            [
              7.013044,
              46.365303
            ],
            [
              7.011825,
              46.364799
            ],
            [
              7.010541,
              46.36438
            ],
            [
              7.009203,
              46.36405
            ],
            [
              7.007825,
              46.363812
            ],
            [
              7.006419,
              46.363668
            ],
            [
              7.005,
              46.36362
            ],
            [
              7.003581,
              46.363668
            ],
            [
              7.002175,
              46.363812
            ],
            [
              7.000797,
              46.36405
            ],
            [
              6.999459,
              46.36438
            ],
            [
              6.998175,
              46.364799
            ],
            [
              6.996956,
              46.365303
            ],
            [
              6.995814,
              46.365887
            ],
            [
              6.994761,
              46.366546
            ],
            [
              6.993807,
              46.367272
            ],
            [
              6.99296,
              46.36806
            ],
            [
              6.99223,
              46.3689
            ],
            [
              6.991622,
              46.369787
            ],
            [
              6.991143,
              46.37071
            ],
            [
              6.990797,
              46.371661
            ],
            [
              6.990589,
              46.372631
            ],
            [
              6.990519,
              46.37361
            ],
            [
              6.990588,
              46.37459
            ],
            [
              6.990796,
              46.375559
            ],
            [
              6.991141,
              46.376511
            ],
            [
              6.99162,
              46.377434
            ],
            [
              6.992227,
              46.37832
            ],
            [
              6.992958,
              46.379161
            ],
            [
              6.993804,
              46.379949
            ],
            [
              6.994759,
              46.380676
            ],
            [
              6.995812,
              46.381334
            ],
            [
              6.996953,
              46.381918
            ],
            [
              6.998172,
              46.382423
            ],
            [
              6.999457,
              46.382842
            ],
            [
              7.000796,
              46.383172
            ],
            [
              7.002174,
              46.383411
            ],
            [
              7.00358,
              46.383554
            ],
            [
              7.005,
              46.383603
            ]
          ]
        ]
      },
      "properties": {
        "id": "W2590/26",
        "notam": "W2590/26",
        "on_chart": true,
        "valid_from_utc": "2026-10-06T00:00:00+00:00",
        "valid_to_utc": "2026-10-06T23:59:00+00:00",
        "lower": {
          "raw": "GND",
          "meters": 0,
          "feet": 0,
          "flight_level": null,
          "gnd": true
        },
        "upper": {
          "raw": "2300m / 7650ft",
          "meters": 2300,
          "feet": 7650,
          "flight_level": null,
          "gnd": false
        },
        "center": {
          "lat": 46.373611,
          "lon": 7.005
        },
        "radius_m": 1111,
        "radius_candidates_m": {
          "table_km": 1100,
          "text_0_km": 1000,
          "text_1_nm": 1111
        },
        "geometry_source": "circle",
        "text": "HIGHLINE OBST ERECTED 3.9KM NNW HLP LEYSIN, BTN TOUR D AI AND TOUR DE MAYEN, RADIUS 1.0KM (462225N0070018E RADIUS 0.6NM). MARKED WITH WINDSOCKS AND RED OBST LGT. MAX ALT UP TO 186M AGL / 612FT AGL, 2319M AMSL / 7609FT AMSL. Version 1 - generated: 05.10.2026 13:50 UTC"
      }
    },
    {
      "type": "Feature",
      "geometry": {
        "type": "Polygon",
        "coordinates": [
          [
            [
              6.938333,
              47.043207
            ],
            [
              6.964924,
              47.042313
            ],
            [
              6.991257,
              47.039642
            ],
            [
              7.017074,
              47.035219
            ],
            [
              7.042126,
              47.029087
            ],
            [
              7.066168,
              47.021306
            ],
            [
              7.088969,
              47.011951
            ],
            [
              7.110306,
              47.001114
            ],
            [
              7.129973,
              46.988899
            ],
            [
              7.147782,
              46.975425
            ],
            [
              7.16356,
              46.960823
            ],
            [
              7.177156,
              46.945234
            ],
            [
              7.188442,
              46.928809
            ],
            [
              7.19731,
              46.911707
            ],
            [
              7.203676,
              46.894094
            ],
            [
              7.207481,
              46.876139
            ],
            [
              7.208692,
              46.858015
            ],
            [
              7.207299,
              46.839898
            ],
            [
              7.203319,
              46.82196
            ],
            [
              7.196792,
              46.804376
            ],
            [
              7.187784,
              46.787314
            ],
            [
              7.176383,
              46.770938
            ],
            [
              7.1627,
              46.755404
            ],
            [
              7.146869,
              46.740861
            ],
            [
              7.129042,
              46.72745
            ],
            [
              7.109393,
              46.715297
            ],
            [
              7.088109,
              46.704519
            ],
            [
              7.065394,
              46.695219
            ],
            [
              7.041468,
              46.687486
            ],
            [
              7.016557,
              46.681394
            ],
            [
              6.990901,
              46.677
            ],
            [
              6.964743,
              46.674347
            ],
            [
              6.938333,
              46.67346
            ],
            [
              6.911924,
              46.674347
            ],
            [
              6.885766,
              46.677
            ],
            [
              6.86011,
              46.681394
            ],
            [
              6.835199,
              46.687486
            ],
            [
              6.811272,
              46.695219
            ],
            [
              6.788558,
              46.704519
            ],
            [
              6.767274,
              46.715297
            ],
            [
              6.747624,
              46.72745
            ],
            [
              6.729798,
              46.740861
            ],
            [
              6.713967,
              46.755404
            ],
            [
              6.700284,
              46.770938
            ],
            [
              6.688883,
              46.787314
            ],
            [
              6.679874,
              46.804376
            ],
            [
              6.673347,
              46.82196
            ],
            [
              6.669367,
              46.839898
            ],
            [
              6.667975,
              46.858015
            ],
            [
              6.669186,
              46.876139
            ],
            [
              6.672991,
              46.894094
            ],
            [
              6.679357,
              46.911707
            ],
            [
              6.688225,
              46.928809
            ],
            [
              6.69951,
              46.945234
            ],
            [
              6.713107,
              46.960823
            ],
            [
              6.728885,
              46.975425
            ],
            [
              6.746694,
              46.988899
            ],
            [
              6.766361,
              47.001114
            ],
            [
              6.787698,
              47.011951
            ],
            [
              6.810498,
              47.021306
            ],
            [
              6.834541,
              47.029087
            ],
            [
              6.859592,
              47.035219
            ],
            [
              6.88541,
              47.039642
            ],
            [
              6.911742,
              47.042313
            ],
            [
              6.938333,
              47.043207
            ]
          ]
        ]
      },
      "properties": {
        "id": "W2606/26",
        "notam": "W2606/26",
        "on_chart": true,
        "valid_from_utc": "2026-10-06T11:30:00+00:00",
        "valid_to_utc": "2026-10-06T14:00:00+00:00",
        "lower": {
          "raw": "GND",
          "meters": 0,
          "feet": 0,
          "flight_level": null,
          "gnd": true
        },
        "upper": {
          "raw": "FL100",
          "meters": 3048,
          "feet": 10000,
          "flight_level": 100,
          "gnd": false
        },
        "center": {
          "lat": 46.858333,
          "lon": 6.938333
        },
        "radius_m": 20557,
        "radius_candidates_m": {
          "table_km": 20500,
          "text_0_nm": 20557
        },
        "geometry_source": "circle",
        "text": "TEMPO R-AREA MODEX PAYERNE ESTABLISHED WI PAYERNE CTR, TMA1, TMA2, TMA3 AND TMA5 DUE TO MIL EXER (465130N0065618E RADIUS 11.1NM). ENTRY PROHIBITED WHEN ACT. EXC HEL EMERG MEDICAL SER (HEMS). FOR INFO ON ACT AND HEMS COOR CTC PAYERNE TWR ON 128.680"
      }
    }
  ]
}