{
  "type": "FeatureCollection",
  "properties": {
    "dabs_date": "2026-10-10",
    "version": 1,
    "generated_utc": "2026-10-09T13:36:00+00:00"
  },
  "features": [
    {
      "type": "Feature",
      "geometry": {
        "type": "Polygon",
        "coordinates": [
          [
            [
              7.005,
              46.383603
            ],
            [
              7.00642,
              46.383554
            ],
            [
              7.007826,
              46.383411
            ],
            [
              7.009204,
              46.383172
            ],
            [
              7.010543,
              46.382842
            ],
            [
              7.011828,
              46.382423
            ],
            [
              7.013047,
              46.381918
            ],
            [
              7.014188,
              46.381334
            ],
            [
              7.015241,
              46.380676
            ],
            [
              7.016196,
              46.379949
            ],
            [
              7.017042,
              46.379161
            ],
            [
              7.017773,
              46.37832
            ],
            [
              7.01838,
              46.377434
            ],
            [
              7.018859,
              46.376511
            ],
            [
              7.019204,
              46.375559
            ],
            [
              7.019412,
              46.37459
            ],
            [
              7.019481,
              46.37361
            ],
            [
              7.019411,
              46.372631
            ],
            [
              7.019203,
              46.371661
            ],
            [
              7.018857,
              46.37071
            ],
            [
              7.018378,
              46.369787
            ],
            [
              7.01777,
              46.3689
            ],
            [
              7.01704,
              46.36806
            ],
            [
              7.016193,
              46.367272
            ],
            [
              7.015239,
              46.366546
            ],
            [
              7.014186,
              46.365887
            ],
            [
              7.013044,
              46.365303
            ],
            [
              7.011825,
              46.364799
            ],
            [
              7.010541,
              46.36438
            ],
            [
              7.009203,
              46.36405
            ],
            [
              7.007825,
              46.363812
            ],
            [
              7.006419,
              46.363668
            ],
            [
              7.005,
              46.36362
            ],
            [
              7.003581,
              46.363668
            ],
            [
              7.002175,
              46.363812
            ],
            [
              7.000797,
              46.36405
            ],
            [
              6.999459,
              46.36438
            ],
            [
              6.998175,
              46.364799
            ],
            [
              6.996956,
              46.365303
            ],
            [
              6.995814,
              46.365887
            ],
            [
              6.994761,
              46.366546
            ],
            [
              6.993807,
              46.367272
            ],
            [
              6.99296,
              46.36806
            ],
            [
              6.99223,
              46.3689
            ],
            [
              6.991622,
              46.369787
            ],
            [
              6.991143,
              46.37071
            ],
            [
              6.990797,
              46.371661
            ],
            [
              6.990589,
              46.372631
            ],
            [
              6.990519,
              46.37361
            ],
            [
              6.990588,
              46.37459
            ],
            [
              6.990796,
              46.375559
            ],
            [
              6.991141,
              46.376511
            ],
            [
              6.99162,
              46.377434
            ],
            [
              6.992227,
              46.37832
            ],
            [
              6.992958,
              46.379161
            ],
            [
              6.993804,
              46.379949
            ],
            [
              6.994759,
              46.380676
            ],
            [
              6.995812,
              46.381334
            ],
            [
              6.996953,
              46.381918
            ],
            [
              6.998172,
              46.382423
            ],
            [
              6.999457,
              46.382842
            ],
            [
              7.000796,
              46.383172
            ],
            [
              7.002174,
              46.383411
            ],
            [
              7.00358,
              46.383554
            ],
            [
              7.005,
              46.383603
            ]
          ]
        ]
      },
      "properties": {
        "id": "W2590/26",
        "notam": "W2590/26",
        "on_chart": true,
        "valid_from_utc": "2026-10-10T00:00:00+00:00",
        "valid_to_utc": "2026-10-10T23:59:00+00:00",
        "lower": {
          "raw": "GND",
          "meters": 0,
          "feet": 0,
          "flight_level": null,
          "gnd": true
        },
        "upper": {
          "raw": "2300m / 7650ft",
          "meters": 2300,
          "feet": 7650,
          "flight_level": null,
          "gnd": false
        },
        "center": {
          "lat": 46.373611,
          "lon": 7.005
        },
        "radius_m": 1111,
        "radius_candidates_m": {
          "table_km": 1100,
          "text_0_km": 1000,
          "text_1_nm": 1111
        },
        "geometry_source": "circle",
        "text": "HIGHLINE OBST ERECTED 3.9KM NNW HLP LEYSIN, BTN TOUR D AI AND TOUR DE MAYEN, RADIUS 1.0KM (462225N0070018E RADIUS 0.6NM). MARKED WITH WINDSOCKS AND RED OBST LGT. MAX ALT UP TO 186M AGL / 612FT AGL, 2319M AMSL / 7609FT AMSL."
      }
    },
    {
      "type": "Feature",
      "geometry": {
        "type": "Polygon",
        "coordinates": [
          [
            [
              6.63,
              46.915008
            ],
            [
              6.634904,
              46.914843
            ],
            [
              6.63976,
              46.91435
            ],
            [
              6.644522,
              46.913535
            ],
            [
              6.649144,
              46.912405
            ],
            [
              6.653582,
              46.91097
            ],
            [
              6.657792,
              46.909245
            ],
            [
              6.661734,
              46.907246
            ],
            [
              6.665369,
              46.904993
            ],
            [
              6.668664,
              46.902507
            ],
            [
              6.671586,
              46.899812
            ],
            [
              6.674107,
              46.896934
            ],
            [
              6.676203,
              46.893902
            ],
            [
              6.677853,
              46.890744
            ],
            [
              6.679043,
              46.88749
            ],
            [
              6.67976,
              46.884172
            ],
            [
              6.679997,
              46.880822
            ],
            [
              6.679754,
              46.877473
            ],
            [
              6.679031,
              46.874156
            ],
            [
              6.677836,
              46.870903
            ],
            [
              6.67618,
              46.867746
            ],
            [
              6.674081,
              46.864715
            ],
            [
              6.671557,
              46.86184
            ],
            [
              6.668633,
              46.859147
            ],
            [
              6.665338,
              46.856663
            ],
            [
              6.661702,
              46.854412
            ],
            [
              6.657762,
              46.852415
            ],
            [
              6.653555,
              46.850692
            ],
            [
              6.649122,
              46.849259
            ],
            [
              6.644505,
              46.84813
            ],
            [
              6.639748,
              46.847315
            ],
            [
              6.634898,
              46.846824
            ],
            [
              6.63,
              46.846659
            ],
            [
              6.625102,
              46.846824
            ],
            [
              6.620252,
              46.847315
            ],
            [
              6.615495,
              46.84813
            ],
            [
              6.610878,
              46.849259
            ],
            [
              6.606445,
              46.850692
            ],
            [
              6.602238,
              46.852415
            ],
            [
              6.598298,
              46.854412
            ],
            [
              6.594662,
              46.856663
            ],
            [
              6.591367,
              46.859147
            ],
            [
              6.588443,
              46.86184
            ],
            [
              6.585919,
              46.864715
            ],
            [
              6.58382,
              46.867746
            ],
            [
              6.582164,
              46.870903
            ],
            [
              6.580969,
              46.874156
            ],
            [
              6.580246,
              46.877473
            ],
            [
              6.580003,
              46.880822
            ],
            [
              6.58024,
              46.884172
            ],
            [
              6.580957,
              46.88749
            ],
            [
              6.582147,
              46.890744
            ],
            [
              6.583797,
              46.893902
            ],
            [
              6.585893,
              46.896934
            ],
            [
              6.588414,
              46.899812
            ],
            [
              6.591336,
              46.902507
            ],
            [
              6.594631,
              46.904993
            ],
            [
              6.598266,
              46.907246
            ],
            [
              6.602208,
              46.909245
            ],
            [
              6.606418,
              46.91097
            ],
            [
              6.610856,
              46.912405
            ],
            [
              6.615478,
              46.913535
            ],
            [
              6.62024,
              46.91435
            ],
            [
              6.625096,
              46.914843
            ],
            [
              6.63,
              46.915008
            ]
          ]
        ]
      },
      "properties": {
        "id": "W2627/26",
        "notam": "W2627/26",
        "on_chart": true,
        "valid_from_utc": "2026-10-10T00:00:00+00:00",
        "valid_to_utc": "2026-10-10T08:00:00+00:00",
        "lower": {
          "raw": "GND",
          "meters": 0,
          "feet": 0,
          "flight_level": null,
          "gnd": true
        },
        "upper": {
          "raw": "1700m / 5500ft",
          "meters": 1700,
          "feet": 5500,
          "flight_level": null,
          "gnd": false
        },
        "center": {
          "lat": 46.880833,
          "lon": 6.63
        },
        "radius_m": 3800,
        "radius_candidates_m": {
          "table_km": 3800
        },
        "geometry_source": "circle",
        "text": "TEMPO R-AREA LE CHASSERON ESTABLISHED WI AREA: 465224N0063455E 465355N0064020E TO MIL EXER. ENTRY PROHIBITED WHEN ACT EXC HEL EMERG MEDICAL SER (HEMS). FOR INFO ON ACT AND HEMS COOR CTC +41 79 313 17 14."
      }
    }
  ]
}