{
  "type": "FeatureCollection",
  "properties": {
    "dabs_date": "2026-10-09",
    "version": 1,
    "generated_utc": "2026-10-08T13:35:00+00:00"
  },
  "features": [
    {
      "type": "Feature",
      "geometry": {
        "type": "Polygon",
        "coordinates": [
          [
            [
              9.325556,
              47.399156
            ],
            [
              9.35733,
              47.398095
            ],
            [
              9.388795,
              47.394923
            ],
            [
              9.419643,
              47.389669
            ],
            [
              9.449575,
              47.382386
            ],
            [
              9.478298,
              47.373145
            ],
            [
              9.505534,
              47.362034
            ],
            [
              9.531019,
              47.349164
            ],
            [
              9.554506,
              47.334658
            ],
            [
              9.575769,
              47.318658
            ],
            [
              9.594604,
              47.301319
            ],
            [
              9.610829,
              47.282809
            ],
            [
              9.624291,
              47.263308
            ],
            [
              9.634863,
              47.243005
            ],
            [
              9.642445,
              47.222095
            ],
            [
              9.646969,
              47.200781
            ],
            [
              9.648393,
              47.179269
            ],
            [
              9.646708,
              47.157765
            ],
            [
              9.641935,
              47.136477
            ],
            [
              9.634122,
              47.115609
            ],
            [
              9.623348,
              47.095362
            ],
            [
              9.60972,
              47.07593
            ],
            [
              9.593371,
              47.057499
            ],
            [
              9.574461,
              47.040245
            ],
            [
              9.553172,
              47.024333
            ],
            [
              9.529711,
              47.009916
            ],
            [
              9.504302,
              46.99713
            ],
            [
              9.477189,
              46.986098
            ],
            [
              9.448631,
              46.976925
            ],
            [
              9.418902,
              46.969699
            ],
            [
              9.388284,
              46.964487
            ],
            [
              9.35707,
              46.96134
            ],
            [
              9.325556,
              46.960288
            ],
            [
              9.294041,
              46.96134
            ],
            [
              9.262827,
              46.964487
            ],
            [
              9.232209,
              46.969699
            ],
            [
              9.20248,
              46.976925
            ],
            [
              9.173922,
              46.986098
            ],
            [
              9.14681,
              46.99713
            ],
            [
              9.121401,
              47.009916
            ],
            [
              9.097939,
              47.024333
            ],
            [
              9.07665,
              47.040245
            ],
            [
              9.05774,
              47.057499
            ],
            [
              9.041391,
              47.07593
            ],
            [
              9.027763,
              47.095362
            ],
            [
              9.016989,
              47.115609
            ],
            [
              9.009176,
              47.136477
            ],
            [
              9.004403,
              47.157765
            ],
            [
              9.002718,
              47.179269
            ],
            [
              9.004142,
              47.200781
            ],
            [
              9.008666,
              47.222095
            ],
            [
              9.016248,
              47.243005
            ],
            [
              9.02682,
              47.263308
            ],
            [
              9.040282,
              47.282809
            ],
            [
              9.056507,
              47.301319
            ],
            [
              9.075342,
              47.318658
            ],
            [
              9.096605,
              47.334658
            ],
            [
              9.120092,
              47.349164
            ],
            [
              9.145577,
              47.362034
            ],
            [
              9.172813,
              47.373145
            ],
            [
              9.201536,
              47.382386
            ],
            [
              9.231468,
              47.389669
            ],
            [
              9.262316,
              47.394923
            ],
            [
              9.293781,
              47.398095
            ],
            [
              9.325556,
              47.399156
            ]
          ]
        ]
      },
      "properties": {
        "id": "LSR3",
        "notam": "W2593/26",
        "on_chart": true,
        "valid_from_utc": "2026-10-09T11:40:00+00:00",
        "valid_to_utc": "2026-10-09T12:20:00+00:00",
        "lower": {
          "raw": "FL100",
          "meters": 3048,
          "feet": 10000,
          "flight_level": 100,
          "gnd": false
        },
        "upper": {
          "raw": "FL130",
          "meters": 3962,
          "feet": 13000,
          "flight_level": 130,
          "gnd": false
        },
        "center": {
          "lat": 47.179722,
          "lon": 9.325556
        },
        "radius_m": 24400,
        "radius_candidates_m": {
          "table_km": 24400
        },
        "geometry_source": "circle",
        "text": "R-AREA LSR3 SPEER ACT."
      }
    },
    {
      "type": "Feature",
      "geometry": {
        "type": "Polygon",
        "coordinates": [
          [
            [
              8.043889,
              46.267408
            ],
            [
              8.054982,
              46.26703
            ],
            [
              8.065969,
              46.265902
            ],
            [
              8.076741,
              46.264034
            ],
            [
              8.087196,
              46.261444
            ],
            [
              8.097233,
              46.258157
            ],
            [
              8.106753,
              46.254204
            ],
            [
              8.115666,
              46.249625
            ],
            [
              8.123886,
              46.244463
            ],
            [
              8.131333,
              46.238769
            ],
            [
              8.137935,
              46.232596
            ],
            [
              8.14363,
              46.226006
            ],
            [
              8.148362,
              46.219061
            ],
            [
              8.152086,
              46.211828
            ],
            [
              8.154767,
              46.204377
            ],
            [
              8.156379,
              46.19678
            ],
            [
              8.156908,
              46.189111
            ],
            [
              8.156348,
              46.181443
            ],
            [
              8.154706,
              46.173849
            ],
            [
              8.151997,
              46.166404
            ],
            [
              8.148248,
              46.159178
            ],
            [
              8.143496,
              46.152241
            ],
            [
              8.137787,
              46.14566
            ],
            [
              8.131175,
              46.139498
            ],
            [
              8.123725,
              46.133814
            ],
            [
              8.115509,
              46.128663
            ],
            [
              8.106605,
              46.124095
            ],
            [
              8.097099,
              46.120152
            ],
            [
              8.087083,
              46.116873
            ],
            [
              8.076652,
              46.11429
            ],
            [
              8.065907,
              46.112427
            ],
            [
              8.054951,
              46.111302
            ],
            [
              8.043889,
              46.110926
            ],
            [
              8.032827,
              46.111302
            ],
            [
              8.021871,
              46.112427
            ],
            [
              8.011126,
              46.11429
            ],
            [
              8.000695,
              46.116873
            ],
            [
              7.990679,
              46.120152
            ],
            [
              7.981173,
              46.124095
            ],
            [
              7.972269,
              46.128663
            ],
            [
              7.964053,
              46.133814
            ],
            [
              7.956603,
              46.139498
            ],
            [
              7.949991,
              46.14566
            ],
            [
              7.944282,
              46.152241
            ],
            [
              7.93953,
              46.159178
            ],
            [
              7.935781,
              46.166404
            ],
            [
              7.933072,
              46.173849
            ],
            [
              7.93143,
              46.181443
            ],
            [
              7.93087,
              46.189111
            ],
            [
              7.931398,
              46.19678
            ],
            [
              7.933011,
              46.204377
            ],
            [
              7.935692,
              46.211828
            ],
            [
              7.939416,
              46.219061
            ],
            [
              7.944148,
              46.226006
            ],
            [
              7.949843,
              46.232596
            ],
            [
              7.956445,
              46.238769
            ],
            [
              7.963892,
              46.244463
            ],
            [
              7.972111,
              46.249625
            ],
            [
              7.981024,
              46.254204
            ],
            [
              7.990545,
              46.258157
            ],
            [
              8.000581,
              46.261444
            ],
            [
              8.011036,
              46.264034
            ],
            [
              8.021809,
              46.265902
            ],
            [
              8.032795,
              46.26703
            ],
            [
              8.043889,
              46.267408
            ]
          ]
        ]
      },
      "properties": {
        "id": "LSR12",
        "notam": "W2696/26",
        "on_chart": true,
        "valid_from_utc": "2026-10-09T07:00:00+00:00",
        "valid_to_utc": "2026-10-09T11:00:00+00:00",
        "lower": {
          "raw": "GND",
          "meters": 0,
          "feet": 0,
          "flight_level": null,
          "gnd": true
        },
        "upper": {
          "raw": "6850m / 22500ft",
          "meters": 6850,
          "feet": 22500,
          "flight_level": null,
          "gnd": false
        },
        "center": {
          "lat": 46.189167,
          "lon": 8.043889
        },
        "radius_m": 8700,
        "radius_candidates_m": {
          "table_km": 8700
        },
        "geometry_source": "circle",
        "text": "R-AREA LSR12 SIMPLON ACT DUE TO FRNG."
      }
    },
    {
      "type": "Feature",
      "geometry": {
        "type": "Polygon",
        "coordinates": [
          [
            [
              8.419167,
              46.736476
            ],
            [
              8.423668,
              46.736325
            ],
            [
              8.428126,
              46.735871
            ],
            [
              8.432498,
              46.73512
            ],
            [
              8.436741,
              46.734079
            ],
            [
              8.440815,
              46.732758
            ],
            [
              8.44468,
              46.731169
            ],
            [
              8.448299,
              46.729328
            ],
            [
              8.451636,
              46.727252
            ],
            [
              8.454661,
              46.724963
            ],
            [
              8.457344,
              46.722481
            ],
            [
              8.459658,
              46.719831
            ],
            [
              8.461582,
              46.717038
            ],
            [
              8.463098,
              46.714129
            ],
            [
              8.46419,
              46.711132
            ],
            [
              8.464848,
              46.708076
            ],
            [
              8.465067,
              46.704991
            ],
            [
              8.464843,
              46.701906
            ],
            [
              8.46418,
              46.69885
            ],
            [
              8.463083,
              46.695855
            ],
            [
              8.461563,
              46.692947
            ],
            [
              8.459636,
              46.690155
            ],
            [
              8.457319,
              46.687506
            ],
            [
              8.454635,
              46.685026
            ],
            [
              8.45161,
              46.682738
            ],
            [
              8.448272,
              46.680665
            ],
            [
              8.444655,
              46.678826
            ],
            [
              8.440793,
              46.677238
            ],
            [
              8.436722,
              46.675918
            ],
            [
              8.432483,
              46.674878
            ],
            [
              8.428116,
              46.674128
            ],
            [
              8.423663,
              46.673675
            ],
            [
              8.419167,
              46.673524
            ],
            [
              8.41467,
              46.673675
            ],
            [
              8.410217,
              46.674128
            ],
            [
              8.40585,
              46.674878
            ],
            [
              8.401611,
              46.675918
            ],
            [
              8.397541,
              46.677238
            ],
            [
              8.393678,
              46.678826
            ],
            [
              8.390061,
              46.680665
            ],
            [
              8.386724,
              46.682738
            ],
            [
              8.383699,
              46.685026
            ],
            [
              8.381014,
              46.687506
            ],
            [
              8.378698,
              46.690155
            ],
            [
              8.37677,
              46.692947
            ],
            [
              8.37525,
              46.695855
            ],
            [
              8.374154,
              46.69885
            ],
            [
              8.37349,
              46.701906
            ],
            [
              8.373267,
              46.704991
            ],
            [
              8.373485,
              46.708076
            ],
            [
              8.374143,
              46.711132
            ],
            [
              8.375236,
              46.714129
            ],
            [
              8.376751,
              46.717038
            ],
            [
              8.378675,
              46.719831
            ],
            [
              8.38099,
              46.722481
            ],
            [
              8.383672,
              46.724963
            ],
            [
              8.386697,
              46.727252
            ],
            [
              8.390035,
              46.729328
            ],
            [
              8.393654,
              46.731169
            ],
            [
              8.397518,
              46.732758
            ],
            [
              8.401592,
              46.734079
            ],
            [
              8.405835,
              46.73512
            ],
            [
              8.410207,
              46.735871
            ],
            [
              8.414665,
              46.736325
            ],
            [
              8.419167,
              46.736476
            ]
          ]
        ]
      },
      "properties": {
        "id": "LSR37",
        "notam": "W2698/26",
        "on_chart": true,
        "valid_from_utc": "2026-10-09T05:30:00+00:00",
        "valid_to_utc": "2026-10-09T15:30:00+00:00",
        "lower": {
          "raw": "GND",
          "meters": 0,
          "feet": 0,
          "flight_level": null,
          "gnd": true
        },
        "upper": {
          "raw": "5050m / 16500ft",
          "meters": 5050,
          "feet": 16500,
          "flight_level": null,
          "gnd": false
        },
        "center": {
          "lat": 46.705,
          "lon": 8.419167
        },
        "radius_m": 3500,
        "radius_candidates_m": {
          "table_km": 3500
        },
        "geometry_source": "circle",
        "text": "R-AREA LSR37 SUSTENPASS ACT DUE TO FRNG."
      }
    },
    {
      "type": "Feature",
      "geometry": {
        "type": "Polygon",
        "coordinates": [
          [
            [
              8.420278,
              46.988609
            ],
            [
              8.433329,
              46.988171
            ],
            [
              8.446254,
              46.986861
            ],
            [
              8.458928,
              46.984691
            ],
            [
              8.471228,
              46.981684
            ],
            [
              8.483034,
              46.977867
            ],
            [
              8.494234,
              46.973278
            ],
            [
              8.504718,
              46.96796
            ],
            [
              8.514386,
              46.961967
            ],
            [
              8.523145,
              46.955355
            ],
            [
              8.530909,
              46.948188
            ],
            [
              8.537605,
              46.940535
            ],
            [
              8.543169,
              46.932472
            ],
            [
              8.547546,
              46.924074
            ],
            [
              8.550697,
              46.915424
            ],
            [
              8.55259,
              46.906605
            ],
            [
              8.553208,
              46.897701
            ],
            [
              8.552546,
              46.888799
            ],
            [
              8.55061,
              46.879983
            ],
            [
              8.547421,
              46.87134
            ],
            [
              8.543009,
              46.862953
            ],
            [
              8.537418,
              46.8549
            ],
            [
              8.530701,
              46.847261
            ],
            [
              8.522924,
              46.840109
            ],
            [
              8.514161,
              46.833512
            ],
            [
              8.504497,
              46.827533
            ],
            [
              8.494026,
              46.822231
            ],
            [
              8.482847,
              46.817655
            ],
            [
              8.471068,
              46.813849
            ],
            [
              8.458803,
              46.810851
            ],
            [
              8.446168,
              46.808689
            ],
            [
              8.433285,
              46.807383
            ],
            [
              8.420278,
              46.806946
            ],
            [
              8.40727,
              46.807383
            ],
            [
              8.394387,
              46.808689
            ],
            [
              8.381753,
              46.810851
            ],
            [
              8.369487,
              46.813849
            ],
            [
              8.357708,
              46.817655
            ],
            [
              8.34653,
              46.822231
            ],
            [
              8.336058,
              46.827533
            ],
            [
              8.326395,
              46.833512
            ],
            [
              8.317632,
              46.840109
            ],
            [
              8.309854,
              46.847261
            ],
            [
              8.303138,
              46.8549
            ],
            [
              8.297546,
              46.862953
            ],
            [
              8.293134,
              46.87134
            ],
            [
              8.289945,
              46.879983
            ],
            [
              8.28801,
              46.888799
            ],
            [
              8.287348,
              46.897701
            ],
            [
              8.287966,
              46.906605
            ],
            [
              8.289859,
              46.915424
            ],
            [
              8.293009,
              46.924074
            ],
            [
              8.297387,
              46.932472
            ],
            [
              8.30295,
              46.940535
            ],
            [
              8.309646,
              46.948188
            ],
            [
              8.317411,
              46.955355
            ],
            [
              8.326169,
              46.961967
            ],
            [
              8.335837,
              46.96796
            ],
            [
              8.346322,
              46.973278
            ],
            [
              8.357521,
              46.977867
            ],
            [
              8.369328,
              46.981684
            ],
            [
              8.381628,
              46.984691
            ],
            [
              8.394301,
              46.986861
            ],
            [
              8.407226,
              46.988171
            ],
            [
              8.420278,
              46.988609
            ]
          ]
        ]
      },
      "properties": {
        "id": "LSR39B",
        "notam": null,
        "on_chart": true,
        "valid_from_utc": "2026-10-09T12:00:00+00:00",
        "valid_to_utc": "2026-10-09T14:00:00+00:00",
        "lower": {
          "raw": "2750m / 9000ft",
          "meters": 2750,
          "feet": 9000,
          "flight_level": null,
          "gnd": false
        },
        "upper": {
          "raw": "FL130",
          "meters": 3962,
          "feet": 13000,
          "flight_level": 130,
          "gnd": false
        },
        "center": {
          "lat": 46.897778,
          "lon": 8.420278
        },
        "radius_m": 10100,
        "radius_candidates_m": {
          "table_km": 10100
        },
        "geometry_source": "circle",
        "text": "R-AREA LSR39B BRISEN ACT. LOWER LIMIT 9000FT AMSL OR 2000FT GND WHICHEVER IS"
      }
    },
    {
      "type": "Feature",
      "geometry": {
        "type": "Polygon",
        "coordinates": [
          [
            [
              8.675833,
              47.075481
            ],
            [
              8.694213,
              47.074865
            ],
            [
              8.712414,
              47.073022
            ],
            [
              8.73026,
              47.06997
            ],
            [
              8.747579,
              47.065738
            ],
            [
              8.764202,
              47.060368
            ],
            [
              8.779968,
              47.053912
            ],
            [
              8.794726,
              47.046432
            ],
            [
              8.808333,
              47.038001
            ],
            [
              8.820657,
              47.028701
            ],
            [
              8.83158,
              47.018621
            ],
            [
              8.840997,
              47.007858
            ],
            [
              8.848818,
              46.996518
            ],
            [
              8.854968,
              46.984709
            ],
            [
              8.85939,
              46.972545
            ],
            [
              8.862042,
              46.960144
            ],
            [
              8.862899,
              46.947625
            ],
            [
              8.861955,
              46.93511
            ],
            [
              8.859219,
              46.922718
            ],
            [
              8.85472,
              46.910568
            ],
            [
              8.848502,
              46.898778
            ],
            [
              8.840625,
              46.88746
            ],
            [
              8.831167,
              46.876724
            ],
            [
              8.820219,
              46.866673
            ],
            [
              8.807886,
              46.857402
            ],
            [
              8.794288,
              46.849
            ],
            [
              8.779556,
              46.841549
            ],
            [
              8.763831,
              46.83512
            ],
            [
              8.747263,
              46.829773
            ],
            [
              8.730012,
              46.82556
            ],
            [
              8.712243,
              46.822522
            ],
            [
              8.694126,
              46.820688
            ],
            [
              8.675833,
              46.820074
            ],
            [
              8.657541,
              46.820688
            ],
            [
              8.639424,
              46.822522
            ],
            [
              8.621654,
              46.82556
            ],
            [
              8.604404,
              46.829773
            ],
            [
              8.587836,
              46.83512
            ],
            [
              8.572111,
              46.841549
            ],
            [
              8.557378,
              46.849
            ],
            [
              8.54378,
              46.857402
            ],
            [
              8.531448,
              46.866673
            ],
            [
              8.520499,
              46.876724
            ],
            [
              8.511041,
              46.88746
            ],
            [
              8.503165,
              46.898778
            ],
            [
              8.496946,
              46.910568
            ],
            [
              8.492447,
              46.922718
            ],
            [
              8.489712,
              46.93511
            ],
            [
              8.488767,
              46.947625
            ],
            [
              8.489625,
              46.960144
            ],
            [
              8.492276,
              46.972545
            ],
            [
              8.496698,
              46.984709
            ],
            [
              8.502849,
              46.996518
            ],
            [
              8.51067,
              47.007858
            ],
            [
              8.520087,
              47.018621
            ],
            [
              8.53101,
              47.028701
            ],
            [
              8.543334,
              47.038001
            ],
            [
              8.55694,
              47.046432
            ],
            [
              8.571698,
              47.053912
            ],
            [
              8.587465,
              47.060368
            ],
            [
              8.604088,
              47.065738
            ],
            [
              8.621407,
              47.06997
            ],
            [
              8.639253,
              47.073022
            ],
            [
              8.657454,
              47.074865
            ],
            [
              8.675833,
              47.075481
            ]
          ]
        ]
      },
      "properties": {
        "id": "LSR39C",
        "notam": null,
        "on_chart": true,
        "valid_from_utc": "2026-10-09T12:00:00+00:00",
        "valid_to_utc": "2026-10-09T14:00:00+00:00",
        "lower": {
          "raw": "2750m / 9000ft",
          "meters": 2750,
          "feet": 9000,
          "flight_level": null,
          "gnd": false
        },
        "upper": {
          "raw": "FL130",
          "meters": 3962,
          "feet": 13000,
          "flight_level": 130,
          "gnd": false
        },
        "center": {
          "lat": 46.947778,
          "lon": 8.675833
        },
        "radius_m": 14200,
        "radius_candidates_m": {
          "table_km": 14200
        },
        "geometry_source": "circle",
        "text": "R-AREA LSR39C STOOS ACT. LOWER LIMIT 9000FT AMSL OR 2000FT GND WHICHEVER IS"
      }
    },
    {
      "type": "Feature",
      "geometry": {
        "type": "Polygon",
        "coordinates": [
          [
            [
              7.005,
              46.383603
            ],
            [
              7.00642,
              46.383554
            ],
            [
              7.007826,
              46.383411
            ],
            [
              7.009204,
              46.383172
            ],
            [
              7.010543,
              46.382842
            ],
            [
              7.011828,
              46.382423
            ],
            [
              7.013047,
              46.381918
            ],
            [
              7.014188,
              46.381334
            ],
            [
              7.015241,
              46.380676
            ],
            [
              7.016196,
              46.379949
            ],
            [
              7.017042,
              46.379161
            ],
            [
              7.017773,
              46.37832
            ],
            [
              7.01838,
              46.377434
            ],
            [
              7.018859,
              46.376511
            ],
            [
              7.019204,
              46.375559
            ],
            [
              7.019412,
              46.37459
            ],
            [
              7.019481,
              46.37361
            ],
            [
              7.019411,
              46.372631
            ],
            [
              7.019203,
              46.371661
            ],
            [
              7.018857,
              46.37071
            ],
            [
              7.018378,
              46.369787
            ],
            [
              7.01777,
              46.3689
            ],
            [
              7.01704,
              46.36806
            ],
            [
              7.016193,
              46.367272
            ],
            [
              7.015239,
              46.366546
            ],
            [
              7.014186,
              46.365887
            ],
            [
              7.013044,
              46.365303
            ],
            [
              7.011825,
              46.364799
            ],
            [
              7.010541,
              46.36438
            ],
            [
              7.009203,
              46.36405
            ],
            [
              7.007825,
              46.363812
            ],
            [
              7.006419,
              46.363668
            ],
            [
              7.005,
              46.36362
            ],
            [
              7.003581,
              46.363668
            ],
            [
              7.002175,
              46.363812
            ],
            [
              7.000797,
              46.36405
            ],
            [
              6.999459,
              46.36438
            ],
            [
              6.998175,
              46.364799
            ],
            [
              6.996956,
              46.365303
            ],
            [
              6.995814,
              46.365887
            ],
            [
              6.994761,
              46.366546
            ],
            [
              6.993807,
              46.367272
            ],
            [
              6.99296,
              46.36806
            ],
            [
              6.99223,
              46.3689
            ],
            [
              6.991622,
              46.369787
            ],
            [
              6.991143,
              46.37071
            ],
            [
              6.990797,
              46.371661
            ],
            [
              6.990589,
              46.372631
            ],
            [
              6.990519,
              46.37361
            ],
            [
              6.990588,
              46.37459
            ],
            [
              6.990796,
              46.375559
            ],
            [
              6.991141,
              46.376511
            ],
            [
              6.99162,
              46.377434
            ],
            [
              6.992227,
              46.37832
            ],
            [
              6.992958,
              46.379161
            ],
            [
              6.993804,
              46.379949
            ],
            [
              6.994759,
              46.380676
            ],
            [
              6.995812,
              46.381334
            ],
            [
              6.996953,
              46.381918
            ],
            [
              6.998172,
              46.382423
            ],
            [
              6.999457,
              46.382842
            ],
            [
              7.000796,
              46.383172
            ],
            [
              7.002174,
              46.383411
            ],
            [
              7.00358,
              46.383554
            ],
            [
              7.005,
              46.383603
            ]
          ]
        ]
      },
      "properties": {
        "id": "W2590/26",
        "notam": "W2590/26",
        "on_chart": true,
        "valid_from_utc": "2026-10-09T00:00:00+00:00",
        "valid_to_utc": "2026-10-09T23:59:00+00:00",
        "lower": {
          "raw": "GND",
          "meters": 0,
          "feet": 0,
          "flight_level": null,
          "gnd": true
        },
        "upper": {
          "raw": "2300m / 7650ft",
          "meters": 2300,
          "feet": 7650,
          "flight_level": null,
          "gnd": false
        },
        "center": {
          "lat": 46.373611,
          "lon": 7.005
        },
        "radius_m": 1111,
        "radius_candidates_m": {
          "table_km": 1100,
          "text_0_km": 1000,
          "text_1_nm": 1111
        },
        "geometry_source": "circle",
        "text": "HIGHLINE OBST ERECTED 3.9KM NNW HLP LEYSIN, BTN TOUR D AI AND TOUR DE MAYEN, RADIUS 1.0KM (462225N0070018E RADIUS 0.6NM). MARKED WITH WINDSOCKS AND RED OBST LGT. MAX ALT UP TO 186M AGL / 612FT AGL, 2319M AMSL / 7609FT AMSL."
      }
    },
    {
      "type": "Feature",
      "geometry": {
        "type": "Polygon",
        "coordinates": [
          [
            [
              9.550278,
              46.841936
            ],
            [
              9.55171,
              46.841888
            ],
            [
              9.553127,
              46.841744
            ],
            [
              9.554518,
              46.841506
            ],
            [
              9.555868,
              46.841175
            ],
            [
              9.557163,
              46.840756
            ],
            [
              9.558393,
              46.840252
            ],
            [
              9.559544,
              46.839668
            ],
            [
              9.560606,
              46.839009
            ],
            [
              9.561568,
              46.838282
            ],
            [
              9.562422,
              46.837495
            ],
            [
              9.563159,
              46.836654
            ],
            [
              9.563771,
              46.835767
            ],
            [
              9.564254,
              46.834844
            ],
            [
              9.564602,
              46.833893
            ],
            [
              9.564812,
              46.832923
            ],
            [
              9.564882,
              46.831944
            ],
            [
              9.564812,
              46.830964
            ],
            [
              9.564601,
              46.829994
            ],
            [
              9.564253,
              46.829043
            ],
            [
              9.56377,
              46.82812
            ],
            [
              9.563157,
              46.827234
            ],
            [
              9.56242,
              46.826393
            ],
            [
              9.561566,
              46.825605
            ],
            [
              9.560603,
              46.824879
            ],
            [
              9.559541,
              46.824221
            ],
            [
              9.55839,
              46.823637
            ],
            [
              9.557161,
              46.823133
            ],
            [
              9.555866,
              46.822713
            ],
            [
              9.554516,
              46.822383
            ],
            [
              9.553126,
              46.822145
            ],
            [
              9.551709,
              46.822001
            ],
            [
              9.550278,
              46.821953
            ],
            [
              9.548847,
              46.822001
            ],
            [
              9.547429,
              46.822145
            ],
            [
              9.546039,
              46.822383
            ],
            [
              9.54469,
              46.822713
            ],
            [
              9.543394,
              46.823133
            ],
            [
              9.542165,
              46.823637
            ],
            [
              9.541014,
              46.824221
            ],
            [
              9.539952,
              46.824879
            ],
            [
              9.53899,
              46.825605
            ],
            [
              9.538136,
              46.826393
            ],
            [
              9.537399,
              46.827234
            ],
            [
              9.536786,
              46.82812
            ],
            [
              9.536303,
              46.829043
            ],
            [
              9.535955,
              46.829994
            ],
            [
              9.535744,
              46.830964
            ],
            [
              9.535673,
              46.831944
            ],
            [
              9.535743,
              46.832923
            ],
            [
              9.535953,
              46.833893
            ],
            [
              9.536302,
              46.834844
            ],
            [
              9.536784,
              46.835767
            ],
            [
              9.537397,
              46.836654
            ],
            [
              9.538133,
              46.837495
            ],
            [
              9.538987,
              46.838282
            ],
            [
              9.53995,
              46.839009
            ],
            [
              9.541012,
              46.839668
            ],
            [
              9.542163,
              46.840252
            ],
            [
              9.543392,
              46.840756
            ],
            [
              9.544688,
              46.841175
            ],
            [
              9.546038,
              46.841506
            ],
            [
              9.547428,
              46.841744
            ],
            [
              9.548846,
              46.841888
            ],
            [
              9.550278,
              46.841936
            ]
          ]
        ]
      },
      "properties": {
        "id": "W2622/26",
        "notam": "W2622/26",
        "on_chart": true,
        "valid_from_utc": "2026-10-09T03:00:00+00:00",
        "valid_to_utc": "2026-10-09T08:00:00+00:00",
        "lower": {
          "raw": "GND",
          "meters": 0,
          "feet": 0,
          "flight_level": null,
          "gnd": true
        },
        "upper": {
          "raw": "1050m / 3500ft",
          "meters": 1050,
          "feet": 3500,
          "flight_level": null,
          "gnd": false
        },
        "center": {
          "lat": 46.831944,
          "lon": 9.550278
        },
        "radius_m": 1111,
        "radius_candidates_m": {
          "table_km": 1100,
          "text_0_km": 1000,
          "text_1_nm": 1111
        },
        "geometry_source": "circle",
        "text": "TEMPO R-AREA ST. PETER ESTABLISHED 2.9KM SE CHUR, RADIUS 1.0KM (464955N0093301E RADIUS 0.6NM). DUE TO MIL EXER. ENTRY PROHIBITED WHEN ACT EXC HEL EMERG MEDICAL SER (HEMS). FOR INFO ON ACT AND HEMS COOR CTC +41 78 863 55 30."
      }
    },
    {
      "type": "Feature",
      "geometry": {
        "type": "Polygon",
        "coordinates": [
          [
            [
              6.63,
              46.915008
            ],
            [
              6.634904,
              46.914843
            ],
            [
              6.63976,
              46.91435
            ],
            [
              6.644522,
              46.913535
            ],
            [
              6.649144,
              46.912405
            ],
            [
              6.653582,
              46.91097
            ],
            [
              6.657792,
              46.909245
            ],
            [
              6.661734,
              46.907246
            ],
            [
              6.665369,
              46.904993
            ],
            [
              6.668664,
              46.902507
            ],
            [
              6.671586,
              46.899812
            ],
            [
              6.674107,
              46.896934
            ],
            [
              6.676203,
              46.893902
            ],
            [
              6.677853,
              46.890744
            ],
            [
              6.679043,
              46.88749
            ],
            [
              6.67976,
              46.884172
            ],
            [
              6.679997,
              46.880822
            ],
            [
              6.679754,
              46.877473
            ],
            [
              6.679031,
              46.874156
            ],
            [
              6.677836,
              46.870903
            ],
            [
              6.67618,
              46.867746
            ],
            [
              6.674081,
              46.864715
            ],
            [
              6.671557,
              46.86184
            ],
            [
              6.668633,
              46.859147
            ],
            [
              6.665338,
              46.856663
            ],
            [
              6.661702,
              46.854412
            ],
            [
              6.657762,
              46.852415
            ],
            [
              6.653555,
              46.850692
            ],
            [
              6.649122,
              46.849259
            ],
            [
              6.644505,
              46.84813
            ],
            [
              6.639748,
              46.847315
            ],
            [
              6.634898,
              46.846824
            ],
            [
              6.63,
              46.846659
            ],
            [
              6.625102,
              46.846824
            ],
            [
              6.620252,
              46.847315
            ],
            [
              6.615495,
              46.84813
            ],
            [
              6.610878,
              46.849259
            ],
            [
              6.606445,
              46.850692
            ],
            [
              6.602238,
              46.852415
            ],
            [
              6.598298,
              46.854412
            ],
            [
              6.594662,
              46.856663
            ],
            [
              6.591367,
              46.859147
            ],
            [
              6.588443,
              46.86184
            ],
            [
              6.585919,
              46.864715
            ],
            [
              6.58382,
              46.867746
            ],
            [
              6.582164,
              46.870903
            ],
            [
              6.580969,
              46.874156
            ],
            [
              6.580246,
              46.877473
            ],
            [
              6.580003,
              46.880822
            ],
            [
              6.58024,
              46.884172
            ],
            [
              6.580957,
              46.88749
            ],
            [
              6.582147,
              46.890744
            ],
            [
              6.583797,
              46.893902
            ],
            [
              6.585893,
              46.896934
            ],
            [
              6.588414,
              46.899812
            ],
            [
              6.591336,
              46.902507
            ],
            [
              6.594631,
              46.904993
            ],
            [
              6.598266,
              46.907246
            ],
            [
              6.602208,
              46.909245
            ],
            [
              6.606418,
              46.91097
            ],
            [
              6.610856,
              46.912405
            ],
            [
              6.615478,
              46.913535
            ],
            [
              6.62024,
              46.91435
            ],
            [
              6.625096,
              46.914843
            ],
            [
              6.63,
              46.915008
            ]
          ]
        ]
      },
      "properties": {
        "id": "W2627/26",
        "notam": "W2627/26",
        "on_chart": true,
        "valid_from_utc": "2026-10-09T00:00:00+00:00",
        "valid_to_utc": "2026-10-09T08:00:00+00:00",
        "lower": {
          "raw": "GND",
          "meters": 0,
          "feet": 0,
          "flight_level": null,
          "gnd": true
        },
        "upper": {
          "raw": "1700m / 5500ft",
          "meters": 1700,
          "feet": 5500,
          "flight_level": null,
          "gnd": false
        },
        "center": {
          "lat": 46.880833,
          "lon": 6.63
        },
        "radius_m": 3800,
        "radius_candidates_m": {
          "table_km": 3800
        },
        "geometry_source": "circle",
        "text": "TEMPO R-AREA LE CHASSERON ESTABLISHED WI AREA: 465224N0063455E 465355N0064020E TO MIL EXER. ENTRY PROHIBITED WHEN ACT EXC HEL EMERG MEDICAL SER (HEMS). FOR INFO ON ACT AND HEMS COOR CTC +41 79 313 17 14."
      }
    },
    {
      "type": "Feature",
      "geometry": {
        "type": "Polygon",
        "coordinates": [
          [
            [
              7.911944,
              47.029991
            ],
            [
              7.913381,
              47.029943
            ],
            [
              7.914804,
              47.029799
            ],
            [
              7.9162,
              47.029561
            ],
            [
              7.917554,
              47.029231
            ],
            [
              7.918854,
              47.028811
            ],
            [
              7.920088,
              47.028307
            ],
            [
              7.921243,
              47.027723
            ],
            [
              7.922309,
              47.027065
            ],
            [
              7.923275,
              47.026338
            ],
            [
              7.924132,
              47.02555
            ],
            [
              7.924871,
              47.024709
            ],
            [
              7.925486,
              47.023823
            ],
            [
              7.92597,
              47.0229
            ],
            [
              7.926319,
              47.021948
            ],
            [
              7.92653,
              47.020978
            ],
            [
              7.9266,
              47.019999
            ],
            [
              7.926529,
              47.01902
            ],
            [
              7.926318,
              47.01805
            ],
            [
              7.925968,
              47.017099
            ],
            [
              7.925484,
              47.016176
            ],
            [
              7.924869,
              47.015289
            ],
            [
              7.924129,
              47.014448
            ],
            [
              7.923272,
              47.013661
            ],
            [
              7.922306,
              47.012935
            ],
            [
              7.921241,
              47.012276
            ],
            [
              7.920085,
              47.011692
            ],
            [
              7.918852,
              47.011188
            ],
            [
              7.917552,
              47.010769
            ],
            [
              7.916198,
              47.010439
            ],
            [
              7.914803,
              47.0102
            ],
            [
              7.913381,
              47.010057
            ],
            [
              7.911944,
              47.010009
            ],
            [
              7.910508,
              47.010057
            ],
            [
              7.909086,
              47.0102
            ],
            [
              7.907691,
              47.010439
            ],
            [
              7.906337,
              47.010769
            ],
            [
              7.905037,
              47.011188
            ],
            [
              7.903803,
              47.011692
            ],
            [
              7.902648,
              47.012276
            ],
            [
              7.901583,
              47.012935
            ],
            [
              7.900617,
              47.013661
            ],
            [
              7.89976,
              47.014448
            ],
            [
              7.89902,
              47.015289
            ],
            [
              7.898405,
              47.016176
            ],
            [
              7.897921,
              47.017099
            ],
            [
              7.897571,
              47.01805
            ],
            [
              7.89736,
              47.01902
            ],
            [
              7.897289,
              47.019999
            ],
            [
              7.897359,
              47.020978
            ],
            [
              7.89757,
              47.021948
            ],
            [
              7.897919,
              47.0229
            ],
            [
              7.898403,
              47.023823
            ],
            [
              7.899018,
              47.024709
            ],
            [
              7.899757,
              47.02555
            ],
            [
              7.900614,
              47.026338
            ],
            [
              7.90158,
              47.027065
            ],
            [
              7.902646,
              47.027723
            ],
            [
              7.903801,
              47.028307
            ],
            [
              7.905035,
              47.028811
            ],
            [
              7.906335,
              47.029231
            ],
            [
              7.907689,
              47.029561
            ],
            [
              7.909085,
              47.029799
            ],
            [
              7.910508,
              47.029943
            ],
            [
              7.911944,
              47.029991
            ]
          ]
        ]
      },
      "properties": {
        "id": "W2628/26",
        "notam": "W2628/26",
        "on_chart": true,
        "valid_from_utc": "2026-10-09T15:00:00+00:00",
        "valid_to_utc": "2026-10-09T18:00:00+00:00",
        "lower": {
          "raw": "GND",
          "meters": 0,
          "feet": 0,
          "flight_level": null,
          "gnd": true
        },
        "upper": {
          "raw": "1350m / 4500ft",
          "meters": 1350,
          "feet": 4500,
          "flight_level": null,
          "gnd": false
        },
        "center": {
          "lat": 47.02,
          "lon": 7.911944
        },
        "radius_m": 1111,
        "radius_candidates_m": {
          "table_km": 1100,
          "text_0_km": 1000,
          "text_1_nm": 1111
        },
        "geometry_source": "circle",
        "text": "TEMPO R-AREA NAPF ESTABLISHED, RADIUS 1.0KM (470112N0075443E RADIUS 0.6NM). DUE TO MIL EXER. ENTRY PROHIBITED WHEN ACT EXC HEL EMERG MEDICAL SER (HEMS). FOR INFO ON ACT AND HEMS COOR CTC +41 79 457 67 35."
      }
    }
  ]
}